<?xml version="1.0" encoding="UTF-8"?>
<gpx version="1.1" creator="tools/import_reference_gpx.py" xmlns="http://www.topografix.com/GPX/1/1">
  <metadata><name>Veitshöchheim: Mainufer und Hofgarten</name><desc>Referenz-Route (in komoot geplant) – vor Veröffentlichung prüfen</desc></metadata>
  <trk><name>Veitshöchheim: Mainufer und Hofgarten</name><trkseg>
    <trkpt lat="49.830342" lon="9.876272"><ele>176.6</ele></trkpt>
    <trkpt lat="49.830993" lon="9.876130"><ele>176.6</ele></trkpt>
    <trkpt lat="49.830988" lon="9.876079"><ele>176.6</ele></trkpt>
    <trkpt lat="49.830627" lon="9.876142"><ele>176.5</ele></trkpt>
    <trkpt lat="49.830624" lon="9.876115"><ele>176.5</ele></trkpt>
    <trkpt lat="49.830550" lon="9.876131"><ele>176.5</ele></trkpt>
    <trkpt lat="49.830544" lon="9.876184"><ele>176.5</ele></trkpt>
    <trkpt lat="49.830539" lon="9.876123"><ele>176.5</ele></trkpt>
    <trkpt lat="49.830449" lon="9.876121"><ele>176.4</ele></trkpt>
    <trkpt lat="49.830436" lon="9.876000"><ele>176.4</ele></trkpt>
    <trkpt lat="49.829479" lon="9.876257"><ele>176.1</ele></trkpt>
    <trkpt lat="49.828464" lon="9.876541"><ele>175.2</ele></trkpt>
    <trkpt lat="49.828318" lon="9.876557"><ele>175.0</ele></trkpt>
    <trkpt lat="49.828172" lon="9.876501"><ele>174.9</ele></trkpt>
    <trkpt lat="49.828123" lon="9.876079"><ele>174.6</ele></trkpt>
    <trkpt lat="49.828205" lon="9.876062"><ele>174.5</ele></trkpt>
    <trkpt lat="49.828361" lon="9.876029"><ele>174.3</ele></trkpt>
    <trkpt lat="49.828381" lon="9.876216"><ele>174.1</ele></trkpt>
    <trkpt lat="49.828361" lon="9.876029"><ele>174.0</ele></trkpt>
    <trkpt lat="49.828205" lon="9.876062"><ele>173.8</ele></trkpt>
    <trkpt lat="49.828173" lon="9.875723"><ele>173.4</ele></trkpt>
    <trkpt lat="49.828145" lon="9.875418"><ele>173.1</ele></trkpt>
    <trkpt lat="49.828057" lon="9.874471"><ele>172.1</ele></trkpt>
    <trkpt lat="49.828115" lon="9.874350"><ele>172.0</ele></trkpt>
    <trkpt lat="49.828084" lon="9.874089"><ele>171.7</ele></trkpt>
    <trkpt lat="49.828288" lon="9.874041"><ele>171.4</ele></trkpt>
    <trkpt lat="49.828084" lon="9.874089"><ele>171.1</ele></trkpt>
    <trkpt lat="49.828042" lon="9.873658"><ele>171.0</ele></trkpt>
    <trkpt lat="49.827979" lon="9.873676"><ele>170.9</ele></trkpt>
    <trkpt lat="49.827900" lon="9.872887"><ele>170.7</ele></trkpt>
    <trkpt lat="49.827735" lon="9.872926"><ele>170.7</ele></trkpt>
    <trkpt lat="49.827708" lon="9.872820"><ele>170.6</ele></trkpt>
    <trkpt lat="49.827931" lon="9.872737"><ele>170.5</ele></trkpt>
    <trkpt lat="49.828917" lon="9.872364"><ele>169.9</ele></trkpt>
    <trkpt lat="49.829390" lon="9.872210"><ele>169.5</ele></trkpt>
    <trkpt lat="49.829889" lon="9.872047"><ele>169.1</ele></trkpt>
    <trkpt lat="49.829958" lon="9.871968"><ele>169.0</ele></trkpt>
    <trkpt lat="49.829863" lon="9.871282"><ele>168.4</ele></trkpt>
    <trkpt lat="49.829827" lon="9.871097"><ele>168.3</ele></trkpt>
    <trkpt lat="49.830101" lon="9.870988"><ele>167.9</ele></trkpt>
    <trkpt lat="49.830145" lon="9.870971"><ele>167.8</ele></trkpt>
    <trkpt lat="49.830108" lon="9.870668"><ele>167.5</ele></trkpt>
    <trkpt lat="49.830053" lon="9.870292"><ele>167.1</ele></trkpt>
    <trkpt lat="49.830020" lon="9.870025"><ele>166.9</ele></trkpt>
    <trkpt lat="49.829991" lon="9.869741"><ele>166.6</ele></trkpt>
    <trkpt lat="49.830169" lon="9.869727"><ele>166.4</ele></trkpt>
    <trkpt lat="49.830405" lon="9.869716"><ele>166.3</ele></trkpt>
    <trkpt lat="49.830522" lon="9.869711"><ele>166.2</ele></trkpt>
    <trkpt lat="49.830562" lon="9.869710"><ele>166.2</ele></trkpt>
    <trkpt lat="49.830608" lon="9.869703"><ele>166.2</ele></trkpt>
    <trkpt lat="49.830727" lon="9.869686"><ele>166.2</ele></trkpt>
    <trkpt lat="49.830793" lon="9.869688"><ele>166.2</ele></trkpt>
    <trkpt lat="49.830920" lon="9.869684"><ele>166.2</ele></trkpt>
    <trkpt lat="49.831011" lon="9.869693"><ele>166.1</ele></trkpt>
    <trkpt lat="49.831048" lon="9.869696"><ele>166.1</ele></trkpt>
    <trkpt lat="49.831043" lon="9.869592"><ele>166.1</ele></trkpt>
    <trkpt lat="49.831165" lon="9.869606"><ele>166.1</ele></trkpt>
    <trkpt lat="49.831176" lon="9.869597"><ele>166.1</ele></trkpt>
    <trkpt lat="49.831199" lon="9.869552"><ele>166.1</ele></trkpt>
    <trkpt lat="49.831304" lon="9.869543"><ele>166.1</ele></trkpt>
    <trkpt lat="49.831575" lon="9.869504"><ele>166.0</ele></trkpt>
    <trkpt lat="49.831674" lon="9.869488"><ele>166.0</ele></trkpt>
    <trkpt lat="49.831944" lon="9.869444"><ele>166.0</ele></trkpt>
    <trkpt lat="49.832035" lon="9.869430"><ele>166.0</ele></trkpt>
    <trkpt lat="49.832257" lon="9.869384"><ele>166.0</ele></trkpt>
    <trkpt lat="49.832403" lon="9.869354"><ele>166.0</ele></trkpt>
    <trkpt lat="49.832471" lon="9.869340"><ele>166.0</ele></trkpt>
    <trkpt lat="49.832582" lon="9.869318"><ele>166.1</ele></trkpt>
    <trkpt lat="49.832590" lon="9.869445"><ele>166.1</ele></trkpt>
    <trkpt lat="49.832684" lon="9.869431"><ele>166.1</ele></trkpt>
    <trkpt lat="49.832702" lon="9.869498"><ele>166.1</ele></trkpt>
    <trkpt lat="49.832684" lon="9.869431"><ele>166.1</ele></trkpt>
    <trkpt lat="49.832739" lon="9.869394"><ele>166.1</ele></trkpt>
    <trkpt lat="49.832724" lon="9.869289"><ele>166.1</ele></trkpt>
    <trkpt lat="49.833229" lon="9.869220"><ele>166.2</ele></trkpt>
    <trkpt lat="49.833514" lon="9.869181"><ele>166.2</ele></trkpt>
    <trkpt lat="49.833777" lon="9.869142"><ele>166.2</ele></trkpt>
    <trkpt lat="49.834204" lon="9.869165"><ele>166.2</ele></trkpt>
    <trkpt lat="49.834540" lon="9.869132"><ele>166.2</ele></trkpt>
    <trkpt lat="49.835194" lon="9.868971"><ele>166.1</ele></trkpt>
    <trkpt lat="49.835246" lon="9.868958"><ele>166.1</ele></trkpt>
    <trkpt lat="49.835395" lon="9.868918"><ele>166.3</ele></trkpt>
    <trkpt lat="49.835464" lon="9.868900"><ele>166.4</ele></trkpt>
    <trkpt lat="49.835520" lon="9.868889"><ele>166.5</ele></trkpt>
    <trkpt lat="49.835548" lon="9.868885"><ele>166.5</ele></trkpt>
    <trkpt lat="49.835659" lon="9.868879"><ele>166.6</ele></trkpt>
    <trkpt lat="49.835844" lon="9.868964"><ele>166.9</ele></trkpt>
    <trkpt lat="49.835861" lon="9.869017"><ele>166.9</ele></trkpt>
    <trkpt lat="49.835851" lon="9.869059"><ele>167.0</ele></trkpt>
    <trkpt lat="49.835941" lon="9.869207"><ele>167.1</ele></trkpt>
    <trkpt lat="49.835977" lon="9.869284"><ele>167.2</ele></trkpt>
    <trkpt lat="49.836102" lon="9.869665"><ele>167.5</ele></trkpt>
    <trkpt lat="49.836267" lon="9.870178"><ele>168.0</ele></trkpt>
    <trkpt lat="49.836525" lon="9.871085"><ele>169.1</ele></trkpt>
    <trkpt lat="49.836670" lon="9.871681"><ele>169.9</ele></trkpt>
    <trkpt lat="49.836697" lon="9.871908"><ele>170.2</ele></trkpt>
    <trkpt lat="49.836405" lon="9.871902"><ele>170.8</ele></trkpt>
    <trkpt lat="49.836291" lon="9.871962"><ele>171.0</ele></trkpt>
    <trkpt lat="49.836463" lon="9.872456"><ele>171.8</ele></trkpt>
    <trkpt lat="49.836687" lon="9.873586"><ele>173.5</ele></trkpt>
    <trkpt lat="49.836796" lon="9.874041"><ele>174.2</ele></trkpt>
    <trkpt lat="49.836861" lon="9.874271"><ele>174.6</ele></trkpt>
    <trkpt lat="49.836920" lon="9.874418"><ele>174.9</ele></trkpt>
    <trkpt lat="49.837011" lon="9.874548"><ele>175.1</ele></trkpt>
    <trkpt lat="49.837131" lon="9.874656"><ele>175.5</ele></trkpt>
    <trkpt lat="49.837283" lon="9.874743"><ele>175.8</ele></trkpt>
    <trkpt lat="49.837444" lon="9.874783"><ele>176.2</ele></trkpt>
    <trkpt lat="49.837662" lon="9.874783"><ele>176.9</ele></trkpt>
    <trkpt lat="49.837882" lon="9.874693"><ele>177.5</ele></trkpt>
    <trkpt lat="49.837954" lon="9.874560"><ele>177.8</ele></trkpt>
    <trkpt lat="49.837982" lon="9.874402"><ele>178.1</ele></trkpt>
    <trkpt lat="49.838043" lon="9.874408"><ele>178.3</ele></trkpt>
    <trkpt lat="49.838211" lon="9.874459"><ele>178.8</ele></trkpt>
    <trkpt lat="49.838491" lon="9.874726"><ele>179.8</ele></trkpt>
    <trkpt lat="49.838653" lon="9.874949"><ele>180.4</ele></trkpt>
    <trkpt lat="49.838785" lon="9.875141"><ele>180.9</ele></trkpt>
    <trkpt lat="49.838841" lon="9.875136"><ele>181.1</ele></trkpt>
    <trkpt lat="49.838898" lon="9.875082"><ele>181.2</ele></trkpt>
    <trkpt lat="49.839141" lon="9.874699"><ele>182.4</ele></trkpt>
    <trkpt lat="49.839571" lon="9.874004"><ele>184.6</ele></trkpt>
    <trkpt lat="49.839769" lon="9.873769"><ele>185.5</ele></trkpt>
    <trkpt lat="49.840558" lon="9.873096"><ele>189.6</ele></trkpt>
    <trkpt lat="49.840632" lon="9.873032"><ele>190.1</ele></trkpt>
    <trkpt lat="49.840785" lon="9.872935"><ele>191.2</ele></trkpt>
    <trkpt lat="49.841026" lon="9.872874"><ele>192.8</ele></trkpt>
    <trkpt lat="49.841165" lon="9.872913"><ele>193.8</ele></trkpt>
    <trkpt lat="49.841251" lon="9.872946"><ele>194.4</ele></trkpt>
    <trkpt lat="49.842055" lon="9.873434"><ele>200.0</ele></trkpt>
    <trkpt lat="49.843156" lon="9.874122"><ele>207.7</ele></trkpt>
    <trkpt lat="49.843706" lon="9.874409"><ele>211.4</ele></trkpt>
    <trkpt lat="49.843728" lon="9.874564"><ele>212.2</ele></trkpt>
    <trkpt lat="49.843748" lon="9.874587"><ele>212.4</ele></trkpt>
    <trkpt lat="49.844219" lon="9.874883"><ele>216.3</ele></trkpt>
    <trkpt lat="49.844285" lon="9.874924"><ele>216.8</ele></trkpt>
    <trkpt lat="49.844759" lon="9.875155"><ele>220.6</ele></trkpt>
    <trkpt lat="49.845114" lon="9.875245"><ele>223.3</ele></trkpt>
    <trkpt lat="49.845351" lon="9.875306"><ele>225.3</ele></trkpt>
    <trkpt lat="49.846415" lon="9.875344"><ele>236.1</ele></trkpt>
    <trkpt lat="49.846953" lon="9.875223"><ele>241.6</ele></trkpt>
    <trkpt lat="49.847271" lon="9.875432"><ele>245.0</ele></trkpt>
    <trkpt lat="49.848073" lon="9.876214"><ele>254.3</ele></trkpt>
    <trkpt lat="49.848269" lon="9.876308"><ele>256.3</ele></trkpt>
    <trkpt lat="49.848240" lon="9.876223"><ele>256.9</ele></trkpt>
    <trkpt lat="49.848269" lon="9.876308"><ele>257.5</ele></trkpt>
    <trkpt lat="49.848369" lon="9.876193"><ele>258.8</ele></trkpt>
    <trkpt lat="49.848427" lon="9.876030"><ele>259.9</ele></trkpt>
    <trkpt lat="49.848702" lon="9.875062"><ele>267.9</ele></trkpt>
    <trkpt lat="49.848711" lon="9.874735"><ele>270.4</ele></trkpt>
    <trkpt lat="49.848906" lon="9.874771"><ele>272.7</ele></trkpt>
    <trkpt lat="49.849634" lon="9.875107"><ele>281.7</ele></trkpt>
    <trkpt lat="49.849768" lon="9.875095"><ele>282.6</ele></trkpt>
    <trkpt lat="49.849990" lon="9.875014"><ele>284.1</ele></trkpt>
    <trkpt lat="49.850859" lon="9.874864"><ele>289.9</ele></trkpt>
    <trkpt lat="49.851439" lon="9.874972"><ele>293.8</ele></trkpt>
    <trkpt lat="49.851757" lon="9.875234"><ele>293.7</ele></trkpt>
    <trkpt lat="49.851788" lon="9.875425"><ele>293.7</ele></trkpt>
    <trkpt lat="49.851793" lon="9.875855"><ele>293.7</ele></trkpt>
    <trkpt lat="49.852068" lon="9.876509"><ele>293.6</ele></trkpt>
    <trkpt lat="49.852161" lon="9.877088"><ele>293.6</ele></trkpt>
    <trkpt lat="49.852508" lon="9.876952"><ele>294.9</ele></trkpt>
    <trkpt lat="49.852571" lon="9.876895"><ele>295.3</ele></trkpt>
    <trkpt lat="49.852937" lon="9.876594"><ele>297.9</ele></trkpt>
    <trkpt lat="49.853253" lon="9.876272"><ele>300.2</ele></trkpt>
    <trkpt lat="49.853558" lon="9.876018"><ele>302.3</ele></trkpt>
    <trkpt lat="49.856527" lon="9.873535"><ele>325.6</ele></trkpt>
    <trkpt lat="49.857933" lon="9.872286"><ele>334.9</ele></trkpt>
    <trkpt lat="49.858075" lon="9.872051"><ele>336.0</ele></trkpt>
    <trkpt lat="49.858471" lon="9.872454"><ele>338.5</ele></trkpt>
    <trkpt lat="49.858811" lon="9.872815"><ele>340.1</ele></trkpt>
    <trkpt lat="49.859051" lon="9.873022"><ele>341.1</ele></trkpt>
    <trkpt lat="49.859722" lon="9.873437"><ele>343.6</ele></trkpt>
    <trkpt lat="49.860397" lon="9.874006"><ele>346.3</ele></trkpt>
    <trkpt lat="49.860647" lon="9.874269"><ele>347.4</ele></trkpt>
    <trkpt lat="49.860613" lon="9.874385"><ele>347.7</ele></trkpt>
    <trkpt lat="49.860726" lon="9.874551"><ele>348.3</ele></trkpt>
    <trkpt lat="49.861369" lon="9.875091"><ele>351.0</ele></trkpt>
    <trkpt lat="49.861449" lon="9.875147"><ele>351.3</ele></trkpt>
    <trkpt lat="49.861665" lon="9.875391"><ele>351.6</ele></trkpt>
    <trkpt lat="49.862157" lon="9.875792"><ele>350.4</ele></trkpt>
    <trkpt lat="49.862396" lon="9.876039"><ele>349.8</ele></trkpt>
    <trkpt lat="49.862522" lon="9.876119"><ele>349.5</ele></trkpt>
    <trkpt lat="49.862581" lon="9.876200"><ele>349.3</ele></trkpt>
    <trkpt lat="49.862618" lon="9.876280"><ele>349.2</ele></trkpt>
    <trkpt lat="49.862640" lon="9.876651"><ele>348.6</ele></trkpt>
    <trkpt lat="49.862560" lon="9.877157"><ele>347.8</ele></trkpt>
    <trkpt lat="49.862469" lon="9.877474"><ele>345.8</ele></trkpt>
    <trkpt lat="49.862220" lon="9.877800"><ele>342.8</ele></trkpt>
    <trkpt lat="49.862108" lon="9.878014"><ele>341.2</ele></trkpt>
    <trkpt lat="49.861749" lon="9.879107"><ele>334.1</ele></trkpt>
    <trkpt lat="49.861221" lon="9.880345"><ele>326.4</ele></trkpt>
    <trkpt lat="49.860732" lon="9.880783"><ele>322.0</ele></trkpt>
    <trkpt lat="49.860635" lon="9.880808"><ele>321.3</ele></trkpt>
    <trkpt lat="49.860266" lon="9.881027"><ele>318.2</ele></trkpt>
    <trkpt lat="49.860061" lon="9.881118"><ele>317.0</ele></trkpt>
    <trkpt lat="49.859916" lon="9.881230"><ele>316.1</ele></trkpt>
    <trkpt lat="49.859785" lon="9.881293"><ele>315.4</ele></trkpt>
    <trkpt lat="49.859742" lon="9.881313"><ele>315.2</ele></trkpt>
    <trkpt lat="49.859555" lon="9.881356"><ele>314.2</ele></trkpt>
    <trkpt lat="49.859220" lon="9.881666"><ele>312.2</ele></trkpt>
    <trkpt lat="49.858806" lon="9.882183"><ele>309.4</ele></trkpt>
    <trkpt lat="49.858680" lon="9.882396"><ele>308.4</ele></trkpt>
    <trkpt lat="49.858587" lon="9.882471"><ele>308.0</ele></trkpt>
    <trkpt lat="49.858517" lon="9.882528"><ele>307.6</ele></trkpt>
    <trkpt lat="49.858299" lon="9.882832"><ele>306.3</ele></trkpt>
    <trkpt lat="49.858036" lon="9.882966"><ele>305.1</ele></trkpt>
    <trkpt lat="49.857551" lon="9.883090"><ele>302.9</ele></trkpt>
    <trkpt lat="49.857135" lon="9.883087"><ele>301.1</ele></trkpt>
    <trkpt lat="49.856818" lon="9.883321"><ele>299.9</ele></trkpt>
    <trkpt lat="49.856705" lon="9.883453"><ele>299.5</ele></trkpt>
    <trkpt lat="49.856543" lon="9.883742"><ele>298.8</ele></trkpt>
    <trkpt lat="49.856312" lon="9.884378"><ele>297.5</ele></trkpt>
    <trkpt lat="49.856257" lon="9.884756"><ele>296.7</ele></trkpt>
    <trkpt lat="49.856155" lon="9.885182"><ele>295.9</ele></trkpt>
    <trkpt lat="49.856119" lon="9.885331"><ele>295.6</ele></trkpt>
    <trkpt lat="49.855915" lon="9.885730"><ele>294.8</ele></trkpt>
    <trkpt lat="49.855846" lon="9.885767"><ele>294.6</ele></trkpt>
    <trkpt lat="49.854615" lon="9.886774"><ele>291.2</ele></trkpt>
    <trkpt lat="49.854296" lon="9.887087"><ele>289.9</ele></trkpt>
    <trkpt lat="49.853999" lon="9.886835"><ele>288.6</ele></trkpt>
    <trkpt lat="49.853826" lon="9.886637"><ele>287.8</ele></trkpt>
    <trkpt lat="49.853781" lon="9.886586"><ele>287.6</ele></trkpt>
    <trkpt lat="49.853527" lon="9.886162"><ele>286.2</ele></trkpt>
    <trkpt lat="49.853294" lon="9.885596"><ele>284.6</ele></trkpt>
    <trkpt lat="49.853183" lon="9.885438"><ele>284.2</ele></trkpt>
    <trkpt lat="49.853003" lon="9.885304"><ele>283.8</ele></trkpt>
    <trkpt lat="49.852875" lon="9.885250"><ele>283.6</ele></trkpt>
    <trkpt lat="49.852557" lon="9.885494"><ele>282.9</ele></trkpt>
    <trkpt lat="49.852338" lon="9.886032"><ele>282.2</ele></trkpt>
    <trkpt lat="49.852238" lon="9.886575"><ele>281.5</ele></trkpt>
    <trkpt lat="49.851121" lon="9.886914"><ele>279.5</ele></trkpt>
    <trkpt lat="49.850636" lon="9.887326"><ele>278.6</ele></trkpt>
    <trkpt lat="49.849099" lon="9.888236"><ele>274.5</ele></trkpt>
    <trkpt lat="49.848365" lon="9.888632"><ele>271.8</ele></trkpt>
    <trkpt lat="49.848059" lon="9.888816"><ele>270.1</ele></trkpt>
    <trkpt lat="49.847725" lon="9.888881"><ele>268.4</ele></trkpt>
    <trkpt lat="49.847500" lon="9.888754"><ele>267.2</ele></trkpt>
    <trkpt lat="49.847178" lon="9.888746"><ele>265.5</ele></trkpt>
    <trkpt lat="49.847077" lon="9.888834"><ele>265.0</ele></trkpt>
    <trkpt lat="49.847148" lon="9.888608"><ele>264.1</ele></trkpt>
    <trkpt lat="49.847172" lon="9.888048"><ele>261.5</ele></trkpt>
    <trkpt lat="49.846955" lon="9.888088"><ele>259.9</ele></trkpt>
    <trkpt lat="49.846454" lon="9.887912"><ele>256.0</ele></trkpt>
    <trkpt lat="49.846006" lon="9.888063"><ele>252.5</ele></trkpt>
    <trkpt lat="49.845358" lon="9.887992"><ele>247.5</ele></trkpt>
    <trkpt lat="49.844752" lon="9.888304"><ele>242.6</ele></trkpt>
    <trkpt lat="49.844522" lon="9.888354"><ele>240.8</ele></trkpt>
    <trkpt lat="49.844036" lon="9.888578"><ele>236.9</ele></trkpt>
    <trkpt lat="49.843850" lon="9.888664"><ele>235.7</ele></trkpt>
    <trkpt lat="49.843570" lon="9.888903"><ele>234.0</ele></trkpt>
    <trkpt lat="49.843156" lon="9.889305"><ele>231.3</ele></trkpt>
    <trkpt lat="49.842827" lon="9.889768"><ele>228.9</ele></trkpt>
    <trkpt lat="49.842657" lon="9.890008"><ele>227.6</ele></trkpt>
    <trkpt lat="49.842438" lon="9.890414"><ele>226.1</ele></trkpt>
    <trkpt lat="49.842139" lon="9.890617"><ele>225.2</ele></trkpt>
    <trkpt lat="49.842007" lon="9.890512"><ele>224.8</ele></trkpt>
    <trkpt lat="49.841652" lon="9.890295"><ele>223.6</ele></trkpt>
    <trkpt lat="49.841452" lon="9.890062"><ele>222.9</ele></trkpt>
    <trkpt lat="49.840666" lon="9.888537"><ele>223.4</ele></trkpt>
    <trkpt lat="49.840546" lon="9.888741"><ele>223.9</ele></trkpt>
    <trkpt lat="49.840183" lon="9.889243"><ele>225.3</ele></trkpt>
    <trkpt lat="49.840000" lon="9.889200"><ele>225.9</ele></trkpt>
    <trkpt lat="49.839781" lon="9.888775"><ele>227.9</ele></trkpt>
    <trkpt lat="49.839721" lon="9.888775"><ele>228.6</ele></trkpt>
    <trkpt lat="49.839517" lon="9.888984"><ele>231.4</ele></trkpt>
    <trkpt lat="49.839183" lon="9.889440"><ele>236.6</ele></trkpt>
    <trkpt lat="49.838730" lon="9.889965"><ele>243.2</ele></trkpt>
    <trkpt lat="49.838664" lon="9.889974"><ele>243.9</ele></trkpt>
    <trkpt lat="49.838583" lon="9.889932"><ele>244.9</ele></trkpt>
    <trkpt lat="49.838480" lon="9.890035"><ele>246.3</ele></trkpt>
    <trkpt lat="49.838054" lon="9.890471"><ele>248.9</ele></trkpt>
    <trkpt lat="49.837741" lon="9.889927"><ele>250.5</ele></trkpt>
    <trkpt lat="49.836703" lon="9.889383"><ele>253.3</ele></trkpt>
    <trkpt lat="49.836627" lon="9.889364"><ele>253.1</ele></trkpt>
    <trkpt lat="49.836542" lon="9.889398"><ele>252.9</ele></trkpt>
    <trkpt lat="49.836264" lon="9.889680"><ele>252.2</ele></trkpt>
    <trkpt lat="49.836227" lon="9.889669"><ele>252.1</ele></trkpt>
    <trkpt lat="49.836018" lon="9.889894"><ele>251.5</ele></trkpt>
    <trkpt lat="49.835907" lon="9.889586"><ele>251.0</ele></trkpt>
    <trkpt lat="49.835776" lon="9.889447"><ele>250.6</ele></trkpt>
    <trkpt lat="49.835272" lon="9.888806"><ele>248.6</ele></trkpt>
    <trkpt lat="49.834847" lon="9.888284"><ele>246.1</ele></trkpt>
    <trkpt lat="49.834827" lon="9.888334"><ele>245.9</ele></trkpt>
    <trkpt lat="49.834430" lon="9.887965"><ele>243.7</ele></trkpt>
    <trkpt lat="49.834311" lon="9.887946"><ele>243.2</ele></trkpt>
    <trkpt lat="49.834082" lon="9.887317"><ele>240.9</ele></trkpt>
    <trkpt lat="49.834027" lon="9.887255"><ele>240.5</ele></trkpt>
    <trkpt lat="49.833646" lon="9.886920"><ele>237.8</ele></trkpt>
    <trkpt lat="49.833535" lon="9.886739"><ele>236.8</ele></trkpt>
    <trkpt lat="49.833240" lon="9.886250"><ele>234.1</ele></trkpt>
    <trkpt lat="49.832925" lon="9.885642"><ele>231.0</ele></trkpt>
    <trkpt lat="49.832918" lon="9.885352"><ele>229.9</ele></trkpt>
    <trkpt lat="49.832796" lon="9.884964"><ele>228.4</ele></trkpt>
    <trkpt lat="49.832631" lon="9.884673"><ele>227.1</ele></trkpt>
    <trkpt lat="49.832457" lon="9.884472"><ele>225.9</ele></trkpt>
    <trkpt lat="49.832339" lon="9.884398"><ele>225.2</ele></trkpt>
    <trkpt lat="49.832260" lon="9.884358"><ele>224.8</ele></trkpt>
    <trkpt lat="49.831990" lon="9.884321"><ele>223.3</ele></trkpt>
    <trkpt lat="49.831547" lon="9.884460"><ele>220.9</ele></trkpt>
    <trkpt lat="49.831441" lon="9.884330"><ele>220.1</ele></trkpt>
    <trkpt lat="49.831386" lon="9.884192"><ele>219.4</ele></trkpt>
    <trkpt lat="49.831245" lon="9.883922"><ele>217.9</ele></trkpt>
    <trkpt lat="49.831087" lon="9.883616"><ele>216.1</ele></trkpt>
    <trkpt lat="49.830930" lon="9.883311"><ele>214.4</ele></trkpt>
    <trkpt lat="49.830910" lon="9.883272"><ele>214.2</ele></trkpt>
    <trkpt lat="49.830811" lon="9.883074"><ele>213.1</ele></trkpt>
    <trkpt lat="49.830762" lon="9.882978"><ele>212.6</ele></trkpt>
    <trkpt lat="49.830832" lon="9.882774"><ele>211.5</ele></trkpt>
    <trkpt lat="49.830917" lon="9.882548"><ele>210.4</ele></trkpt>
    <trkpt lat="49.831084" lon="9.882037"><ele>207.8</ele></trkpt>
    <trkpt lat="49.831103" lon="9.881826"><ele>206.9</ele></trkpt>
    <trkpt lat="49.831095" lon="9.881484"><ele>205.3</ele></trkpt>
    <trkpt lat="49.831085" lon="9.881029"><ele>203.2</ele></trkpt>
    <trkpt lat="49.831100" lon="9.880830"><ele>202.3</ele></trkpt>
    <trkpt lat="49.831161" lon="9.880587"><ele>201.1</ele></trkpt>
    <trkpt lat="49.831264" lon="9.880308"><ele>199.6</ele></trkpt>
    <trkpt lat="49.831486" lon="9.879741"><ele>196.5</ele></trkpt>
    <trkpt lat="49.831598" lon="9.879303"><ele>194.8</ele></trkpt>
    <trkpt lat="49.831742" lon="9.878279"><ele>192.0</ele></trkpt>
    <trkpt lat="49.831994" lon="9.877569"><ele>189.9</ele></trkpt>
    <trkpt lat="49.832145" lon="9.877240"><ele>188.9</ele></trkpt>
    <trkpt lat="49.832262" lon="9.877058"><ele>188.2</ele></trkpt>
    <trkpt lat="49.832389" lon="9.876938"><ele>187.7</ele></trkpt>
    <trkpt lat="49.832919" lon="9.876602"><ele>185.8</ele></trkpt>
    <trkpt lat="49.833702" lon="9.876181"><ele>183.2</ele></trkpt>
    <trkpt lat="49.833800" lon="9.876081"><ele>182.8</ele></trkpt>
    <trkpt lat="49.833877" lon="9.875866"><ele>182.3</ele></trkpt>
    <trkpt lat="49.833872" lon="9.875614"><ele>181.9</ele></trkpt>
    <trkpt lat="49.833819" lon="9.875446"><ele>181.5</ele></trkpt>
    <trkpt lat="49.833767" lon="9.875367"><ele>181.4</ele></trkpt>
    <trkpt lat="49.833732" lon="9.875332"><ele>181.2</ele></trkpt>
    <trkpt lat="49.833679" lon="9.875287"><ele>181.1</ele></trkpt>
    <trkpt lat="49.833542" lon="9.875261"><ele>180.7</ele></trkpt>
    <trkpt lat="49.833262" lon="9.875326"><ele>180.0</ele></trkpt>
    <trkpt lat="49.833063" lon="9.875460"><ele>179.5</ele></trkpt>
    <trkpt lat="49.833056" lon="9.875464"><ele>179.4</ele></trkpt>
    <trkpt lat="49.832995" lon="9.875500"><ele>179.3</ele></trkpt>
    <trkpt lat="49.832924" lon="9.875542"><ele>179.1</ele></trkpt>
    <trkpt lat="49.832841" lon="9.875546"><ele>178.9</ele></trkpt>
    <trkpt lat="49.832789" lon="9.875512"><ele>178.7</ele></trkpt>
    <trkpt lat="49.832421" lon="9.875574"><ele>177.8</ele></trkpt>
    <trkpt lat="49.832232" lon="9.875605"><ele>177.6</ele></trkpt>
    <trkpt lat="49.831871" lon="9.875707"><ele>177.4</ele></trkpt>
    <trkpt lat="49.831795" lon="9.875707"><ele>177.3</ele></trkpt>
    <trkpt lat="49.831787" lon="9.875629"><ele>177.3</ele></trkpt>
    <trkpt lat="49.831780" lon="9.875536"><ele>177.3</ele></trkpt>
    <trkpt lat="49.831778" lon="9.875489"><ele>177.3</ele></trkpt>
    <trkpt lat="49.831849" lon="9.875462"><ele>177.2</ele></trkpt>
    <trkpt lat="49.831778" lon="9.875489"><ele>177.2</ele></trkpt>
    <trkpt lat="49.831780" lon="9.875536"><ele>177.2</ele></trkpt>
    <trkpt lat="49.831787" lon="9.875629"><ele>177.1</ele></trkpt>
    <trkpt lat="49.831795" lon="9.875707"><ele>177.1</ele></trkpt>
    <trkpt lat="49.831610" lon="9.875690"><ele>177.0</ele></trkpt>
    <trkpt lat="49.831329" lon="9.875747"><ele>176.9</ele></trkpt>
    <trkpt lat="49.831281" lon="9.875756"><ele>176.9</ele></trkpt>
    <trkpt lat="49.831239" lon="9.875701"><ele>176.8</ele></trkpt>
    <trkpt lat="49.831044" lon="9.875777"><ele>176.7</ele></trkpt>
    <trkpt lat="49.831016" lon="9.875840"><ele>176.7</ele></trkpt>
    <trkpt lat="49.830953" lon="9.875889"><ele>176.7</ele></trkpt>
    <trkpt lat="49.830940" lon="9.875952"><ele>176.7</ele></trkpt>
    <trkpt lat="49.830694" lon="9.876006"><ele>176.7</ele></trkpt>
    <trkpt lat="49.830680" lon="9.876096"><ele>176.7</ele></trkpt>
    <trkpt lat="49.830683" lon="9.876130"><ele>176.7</ele></trkpt>
    <trkpt lat="49.830653" lon="9.876136"><ele>176.7</ele></trkpt>
    <trkpt lat="49.830627" lon="9.876142"><ele>176.7</ele></trkpt>
    <trkpt lat="49.830988" lon="9.876079"><ele>176.7</ele></trkpt>
    <trkpt lat="49.830993" lon="9.876130"><ele>176.7</ele></trkpt>
    <trkpt lat="49.830342" lon="9.876272"><ele>176.7</ele></trkpt>
  </trkseg></trk>
</gpx>
