<?xml version="1.0" encoding="UTF-8"?>
<gpx version="1.1" creator="tools/import_reference_gpx.py" xmlns="http://www.topografix.com/GPX/1/1">
  <metadata><name>Winterhausen: Mondweg und Steinbruch</name><desc>Referenz-Route (in komoot geplant) – vor Veröffentlichung prüfen</desc></metadata>
  <trk><name>Winterhausen: Mondweg und Steinbruch</name><trkseg>
    <trkpt lat="49.708947" lon="10.011327"><ele>187.0</ele></trkpt>
    <trkpt lat="49.707850" lon="10.012776"><ele>187.0</ele></trkpt>
    <trkpt lat="49.707819" lon="10.012849"><ele>187.0</ele></trkpt>
    <trkpt lat="49.707773" lon="10.012901"><ele>187.0</ele></trkpt>
    <trkpt lat="49.707778" lon="10.012909"><ele>187.0</ele></trkpt>
    <trkpt lat="49.707803" lon="10.012945"><ele>187.0</ele></trkpt>
    <trkpt lat="49.707460" lon="10.013377"><ele>187.0</ele></trkpt>
    <trkpt lat="49.707349" lon="10.013528"><ele>187.0</ele></trkpt>
    <trkpt lat="49.707295" lon="10.013610"><ele>186.9</ele></trkpt>
    <trkpt lat="49.707250" lon="10.013678"><ele>186.9</ele></trkpt>
    <trkpt lat="49.707189" lon="10.013598"><ele>186.9</ele></trkpt>
    <trkpt lat="49.707031" lon="10.013421"><ele>186.9</ele></trkpt>
    <trkpt lat="49.706975" lon="10.013357"><ele>186.9</ele></trkpt>
    <trkpt lat="49.706909" lon="10.013284"><ele>187.2</ele></trkpt>
    <trkpt lat="49.706753" lon="10.013130"><ele>188.0</ele></trkpt>
    <trkpt lat="49.706655" lon="10.013040"><ele>188.6</ele></trkpt>
    <trkpt lat="49.706450" lon="10.012773"><ele>189.8</ele></trkpt>
    <trkpt lat="49.706265" lon="10.012443"><ele>191.1</ele></trkpt>
    <trkpt lat="49.705979" lon="10.011779"><ele>193.5</ele></trkpt>
    <trkpt lat="49.705889" lon="10.011548"><ele>194.3</ele></trkpt>
    <trkpt lat="49.705578" lon="10.011858"><ele>196.5</ele></trkpt>
    <trkpt lat="49.705537" lon="10.011904"><ele>196.9</ele></trkpt>
    <trkpt lat="49.705481" lon="10.011967"><ele>197.5</ele></trkpt>
    <trkpt lat="49.705370" lon="10.011987"><ele>198.3</ele></trkpt>
    <trkpt lat="49.704941" lon="10.011783"><ele>201.8</ele></trkpt>
    <trkpt lat="49.704253" lon="10.011391"><ele>207.5</ele></trkpt>
    <trkpt lat="49.703471" lon="10.010322"><ele>215.1</ele></trkpt>
    <trkpt lat="49.703232" lon="10.010053"><ele>217.2</ele></trkpt>
    <trkpt lat="49.702926" lon="10.009847"><ele>219.6</ele></trkpt>
    <trkpt lat="49.702276" lon="10.008937"><ele>226.7</ele></trkpt>
    <trkpt lat="49.701710" lon="10.008492"><ele>232.3</ele></trkpt>
    <trkpt lat="49.701569" lon="10.008382"><ele>233.7</ele></trkpt>
    <trkpt lat="49.701495" lon="10.008502"><ele>234.7</ele></trkpt>
    <trkpt lat="49.701448" lon="10.008459"><ele>235.2</ele></trkpt>
    <trkpt lat="49.701372" lon="10.008427"><ele>235.9</ele></trkpt>
    <trkpt lat="49.700117" lon="10.009047"><ele>248.3</ele></trkpt>
    <trkpt lat="49.699734" lon="10.009360"><ele>252.4</ele></trkpt>
    <trkpt lat="49.699496" lon="10.009614"><ele>255.1</ele></trkpt>
    <trkpt lat="49.699242" lon="10.009943"><ele>256.0</ele></trkpt>
    <trkpt lat="49.698296" lon="10.011605"><ele>260.2</ele></trkpt>
    <trkpt lat="49.698165" lon="10.011878"><ele>261.0</ele></trkpt>
    <trkpt lat="49.697984" lon="10.012256"><ele>262.1</ele></trkpt>
    <trkpt lat="49.697503" lon="10.012851"><ele>264.4</ele></trkpt>
    <trkpt lat="49.697456" lon="10.012937"><ele>264.6</ele></trkpt>
    <trkpt lat="49.697428" lon="10.012987"><ele>264.8</ele></trkpt>
    <trkpt lat="49.697360" lon="10.013006"><ele>265.0</ele></trkpt>
    <trkpt lat="49.697357" lon="10.012811"><ele>265.5</ele></trkpt>
    <trkpt lat="49.697357" lon="10.012776"><ele>265.6</ele></trkpt>
    <trkpt lat="49.697303" lon="10.012634"><ele>266.0</ele></trkpt>
    <trkpt lat="49.697027" lon="10.012233"><ele>267.6</ele></trkpt>
    <trkpt lat="49.696791" lon="10.011708"><ele>270.0</ele></trkpt>
    <trkpt lat="49.696774" lon="10.011441"><ele>271.0</ele></trkpt>
    <trkpt lat="49.696990" lon="10.011221"><ele>272.5</ele></trkpt>
    <trkpt lat="49.696774" lon="10.011441"><ele>273.9</ele></trkpt>
    <trkpt lat="49.696756" lon="10.011378"><ele>274.2</ele></trkpt>
    <trkpt lat="49.696626" lon="10.011234"><ele>275.1</ele></trkpt>
    <trkpt lat="49.696524" lon="10.011254"><ele>275.7</ele></trkpt>
    <trkpt lat="49.696497" lon="10.011140"><ele>276.1</ele></trkpt>
    <trkpt lat="49.696502" lon="10.010753"><ele>277.5</ele></trkpt>
    <trkpt lat="49.696573" lon="10.010215"><ele>279.1</ele></trkpt>
    <trkpt lat="49.696551" lon="10.009989"><ele>279.7</ele></trkpt>
    <trkpt lat="49.695761" lon="10.007973"><ele>286.1</ele></trkpt>
    <trkpt lat="49.695722" lon="10.007800"><ele>286.4</ele></trkpt>
    <trkpt lat="49.695662" lon="10.007236"><ele>287.4</ele></trkpt>
    <trkpt lat="49.695789" lon="10.006530"><ele>288.6</ele></trkpt>
    <trkpt lat="49.695796" lon="10.006471"><ele>288.7</ele></trkpt>
    <trkpt lat="49.695772" lon="10.006397"><ele>288.9</ele></trkpt>
    <trkpt lat="49.694605" lon="10.005950"><ele>289.7</ele></trkpt>
    <trkpt lat="49.694509" lon="10.006465"><ele>289.5</ele></trkpt>
    <trkpt lat="49.694391" lon="10.006866"><ele>289.4</ele></trkpt>
    <trkpt lat="49.694250" lon="10.007230"><ele>289.2</ele></trkpt>
    <trkpt lat="49.693838" lon="10.008113"><ele>288.4</ele></trkpt>
    <trkpt lat="49.693730" lon="10.008430"><ele>288.0</ele></trkpt>
    <trkpt lat="49.693600" lon="10.009249"><ele>287.3</ele></trkpt>
    <trkpt lat="49.693466" lon="10.009992"><ele>286.6</ele></trkpt>
    <trkpt lat="49.693295" lon="10.010332"><ele>286.4</ele></trkpt>
    <trkpt lat="49.693128" lon="10.010512"><ele>286.2</ele></trkpt>
    <trkpt lat="49.692494" lon="10.011073"><ele>285.7</ele></trkpt>
    <trkpt lat="49.691281" lon="10.012214"><ele>285.3</ele></trkpt>
    <trkpt lat="49.691064" lon="10.012441"><ele>285.3</ele></trkpt>
    <trkpt lat="49.690694" lon="10.012743"><ele>285.3</ele></trkpt>
    <trkpt lat="49.690254" lon="10.012945"><ele>285.4</ele></trkpt>
    <trkpt lat="49.690209" lon="10.012735"><ele>285.4</ele></trkpt>
    <trkpt lat="49.689689" lon="10.012925"><ele>285.6</ele></trkpt>
    <trkpt lat="49.689642" lon="10.012942"><ele>285.6</ele></trkpt>
    <trkpt lat="49.689492" lon="10.013103"><ele>285.7</ele></trkpt>
    <trkpt lat="49.689454" lon="10.013208"><ele>285.7</ele></trkpt>
    <trkpt lat="49.689448" lon="10.013528"><ele>285.7</ele></trkpt>
    <trkpt lat="49.689444" lon="10.013695"><ele>285.8</ele></trkpt>
    <trkpt lat="49.689113" lon="10.014786"><ele>285.0</ele></trkpt>
    <trkpt lat="49.689064" lon="10.015261"><ele>284.5</ele></trkpt>
    <trkpt lat="49.688969" lon="10.015667"><ele>284.0</ele></trkpt>
    <trkpt lat="49.688981" lon="10.015787"><ele>283.9</ele></trkpt>
    <trkpt lat="49.689157" lon="10.016065"><ele>283.5</ele></trkpt>
    <trkpt lat="49.689238" lon="10.016374"><ele>283.1</ele></trkpt>
    <trkpt lat="49.689447" lon="10.016757"><ele>282.2</ele></trkpt>
    <trkpt lat="49.689460" lon="10.016684"><ele>282.0</ele></trkpt>
    <trkpt lat="49.689447" lon="10.016757"><ele>281.8</ele></trkpt>
    <trkpt lat="49.689642" lon="10.017009"><ele>280.8</ele></trkpt>
    <trkpt lat="49.689578" lon="10.017350"><ele>279.9</ele></trkpt>
    <trkpt lat="49.689564" lon="10.017427"><ele>279.7</ele></trkpt>
    <trkpt lat="49.689373" lon="10.017489"><ele>279.0</ele></trkpt>
    <trkpt lat="49.689170" lon="10.017490"><ele>278.2</ele></trkpt>
    <trkpt lat="49.689044" lon="10.017845"><ele>277.1</ele></trkpt>
    <trkpt lat="49.688996" lon="10.017900"><ele>276.9</ele></trkpt>
    <trkpt lat="49.688814" lon="10.017786"><ele>276.1</ele></trkpt>
    <trkpt lat="49.688693" lon="10.017664"><ele>275.6</ele></trkpt>
    <trkpt lat="49.688540" lon="10.017618"><ele>275.1</ele></trkpt>
    <trkpt lat="49.688411" lon="10.017534"><ele>274.7</ele></trkpt>
    <trkpt lat="49.688011" lon="10.017273"><ele>273.3</ele></trkpt>
    <trkpt lat="49.687785" lon="10.016860"><ele>272.2</ele></trkpt>
    <trkpt lat="49.687684" lon="10.016294"><ele>271.0</ele></trkpt>
    <trkpt lat="49.687684" lon="10.016239"><ele>270.9</ele></trkpt>
    <trkpt lat="49.687676" lon="10.015653"><ele>270.2</ele></trkpt>
    <trkpt lat="49.687653" lon="10.015509"><ele>270.1</ele></trkpt>
    <trkpt lat="49.687649" lon="10.014482"><ele>270.0</ele></trkpt>
    <trkpt lat="49.687677" lon="10.013751"><ele>269.9</ele></trkpt>
    <trkpt lat="49.687636" lon="10.013423"><ele>269.9</ele></trkpt>
    <trkpt lat="49.687316" lon="10.011906"><ele>270.3</ele></trkpt>
    <trkpt lat="49.687281" lon="10.011603"><ele>270.4</ele></trkpt>
    <trkpt lat="49.687215" lon="10.010836"><ele>270.6</ele></trkpt>
    <trkpt lat="49.687064" lon="10.010441"><ele>270.8</ele></trkpt>
    <trkpt lat="49.687060" lon="10.010232"><ele>270.7</ele></trkpt>
    <trkpt lat="49.686955" lon="10.009856"><ele>270.5</ele></trkpt>
    <trkpt lat="49.686861" lon="10.009768"><ele>270.4</ele></trkpt>
    <trkpt lat="49.686844" lon="10.009908"><ele>270.4</ele></trkpt>
    <trkpt lat="49.686842" lon="10.010713"><ele>270.0</ele></trkpt>
    <trkpt lat="49.686818" lon="10.010856"><ele>270.0</ele></trkpt>
    <trkpt lat="49.686623" lon="10.011713"><ele>269.6</ele></trkpt>
    <trkpt lat="49.686412" lon="10.012137"><ele>269.1</ele></trkpt>
    <trkpt lat="49.686374" lon="10.012270"><ele>269.0</ele></trkpt>
    <trkpt lat="49.686310" lon="10.013214"><ele>268.3</ele></trkpt>
    <trkpt lat="49.686251" lon="10.013683"><ele>267.9</ele></trkpt>
    <trkpt lat="49.686122" lon="10.014221"><ele>267.5</ele></trkpt>
    <trkpt lat="49.685796" lon="10.015113"><ele>265.6</ele></trkpt>
    <trkpt lat="49.685381" lon="10.015876"><ele>263.8</ele></trkpt>
    <trkpt lat="49.685108" lon="10.016689"><ele>261.9</ele></trkpt>
    <trkpt lat="49.684772" lon="10.017501"><ele>259.1</ele></trkpt>
    <trkpt lat="49.684616" lon="10.017972"><ele>257.6</ele></trkpt>
    <trkpt lat="49.684509" lon="10.018154"><ele>256.9</ele></trkpt>
    <trkpt lat="49.684422" lon="10.018260"><ele>256.4</ele></trkpt>
    <trkpt lat="49.684109" lon="10.018476"><ele>254.8</ele></trkpt>
    <trkpt lat="49.684049" lon="10.018562"><ele>254.5</ele></trkpt>
    <trkpt lat="49.683972" lon="10.018893"><ele>252.9</ele></trkpt>
    <trkpt lat="49.683989" lon="10.018965"><ele>252.5</ele></trkpt>
    <trkpt lat="49.683913" lon="10.019746"><ele>248.6</ele></trkpt>
    <trkpt lat="49.683851" lon="10.020377"><ele>245.4</ele></trkpt>
    <trkpt lat="49.683855" lon="10.020565"><ele>244.5</ele></trkpt>
    <trkpt lat="49.683886" lon="10.020608"><ele>244.1</ele></trkpt>
    <trkpt lat="49.683966" lon="10.020614"><ele>243.5</ele></trkpt>
    <trkpt lat="49.684132" lon="10.020475"><ele>242.1</ele></trkpt>
    <trkpt lat="49.684229" lon="10.020441"><ele>241.3</ele></trkpt>
    <trkpt lat="49.684290" lon="10.020510"><ele>240.7</ele></trkpt>
    <trkpt lat="49.684298" lon="10.020601"><ele>240.3</ele></trkpt>
    <trkpt lat="49.684226" lon="10.020732"><ele>239.2</ele></trkpt>
    <trkpt lat="49.683711" lon="10.021141"><ele>233.7</ele></trkpt>
    <trkpt lat="49.683617" lon="10.021263"><ele>232.5</ele></trkpt>
    <trkpt lat="49.682978" lon="10.022539"><ele>222.5</ele></trkpt>
    <trkpt lat="49.682145" lon="10.023738"><ele>211.0</ele></trkpt>
    <trkpt lat="49.681683" lon="10.024412"><ele>204.7</ele></trkpt>
    <trkpt lat="49.681499" lon="10.024755"><ele>202.6</ele></trkpt>
    <trkpt lat="49.681221" lon="10.025424"><ele>198.8</ele></trkpt>
    <trkpt lat="49.681721" lon="10.025488"><ele>195.1</ele></trkpt>
    <trkpt lat="49.681737" lon="10.025490"><ele>195.0</ele></trkpt>
    <trkpt lat="49.682085" lon="10.025537"><ele>192.4</ele></trkpt>
    <trkpt lat="49.683718" lon="10.025717"><ele>183.6</ele></trkpt>
    <trkpt lat="49.683730" lon="10.025657"><ele>183.4</ele></trkpt>
    <trkpt lat="49.683753" lon="10.025659"><ele>183.2</ele></trkpt>
    <trkpt lat="49.683765" lon="10.025585"><ele>183.0</ele></trkpt>
    <trkpt lat="49.684023" lon="10.025587"><ele>182.1</ele></trkpt>
    <trkpt lat="49.684044" lon="10.025587"><ele>182.1</ele></trkpt>
    <trkpt lat="49.684337" lon="10.025481"><ele>181.8</ele></trkpt>
    <trkpt lat="49.684440" lon="10.025405"><ele>181.7</ele></trkpt>
    <trkpt lat="49.684503" lon="10.025540"><ele>181.6</ele></trkpt>
    <trkpt lat="49.684966" lon="10.024980"><ele>181.0</ele></trkpt>
    <trkpt lat="49.685192" lon="10.024679"><ele>180.7</ele></trkpt>
    <trkpt lat="49.686176" lon="10.023231"><ele>181.4</ele></trkpt>
    <trkpt lat="49.686367" lon="10.022967"><ele>181.7</ele></trkpt>
    <trkpt lat="49.686428" lon="10.022925"><ele>181.7</ele></trkpt>
    <trkpt lat="49.686601" lon="10.022892"><ele>181.9</ele></trkpt>
    <trkpt lat="49.686924" lon="10.022592"><ele>182.6</ele></trkpt>
    <trkpt lat="49.687155" lon="10.022288"><ele>183.4</ele></trkpt>
    <trkpt lat="49.687724" lon="10.021797"><ele>185.1</ele></trkpt>
    <trkpt lat="49.688887" lon="10.020938"><ele>188.4</ele></trkpt>
    <trkpt lat="49.689787" lon="10.020463"><ele>190.8</ele></trkpt>
    <trkpt lat="49.690818" lon="10.020152"><ele>190.9</ele></trkpt>
    <trkpt lat="49.691509" lon="10.019986"><ele>190.6</ele></trkpt>
    <trkpt lat="49.693226" lon="10.019654"><ele>189.7</ele></trkpt>
    <trkpt lat="49.696825" lon="10.019117"><ele>190.9</ele></trkpt>
    <trkpt lat="49.697446" lon="10.018954"><ele>190.9</ele></trkpt>
    <trkpt lat="49.698640" lon="10.018498"><ele>190.6</ele></trkpt>
    <trkpt lat="49.699197" lon="10.018166"><ele>190.1</ele></trkpt>
    <trkpt lat="49.699754" lon="10.017835"><ele>189.4</ele></trkpt>
    <trkpt lat="49.700617" lon="10.017484"><ele>188.3</ele></trkpt>
    <trkpt lat="49.702261" lon="10.016747"><ele>188.7</ele></trkpt>
    <trkpt lat="49.702330" lon="10.016698"><ele>188.7</ele></trkpt>
    <trkpt lat="49.702382" lon="10.016734"><ele>188.9</ele></trkpt>
    <trkpt lat="49.702589" lon="10.016612"><ele>189.4</ele></trkpt>
    <trkpt lat="49.703558" lon="10.015791"><ele>192.3</ele></trkpt>
    <trkpt lat="49.704593" lon="10.015317"><ele>192.9</ele></trkpt>
    <trkpt lat="49.705011" lon="10.015015"><ele>192.6</ele></trkpt>
    <trkpt lat="49.705591" lon="10.014597"><ele>192.2</ele></trkpt>
    <trkpt lat="49.706348" lon="10.014036"><ele>189.7</ele></trkpt>
    <trkpt lat="49.706479" lon="10.013928"><ele>189.2</ele></trkpt>
    <trkpt lat="49.706711" lon="10.013627"><ele>188.3</ele></trkpt>
    <trkpt lat="49.706909" lon="10.013284"><ele>187.4</ele></trkpt>
    <trkpt lat="49.706975" lon="10.013357"><ele>187.1</ele></trkpt>
    <trkpt lat="49.707031" lon="10.013421"><ele>186.9</ele></trkpt>
    <trkpt lat="49.707189" lon="10.013598"><ele>186.7</ele></trkpt>
    <trkpt lat="49.707250" lon="10.013678"><ele>186.7</ele></trkpt>
    <trkpt lat="49.707295" lon="10.013610"><ele>186.7</ele></trkpt>
    <trkpt lat="49.707349" lon="10.013528"><ele>186.7</ele></trkpt>
    <trkpt lat="49.707460" lon="10.013377"><ele>186.7</ele></trkpt>
    <trkpt lat="49.707803" lon="10.012945"><ele>186.7</ele></trkpt>
    <trkpt lat="49.707778" lon="10.012909"><ele>186.7</ele></trkpt>
    <trkpt lat="49.707773" lon="10.012901"><ele>186.7</ele></trkpt>
    <trkpt lat="49.707819" lon="10.012849"><ele>186.7</ele></trkpt>
    <trkpt lat="49.707850" lon="10.012776"><ele>186.7</ele></trkpt>
    <trkpt lat="49.708947" lon="10.011327"><ele>186.7</ele></trkpt>
  </trkseg></trk>
</gpx>
