<?xml version="1.0" encoding="UTF-8"?>
<gpx version="1.1" creator="tools/import_reference_gpx.py" xmlns="http://www.topografix.com/GPX/1/1">
  <metadata><name>Bergtheim: Blick auf Dipbach und Neuheiligenthal</name><desc>Referenz-Route (in komoot geplant) – vor Veröffentlichung prüfen</desc></metadata>
  <trk><name>Bergtheim: Blick auf Dipbach und Neuheiligenthal</name><trkseg>
    <trkpt lat="49.898997" lon="10.076825"><ele>269.2</ele></trkpt>
    <trkpt lat="49.898516" lon="10.076832"><ele>269.2</ele></trkpt>
    <trkpt lat="49.898237" lon="10.076741"><ele>269.2</ele></trkpt>
    <trkpt lat="49.897951" lon="10.076741"><ele>268.9</ele></trkpt>
    <trkpt lat="49.897882" lon="10.076752"><ele>268.8</ele></trkpt>
    <trkpt lat="49.897823" lon="10.076811"><ele>268.7</ele></trkpt>
    <trkpt lat="49.897741" lon="10.076805"><ele>268.6</ele></trkpt>
    <trkpt lat="49.897495" lon="10.076979"><ele>268.1</ele></trkpt>
    <trkpt lat="49.897299" lon="10.077070"><ele>267.8</ele></trkpt>
    <trkpt lat="49.897253" lon="10.076917"><ele>267.6</ele></trkpt>
    <trkpt lat="49.896754" lon="10.077008"><ele>266.8</ele></trkpt>
    <trkpt lat="49.896181" lon="10.077241"><ele>266.0</ele></trkpt>
    <trkpt lat="49.896113" lon="10.079792"><ele>264.5</ele></trkpt>
    <trkpt lat="49.896093" lon="10.080216"><ele>264.3</ele></trkpt>
    <trkpt lat="49.896008" lon="10.080462"><ele>264.1</ele></trkpt>
    <trkpt lat="49.895902" lon="10.080583"><ele>264.1</ele></trkpt>
    <trkpt lat="49.895716" lon="10.080719"><ele>263.9</ele></trkpt>
    <trkpt lat="49.895689" lon="10.080799"><ele>263.9</ele></trkpt>
    <trkpt lat="49.895744" lon="10.083847"><ele>262.9</ele></trkpt>
    <trkpt lat="49.895029" lon="10.084028"><ele>262.6</ele></trkpt>
    <trkpt lat="49.894314" lon="10.084209"><ele>262.8</ele></trkpt>
    <trkpt lat="49.892984" lon="10.084551"><ele>262.8</ele></trkpt>
    <trkpt lat="49.891862" lon="10.084838"><ele>262.1</ele></trkpt>
    <trkpt lat="49.891697" lon="10.084900"><ele>262.0</ele></trkpt>
    <trkpt lat="49.891548" lon="10.085037"><ele>261.9</ele></trkpt>
    <trkpt lat="49.889717" lon="10.086980"><ele>259.8</ele></trkpt>
    <trkpt lat="49.888284" lon="10.088602"><ele>258.6</ele></trkpt>
    <trkpt lat="49.889092" lon="10.090815"><ele>258.1</ele></trkpt>
    <trkpt lat="49.889173" lon="10.091252"><ele>258.2</ele></trkpt>
    <trkpt lat="49.889227" lon="10.091797"><ele>258.3</ele></trkpt>
    <trkpt lat="49.889236" lon="10.091931"><ele>258.3</ele></trkpt>
    <trkpt lat="49.889529" lon="10.093098"><ele>258.6</ele></trkpt>
    <trkpt lat="49.889783" lon="10.093910"><ele>259.0</ele></trkpt>
    <trkpt lat="49.889909" lon="10.094757"><ele>259.4</ele></trkpt>
    <trkpt lat="49.889969" lon="10.095685"><ele>259.7</ele></trkpt>
    <trkpt lat="49.890054" lon="10.095677"><ele>259.8</ele></trkpt>
    <trkpt lat="49.890306" lon="10.098256"><ele>260.4</ele></trkpt>
    <trkpt lat="49.890419" lon="10.099588"><ele>260.6</ele></trkpt>
    <trkpt lat="49.890411" lon="10.100166"><ele>260.7</ele></trkpt>
    <trkpt lat="49.890174" lon="10.101989"><ele>261.2</ele></trkpt>
    <trkpt lat="49.890148" lon="10.102353"><ele>261.4</ele></trkpt>
    <trkpt lat="49.890287" lon="10.103613"><ele>261.8</ele></trkpt>
    <trkpt lat="49.890459" lon="10.104198"><ele>262.1</ele></trkpt>
    <trkpt lat="49.890955" lon="10.104995"><ele>262.4</ele></trkpt>
    <trkpt lat="49.891075" lon="10.104931"><ele>262.5</ele></trkpt>
    <trkpt lat="49.891126" lon="10.104959"><ele>262.5</ele></trkpt>
    <trkpt lat="49.891188" lon="10.105093"><ele>262.6</ele></trkpt>
    <trkpt lat="49.891345" lon="10.105277"><ele>262.6</ele></trkpt>
    <trkpt lat="49.891423" lon="10.105287"><ele>262.7</ele></trkpt>
    <trkpt lat="49.891568" lon="10.105193"><ele>262.8</ele></trkpt>
    <trkpt lat="49.891574" lon="10.105096"><ele>262.8</ele></trkpt>
    <trkpt lat="49.891612" lon="10.105075"><ele>262.8</ele></trkpt>
    <trkpt lat="49.891667" lon="10.105116"><ele>262.8</ele></trkpt>
    <trkpt lat="49.891612" lon="10.105075"><ele>262.9</ele></trkpt>
    <trkpt lat="49.891574" lon="10.105096"><ele>262.9</ele></trkpt>
    <trkpt lat="49.891568" lon="10.105193"><ele>262.9</ele></trkpt>
    <trkpt lat="49.891423" lon="10.105287"><ele>263.0</ele></trkpt>
    <trkpt lat="49.891345" lon="10.105277"><ele>263.0</ele></trkpt>
    <trkpt lat="49.891188" lon="10.105093"><ele>263.1</ele></trkpt>
    <trkpt lat="49.891126" lon="10.104959"><ele>263.2</ele></trkpt>
    <trkpt lat="49.891075" lon="10.104931"><ele>263.2</ele></trkpt>
    <trkpt lat="49.890955" lon="10.104995"><ele>263.3</ele></trkpt>
    <trkpt lat="49.891785" lon="10.106401"><ele>264.0</ele></trkpt>
    <trkpt lat="49.892885" lon="10.109440"><ele>266.4</ele></trkpt>
    <trkpt lat="49.893884" lon="10.112245"><ele>269.2</ele></trkpt>
    <trkpt lat="49.894181" lon="10.112006"><ele>269.7</ele></trkpt>
    <trkpt lat="49.894498" lon="10.111868"><ele>270.2</ele></trkpt>
    <trkpt lat="49.894690" lon="10.111871"><ele>270.6</ele></trkpt>
    <trkpt lat="49.894787" lon="10.111917"><ele>270.8</ele></trkpt>
    <trkpt lat="49.894996" lon="10.112136"><ele>271.4</ele></trkpt>
    <trkpt lat="49.895068" lon="10.112241"><ele>271.6</ele></trkpt>
    <trkpt lat="49.895145" lon="10.112276"><ele>271.8</ele></trkpt>
    <trkpt lat="49.895223" lon="10.112262"><ele>272.0</ele></trkpt>
    <trkpt lat="49.895557" lon="10.112200"><ele>272.8</ele></trkpt>
    <trkpt lat="49.897566" lon="10.111627"><ele>277.8</ele></trkpt>
    <trkpt lat="49.897867" lon="10.111541"><ele>278.5</ele></trkpt>
    <trkpt lat="49.898145" lon="10.111526"><ele>279.2</ele></trkpt>
    <trkpt lat="49.898375" lon="10.111508"><ele>279.5</ele></trkpt>
    <trkpt lat="49.898897" lon="10.111467"><ele>280.2</ele></trkpt>
    <trkpt lat="49.901291" lon="10.111137"><ele>283.3</ele></trkpt>
    <trkpt lat="49.901933" lon="10.111097"><ele>283.7</ele></trkpt>
    <trkpt lat="49.902430" lon="10.111096"><ele>283.6</ele></trkpt>
    <trkpt lat="49.903126" lon="10.111110"><ele>283.5</ele></trkpt>
    <trkpt lat="49.903335" lon="10.111064"><ele>283.4</ele></trkpt>
    <trkpt lat="49.903608" lon="10.110886"><ele>283.4</ele></trkpt>
    <trkpt lat="49.904442" lon="10.110674"><ele>283.1</ele></trkpt>
    <trkpt lat="49.906807" lon="10.110072"><ele>284.0</ele></trkpt>
    <trkpt lat="49.909826" lon="10.109084"><ele>281.1</ele></trkpt>
    <trkpt lat="49.910873" lon="10.108634"><ele>280.2</ele></trkpt>
    <trkpt lat="49.909826" lon="10.109084"><ele>280.5</ele></trkpt>
    <trkpt lat="49.908920" lon="10.106628"><ele>281.0</ele></trkpt>
    <trkpt lat="49.908362" lon="10.105116"><ele>280.5</ele></trkpt>
    <trkpt lat="49.908306" lon="10.104966"><ele>280.4</ele></trkpt>
    <trkpt lat="49.908391" lon="10.104848"><ele>280.3</ele></trkpt>
    <trkpt lat="49.908508" lon="10.104589"><ele>280.2</ele></trkpt>
    <trkpt lat="49.909343" lon="10.103198"><ele>278.1</ele></trkpt>
    <trkpt lat="49.909699" lon="10.102668"><ele>276.8</ele></trkpt>
    <trkpt lat="49.909616" lon="10.102645"><ele>276.6</ele></trkpt>
    <trkpt lat="49.909133" lon="10.102506"><ele>275.4</ele></trkpt>
    <trkpt lat="49.908823" lon="10.101600"><ele>274.7</ele></trkpt>
    <trkpt lat="49.908677" lon="10.100947"><ele>274.4</ele></trkpt>
    <trkpt lat="49.907052" lon="10.096413"><ele>273.0</ele></trkpt>
    <trkpt lat="49.906415" lon="10.094393"><ele>272.8</ele></trkpt>
    <trkpt lat="49.906298" lon="10.094072"><ele>272.7</ele></trkpt>
    <trkpt lat="49.906110" lon="10.093719"><ele>272.5</ele></trkpt>
    <trkpt lat="49.904568" lon="10.091831"><ele>270.6</ele></trkpt>
    <trkpt lat="49.903721" lon="10.089794"><ele>268.4</ele></trkpt>
    <trkpt lat="49.903689" lon="10.089719"><ele>268.3</ele></trkpt>
    <trkpt lat="49.903037" lon="10.088182"><ele>266.2</ele></trkpt>
    <trkpt lat="49.902906" lon="10.087768"><ele>265.5</ele></trkpt>
    <trkpt lat="49.902470" lon="10.086258"><ele>263.1</ele></trkpt>
    <trkpt lat="49.902061" lon="10.084894"><ele>262.7</ele></trkpt>
    <trkpt lat="49.902000" lon="10.082007"><ele>263.5</ele></trkpt>
    <trkpt lat="49.901945" lon="10.079512"><ele>265.5</ele></trkpt>
    <trkpt lat="49.901895" lon="10.077228"><ele>267.5</ele></trkpt>
    <trkpt lat="49.901908" lon="10.076866"><ele>267.8</ele></trkpt>
    <trkpt lat="49.901503" lon="10.076683"><ele>268.4</ele></trkpt>
    <trkpt lat="49.901355" lon="10.076659"><ele>268.6</ele></trkpt>
    <trkpt lat="49.901240" lon="10.076671"><ele>268.8</ele></trkpt>
    <trkpt lat="49.900869" lon="10.076813"><ele>269.3</ele></trkpt>
    <trkpt lat="49.899775" lon="10.076814"><ele>269.4</ele></trkpt>
    <trkpt lat="49.898997" lon="10.076825"><ele>269.4</ele></trkpt>
  </trkseg></trk>
</gpx>
