<?xml version="1.0" encoding="UTF-8"?>
<gpx version="1.1" creator="tools/import_reference_gpx.py" xmlns="http://www.topografix.com/GPX/1/1">
  <metadata><name>Thüngersheim: Höhfeldplatte und Schutzhütte Waldesruh</name><desc>Referenz-Route (in komoot geplant) – vor Veröffentlichung prüfen</desc></metadata>
  <trk><name>Thüngersheim: Höhfeldplatte und Schutzhütte Waldesruh</name><trkseg>
    <trkpt lat="49.878266" lon="9.840148"><ele>169.3</ele></trkpt>
    <trkpt lat="49.878213" lon="9.840170"><ele>169.3</ele></trkpt>
    <trkpt lat="49.878208" lon="9.840143"><ele>169.3</ele></trkpt>
    <trkpt lat="49.878205" lon="9.840123"><ele>169.3</ele></trkpt>
    <trkpt lat="49.878285" lon="9.840091"><ele>169.3</ele></trkpt>
    <trkpt lat="49.878300" lon="9.840085"><ele>169.3</ele></trkpt>
    <trkpt lat="49.878330" lon="9.840262"><ele>169.3</ele></trkpt>
    <trkpt lat="49.878363" lon="9.840460"><ele>169.3</ele></trkpt>
    <trkpt lat="49.878395" lon="9.840653"><ele>169.3</ele></trkpt>
    <trkpt lat="49.878421" lon="9.840822"><ele>169.3</ele></trkpt>
    <trkpt lat="49.878395" lon="9.840944"><ele>169.3</ele></trkpt>
    <trkpt lat="49.878257" lon="9.841138"><ele>169.5</ele></trkpt>
    <trkpt lat="49.878243" lon="9.841405"><ele>170.0</ele></trkpt>
    <trkpt lat="49.878268" lon="9.841651"><ele>170.6</ele></trkpt>
    <trkpt lat="49.878241" lon="9.841671"><ele>170.6</ele></trkpt>
    <trkpt lat="49.878292" lon="9.841686"><ele>170.8</ele></trkpt>
    <trkpt lat="49.878320" lon="9.841733"><ele>171.0</ele></trkpt>
    <trkpt lat="49.878331" lon="9.841751"><ele>171.0</ele></trkpt>
    <trkpt lat="49.878623" lon="9.842612"><ele>173.1</ele></trkpt>
    <trkpt lat="49.878715" lon="9.842895"><ele>173.7</ele></trkpt>
    <trkpt lat="49.878805" lon="9.843412"><ele>174.8</ele></trkpt>
    <trkpt lat="49.878813" lon="9.843410"><ele>174.9</ele></trkpt>
    <trkpt lat="49.878827" lon="9.843510"><ele>175.1</ele></trkpt>
    <trkpt lat="49.878850" lon="9.843676"><ele>175.4</ele></trkpt>
    <trkpt lat="49.878887" lon="9.843965"><ele>176.0</ele></trkpt>
    <trkpt lat="49.878980" lon="9.845390"><ele>178.8</ele></trkpt>
    <trkpt lat="49.878979" lon="9.845688"><ele>179.4</ele></trkpt>
    <trkpt lat="49.878932" lon="9.847020"><ele>182.2</ele></trkpt>
    <trkpt lat="49.878908" lon="9.847333"><ele>182.9</ele></trkpt>
    <trkpt lat="49.878844" lon="9.847715"><ele>183.8</ele></trkpt>
    <trkpt lat="49.878804" lon="9.848282"><ele>185.1</ele></trkpt>
    <trkpt lat="49.878734" lon="9.848866"><ele>186.5</ele></trkpt>
    <trkpt lat="49.878689" lon="9.849257"><ele>187.5</ele></trkpt>
    <trkpt lat="49.878653" lon="9.849561"><ele>188.4</ele></trkpt>
    <trkpt lat="49.878646" lon="9.849621"><ele>188.6</ele></trkpt>
    <trkpt lat="49.878644" lon="9.849643"><ele>188.6</ele></trkpt>
    <trkpt lat="49.878598" lon="9.850365"><ele>190.8</ele></trkpt>
    <trkpt lat="49.878576" lon="9.850758"><ele>192.0</ele></trkpt>
    <trkpt lat="49.878555" lon="9.851282"><ele>193.5</ele></trkpt>
    <trkpt lat="49.878597" lon="9.852938"><ele>197.0</ele></trkpt>
    <trkpt lat="49.878595" lon="9.853092"><ele>197.2</ele></trkpt>
    <trkpt lat="49.878486" lon="9.853335"><ele>197.7</ele></trkpt>
    <trkpt lat="49.878160" lon="9.853699"><ele>198.7</ele></trkpt>
    <trkpt lat="49.877998" lon="9.853975"><ele>199.3</ele></trkpt>
    <trkpt lat="49.877956" lon="9.854146"><ele>199.6</ele></trkpt>
    <trkpt lat="49.877933" lon="9.854397"><ele>199.8</ele></trkpt>
    <trkpt lat="49.877949" lon="9.855312"><ele>200.3</ele></trkpt>
    <trkpt lat="49.877989" lon="9.855734"><ele>200.6</ele></trkpt>
    <trkpt lat="49.877997" lon="9.858369"><ele>204.5</ele></trkpt>
    <trkpt lat="49.877910" lon="9.858567"><ele>205.0</ele></trkpt>
    <trkpt lat="49.877810" lon="9.859076"><ele>206.3</ele></trkpt>
    <trkpt lat="49.877169" lon="9.859093"><ele>209.4</ele></trkpt>
    <trkpt lat="49.877032" lon="9.859027"><ele>210.5</ele></trkpt>
    <trkpt lat="49.876899" lon="9.858720"><ele>212.3</ele></trkpt>
    <trkpt lat="49.876123" lon="9.859644"><ele>219.5</ele></trkpt>
    <trkpt lat="49.876034" lon="9.859640"><ele>220.2</ele></trkpt>
    <trkpt lat="49.875276" lon="9.857964"><ele>224.5</ele></trkpt>
    <trkpt lat="49.875193" lon="9.857944"><ele>224.8</ele></trkpt>
    <trkpt lat="49.875086" lon="9.858023"><ele>225.1</ele></trkpt>
    <trkpt lat="49.875025" lon="9.858005"><ele>225.3</ele></trkpt>
    <trkpt lat="49.874192" lon="9.856262"><ele>227.9</ele></trkpt>
    <trkpt lat="49.874115" lon="9.856220"><ele>228.0</ele></trkpt>
    <trkpt lat="49.873458" lon="9.856143"><ele>229.0</ele></trkpt>
    <trkpt lat="49.872357" lon="9.856050"><ele>233.8</ele></trkpt>
    <trkpt lat="49.871522" lon="9.856219"><ele>237.4</ele></trkpt>
    <trkpt lat="49.871072" lon="9.856376"><ele>239.0</ele></trkpt>
    <trkpt lat="49.870179" lon="9.856862"><ele>242.2</ele></trkpt>
    <trkpt lat="49.869744" lon="9.857178"><ele>243.8</ele></trkpt>
    <trkpt lat="49.869051" lon="9.857881"><ele>246.8</ele></trkpt>
    <trkpt lat="49.868692" lon="9.858176"><ele>248.3</ele></trkpt>
    <trkpt lat="49.868383" lon="9.858570"><ele>249.9</ele></trkpt>
    <trkpt lat="49.868129" lon="9.859025"><ele>252.2</ele></trkpt>
    <trkpt lat="49.867891" lon="9.859374"><ele>254.1</ele></trkpt>
    <trkpt lat="49.867838" lon="9.859431"><ele>254.5</ele></trkpt>
    <trkpt lat="49.867745" lon="9.859533"><ele>255.2</ele></trkpt>
    <trkpt lat="49.867629" lon="9.859660"><ele>256.0</ele></trkpt>
    <trkpt lat="49.867552" lon="9.859801"><ele>256.7</ele></trkpt>
    <trkpt lat="49.867530" lon="9.860087"><ele>257.8</ele></trkpt>
    <trkpt lat="49.867838" lon="9.860657"><ele>261.0</ele></trkpt>
    <trkpt lat="49.868219" lon="9.860995"><ele>265.3</ele></trkpt>
    <trkpt lat="49.868815" lon="9.861324"><ele>271.4</ele></trkpt>
    <trkpt lat="49.869149" lon="9.861635"><ele>275.2</ele></trkpt>
    <trkpt lat="49.869459" lon="9.861538"><ele>277.9</ele></trkpt>
    <trkpt lat="49.869736" lon="9.861467"><ele>278.9</ele></trkpt>
    <trkpt lat="49.869903" lon="9.861474"><ele>279.5</ele></trkpt>
    <trkpt lat="49.869964" lon="9.861528"><ele>279.8</ele></trkpt>
    <trkpt lat="49.870188" lon="9.862093"><ele>281.3</ele></trkpt>
    <trkpt lat="49.870306" lon="9.862391"><ele>282.1</ele></trkpt>
    <trkpt lat="49.870424" lon="9.862623"><ele>282.8</ele></trkpt>
    <trkpt lat="49.870612" lon="9.862723"><ele>283.5</ele></trkpt>
    <trkpt lat="49.870769" lon="9.862806"><ele>284.1</ele></trkpt>
    <trkpt lat="49.871136" lon="9.863069"><ele>285.1</ele></trkpt>
    <trkpt lat="49.871292" lon="9.863167"><ele>285.6</ele></trkpt>
    <trkpt lat="49.871455" lon="9.863203"><ele>286.0</ele></trkpt>
    <trkpt lat="49.871732" lon="9.863360"><ele>286.7</ele></trkpt>
    <trkpt lat="49.871918" lon="9.863245"><ele>287.2</ele></trkpt>
    <trkpt lat="49.872195" lon="9.863155"><ele>287.9</ele></trkpt>
    <trkpt lat="49.872502" lon="9.862932"><ele>288.5</ele></trkpt>
    <trkpt lat="49.872994" lon="9.862807"><ele>286.8</ele></trkpt>
    <trkpt lat="49.873166" lon="9.863278"><ele>285.7</ele></trkpt>
    <trkpt lat="49.873401" lon="9.863700"><ele>284.5</ele></trkpt>
    <trkpt lat="49.873614" lon="9.864047"><ele>283.5</ele></trkpt>
    <trkpt lat="49.873781" lon="9.864238"><ele>282.8</ele></trkpt>
    <trkpt lat="49.873870" lon="9.864340"><ele>283.4</ele></trkpt>
    <trkpt lat="49.873959" lon="9.864392"><ele>284.3</ele></trkpt>
    <trkpt lat="49.874127" lon="9.864643"><ele>286.5</ele></trkpt>
    <trkpt lat="49.874271" lon="9.864795"><ele>288.1</ele></trkpt>
    <trkpt lat="49.874361" lon="9.864978"><ele>289.5</ele></trkpt>
    <trkpt lat="49.874413" lon="9.865085"><ele>290.3</ele></trkpt>
    <trkpt lat="49.874450" lon="9.865209"><ele>291.2</ele></trkpt>
    <trkpt lat="49.874502" lon="9.865496"><ele>293.0</ele></trkpt>
    <trkpt lat="49.874893" lon="9.865738"><ele>296.9</ele></trkpt>
    <trkpt lat="49.875121" lon="9.865963"><ele>299.4</ele></trkpt>
    <trkpt lat="49.875367" lon="9.866281"><ele>301.5</ele></trkpt>
    <trkpt lat="49.875589" lon="9.866428"><ele>303.0</ele></trkpt>
    <trkpt lat="49.876078" lon="9.866389"><ele>306.1</ele></trkpt>
    <trkpt lat="49.876489" lon="9.866551"><ele>308.7</ele></trkpt>
    <trkpt lat="49.876648" lon="9.866710"><ele>309.9</ele></trkpt>
    <trkpt lat="49.876990" lon="9.867226"><ele>310.7</ele></trkpt>
    <trkpt lat="49.877151" lon="9.867355"><ele>310.6</ele></trkpt>
    <trkpt lat="49.877353" lon="9.867412"><ele>310.5</ele></trkpt>
    <trkpt lat="49.877841" lon="9.867406"><ele>310.2</ele></trkpt>
    <trkpt lat="49.878291" lon="9.867331"><ele>310.0</ele></trkpt>
    <trkpt lat="49.878369" lon="9.867259"><ele>309.9</ele></trkpt>
    <trkpt lat="49.879125" lon="9.866719"><ele>310.4</ele></trkpt>
    <trkpt lat="49.879201" lon="9.866719"><ele>310.4</ele></trkpt>
    <trkpt lat="49.879239" lon="9.866719"><ele>310.4</ele></trkpt>
    <trkpt lat="49.879707" lon="9.867361"><ele>310.8</ele></trkpt>
    <trkpt lat="49.879830" lon="9.867574"><ele>310.9</ele></trkpt>
    <trkpt lat="49.879956" lon="9.867966"><ele>310.6</ele></trkpt>
    <trkpt lat="49.880037" lon="9.868401"><ele>310.1</ele></trkpt>
    <trkpt lat="49.880199" lon="9.868671"><ele>309.7</ele></trkpt>
    <trkpt lat="49.880274" lon="9.868875"><ele>309.5</ele></trkpt>
    <trkpt lat="49.880250" lon="9.869139"><ele>309.2</ele></trkpt>
    <trkpt lat="49.879956" lon="9.869619"><ele>308.4</ele></trkpt>
    <trkpt lat="49.880226" lon="9.869975"><ele>307.6</ele></trkpt>
    <trkpt lat="49.880315" lon="9.869864"><ele>306.3</ele></trkpt>
    <trkpt lat="49.880351" lon="9.869722"><ele>305.1</ele></trkpt>
    <trkpt lat="49.880413" lon="9.869631"><ele>304.1</ele></trkpt>
    <trkpt lat="49.880623" lon="9.869429"><ele>301.2</ele></trkpt>
    <trkpt lat="49.881339" lon="9.868625"><ele>290.7</ele></trkpt>
    <trkpt lat="49.881457" lon="9.868256"><ele>287.5</ele></trkpt>
    <trkpt lat="49.881532" lon="9.867677"><ele>282.7</ele></trkpt>
    <trkpt lat="49.881494" lon="9.867108"><ele>278.0</ele></trkpt>
    <trkpt lat="49.881249" lon="9.866117"><ele>269.2</ele></trkpt>
    <trkpt lat="49.881087" lon="9.865547"><ele>264.1</ele></trkpt>
    <trkpt lat="49.880910" lon="9.865030"><ele>259.8</ele></trkpt>
    <trkpt lat="49.880887" lon="9.864964"><ele>259.2</ele></trkpt>
    <trkpt lat="49.880648" lon="9.864545"><ele>255.2</ele></trkpt>
    <trkpt lat="49.880349" lon="9.863815"><ele>248.9</ele></trkpt>
    <trkpt lat="49.880060" lon="9.863349"><ele>244.2</ele></trkpt>
    <trkpt lat="49.879721" lon="9.862927"><ele>239.5</ele></trkpt>
    <trkpt lat="49.879621" lon="9.862874"><ele>238.4</ele></trkpt>
    <trkpt lat="49.879394" lon="9.862603"><ele>235.4</ele></trkpt>
    <trkpt lat="49.879052" lon="9.862172"><ele>230.8</ele></trkpt>
    <trkpt lat="49.878815" lon="9.861818"><ele>227.3</ele></trkpt>
    <trkpt lat="49.878389" lon="9.860914"><ele>220.2</ele></trkpt>
    <trkpt lat="49.878359" lon="9.860760"><ele>219.2</ele></trkpt>
    <trkpt lat="49.878370" lon="9.860653"><ele>218.5</ele></trkpt>
    <trkpt lat="49.878374" lon="9.860458"><ele>217.4</ele></trkpt>
    <trkpt lat="49.878347" lon="9.860257"><ele>216.1</ele></trkpt>
    <trkpt lat="49.878187" lon="9.859831"><ele>213.1</ele></trkpt>
    <trkpt lat="49.877867" lon="9.859338"><ele>208.9</ele></trkpt>
    <trkpt lat="49.877810" lon="9.859076"><ele>207.3</ele></trkpt>
    <trkpt lat="49.877910" lon="9.858567"><ele>206.0</ele></trkpt>
    <trkpt lat="49.877997" lon="9.858369"><ele>205.5</ele></trkpt>
    <trkpt lat="49.877989" lon="9.855734"><ele>200.5</ele></trkpt>
    <trkpt lat="49.877949" lon="9.855312"><ele>200.3</ele></trkpt>
    <trkpt lat="49.877933" lon="9.854397"><ele>199.8</ele></trkpt>
    <trkpt lat="49.877956" lon="9.854146"><ele>199.7</ele></trkpt>
    <trkpt lat="49.877998" lon="9.853975"><ele>199.6</ele></trkpt>
    <trkpt lat="49.878160" lon="9.853699"><ele>199.3</ele></trkpt>
    <trkpt lat="49.878486" lon="9.853335"><ele>198.0</ele></trkpt>
    <trkpt lat="49.878595" lon="9.853092"><ele>197.4</ele></trkpt>
    <trkpt lat="49.878597" lon="9.852938"><ele>197.1</ele></trkpt>
    <trkpt lat="49.878555" lon="9.851282"><ele>193.5</ele></trkpt>
    <trkpt lat="49.878576" lon="9.850758"><ele>192.0</ele></trkpt>
    <trkpt lat="49.878598" lon="9.850365"><ele>190.9</ele></trkpt>
    <trkpt lat="49.878644" lon="9.849643"><ele>188.7</ele></trkpt>
    <trkpt lat="49.878646" lon="9.849621"><ele>188.7</ele></trkpt>
    <trkpt lat="49.878653" lon="9.849561"><ele>188.5</ele></trkpt>
    <trkpt lat="49.878689" lon="9.849257"><ele>187.6</ele></trkpt>
    <trkpt lat="49.878734" lon="9.848866"><ele>186.4</ele></trkpt>
    <trkpt lat="49.878804" lon="9.848282"><ele>184.9</ele></trkpt>
    <trkpt lat="49.878844" lon="9.847715"><ele>183.7</ele></trkpt>
    <trkpt lat="49.878908" lon="9.847333"><ele>182.9</ele></trkpt>
    <trkpt lat="49.878932" lon="9.847020"><ele>182.2</ele></trkpt>
    <trkpt lat="49.878979" lon="9.845688"><ele>179.5</ele></trkpt>
    <trkpt lat="49.878980" lon="9.845390"><ele>178.8</ele></trkpt>
    <trkpt lat="49.878887" lon="9.843965"><ele>175.9</ele></trkpt>
    <trkpt lat="49.878850" lon="9.843676"><ele>175.3</ele></trkpt>
    <trkpt lat="49.878813" lon="9.843410"><ele>174.8</ele></trkpt>
    <trkpt lat="49.878805" lon="9.843412"><ele>174.7</ele></trkpt>
    <trkpt lat="49.878715" lon="9.842895"><ele>173.8</ele></trkpt>
    <trkpt lat="49.878623" lon="9.842612"><ele>173.8</ele></trkpt>
    <trkpt lat="49.878331" lon="9.841751"><ele>173.8</ele></trkpt>
    <trkpt lat="49.878292" lon="9.841686"><ele>173.8</ele></trkpt>
    <trkpt lat="49.878241" lon="9.841671"><ele>173.8</ele></trkpt>
    <trkpt lat="49.878268" lon="9.841651"><ele>173.8</ele></trkpt>
    <trkpt lat="49.878243" lon="9.841405"><ele>173.8</ele></trkpt>
    <trkpt lat="49.878257" lon="9.841138"><ele>173.8</ele></trkpt>
    <trkpt lat="49.878395" lon="9.840944"><ele>173.8</ele></trkpt>
    <trkpt lat="49.878421" lon="9.840822"><ele>173.8</ele></trkpt>
    <trkpt lat="49.878395" lon="9.840653"><ele>173.8</ele></trkpt>
    <trkpt lat="49.878363" lon="9.840460"><ele>173.8</ele></trkpt>
    <trkpt lat="49.878330" lon="9.840262"><ele>173.8</ele></trkpt>
    <trkpt lat="49.878300" lon="9.840085"><ele>173.8</ele></trkpt>
    <trkpt lat="49.878285" lon="9.840091"><ele>173.8</ele></trkpt>
    <trkpt lat="49.878205" lon="9.840123"><ele>173.8</ele></trkpt>
    <trkpt lat="49.878208" lon="9.840143"><ele>173.8</ele></trkpt>
    <trkpt lat="49.878213" lon="9.840170"><ele>173.8</ele></trkpt>
    <trkpt lat="49.878266" lon="9.840148"><ele>173.8</ele></trkpt>
  </trkseg></trk>
</gpx>
