<?xml version="1.0" encoding="UTF-8"?>
<gpx version="1.1" creator="tools/import_reference_gpx.py" xmlns="http://www.topografix.com/GPX/1/1">
  <metadata><name>Winterhausen – Sommerhausen: Schneckenweg und Altstadt</name><desc>Referenz-Route (in komoot geplant) – vor Veröffentlichung prüfen</desc></metadata>
  <trk><name>Winterhausen – Sommerhausen: Schneckenweg und Altstadt</name><trkseg>
    <trkpt lat="49.708947" lon="10.011327"><ele>186.9</ele></trkpt>
    <trkpt lat="49.707850" lon="10.012776"><ele>185.9</ele></trkpt>
    <trkpt lat="49.707819" lon="10.012849"><ele>185.8</ele></trkpt>
    <trkpt lat="49.707773" lon="10.012901"><ele>185.7</ele></trkpt>
    <trkpt lat="49.707778" lon="10.012909"><ele>185.6</ele></trkpt>
    <trkpt lat="49.707803" lon="10.012945"><ele>185.6</ele></trkpt>
    <trkpt lat="49.707460" lon="10.013377"><ele>184.7</ele></trkpt>
    <trkpt lat="49.707349" lon="10.013528"><ele>184.5</ele></trkpt>
    <trkpt lat="49.707295" lon="10.013610"><ele>184.3</ele></trkpt>
    <trkpt lat="49.707250" lon="10.013678"><ele>184.2</ele></trkpt>
    <trkpt lat="49.707313" lon="10.013764"><ele>184.0</ele></trkpt>
    <trkpt lat="49.707391" lon="10.013859"><ele>183.8</ele></trkpt>
    <trkpt lat="49.707627" lon="10.014218"><ele>183.1</ele></trkpt>
    <trkpt lat="49.707858" lon="10.014783"><ele>182.1</ele></trkpt>
    <trkpt lat="49.708027" lon="10.015177"><ele>181.4</ele></trkpt>
    <trkpt lat="49.708179" lon="10.015638"><ele>180.7</ele></trkpt>
    <trkpt lat="49.708198" lon="10.015703"><ele>180.6</ele></trkpt>
    <trkpt lat="49.708439" lon="10.016577"><ele>179.2</ele></trkpt>
    <trkpt lat="49.708449" lon="10.016620"><ele>179.2</ele></trkpt>
    <trkpt lat="49.708496" lon="10.016808"><ele>179.0</ele></trkpt>
    <trkpt lat="49.708649" lon="10.017556"><ele>178.3</ele></trkpt>
    <trkpt lat="49.708817" lon="10.018787"><ele>177.2</ele></trkpt>
    <trkpt lat="49.708902" lon="10.020002"><ele>176.7</ele></trkpt>
    <trkpt lat="49.708906" lon="10.021162"><ele>176.5</ele></trkpt>
    <trkpt lat="49.708906" lon="10.021233"><ele>176.5</ele></trkpt>
    <trkpt lat="49.708819" lon="10.021251"><ele>176.4</ele></trkpt>
    <trkpt lat="49.708717" lon="10.021273"><ele>176.4</ele></trkpt>
    <trkpt lat="49.708718" lon="10.021027"><ele>176.3</ele></trkpt>
    <trkpt lat="49.708133" lon="10.021069"><ele>176.8</ele></trkpt>
    <trkpt lat="49.707449" lon="10.021157"><ele>177.4</ele></trkpt>
    <trkpt lat="49.707121" lon="10.021250"><ele>177.8</ele></trkpt>
    <trkpt lat="49.707085" lon="10.021331"><ele>177.8</ele></trkpt>
    <trkpt lat="49.707121" lon="10.021537"><ele>177.9</ele></trkpt>
    <trkpt lat="49.707169" lon="10.021827"><ele>178.3</ele></trkpt>
    <trkpt lat="49.707120" lon="10.021773"><ele>178.5</ele></trkpt>
    <trkpt lat="49.707054" lon="10.021833"><ele>178.8</ele></trkpt>
    <trkpt lat="49.706988" lon="10.022129"><ele>179.4</ele></trkpt>
    <trkpt lat="49.706848" lon="10.022989"><ele>181.2</ele></trkpt>
    <trkpt lat="49.706829" lon="10.023230"><ele>181.7</ele></trkpt>
    <trkpt lat="49.706859" lon="10.023727"><ele>182.7</ele></trkpt>
    <trkpt lat="49.706870" lon="10.023895"><ele>183.0</ele></trkpt>
    <trkpt lat="49.706907" lon="10.024493"><ele>184.9</ele></trkpt>
    <trkpt lat="49.706889" lon="10.025206"><ele>188.1</ele></trkpt>
    <trkpt lat="49.706773" lon="10.025187"><ele>188.9</ele></trkpt>
    <trkpt lat="49.706579" lon="10.025167"><ele>190.2</ele></trkpt>
    <trkpt lat="49.706542" lon="10.025265"><ele>190.7</ele></trkpt>
    <trkpt lat="49.706302" lon="10.025395"><ele>192.5</ele></trkpt>
    <trkpt lat="49.706313" lon="10.025916"><ele>194.8</ele></trkpt>
    <trkpt lat="49.706316" lon="10.026048"><ele>195.4</ele></trkpt>
    <trkpt lat="49.706355" lon="10.026157"><ele>195.9</ele></trkpt>
    <trkpt lat="49.706381" lon="10.026344"><ele>197.8</ele></trkpt>
    <trkpt lat="49.706377" lon="10.026716"><ele>201.6</ele></trkpt>
    <trkpt lat="49.706384" lon="10.026872"><ele>203.2</ele></trkpt>
    <trkpt lat="49.706384" lon="10.026987"><ele>204.4</ele></trkpt>
    <trkpt lat="49.706392" lon="10.027555"><ele>210.2</ele></trkpt>
    <trkpt lat="49.706395" lon="10.027718"><ele>211.9</ele></trkpt>
    <trkpt lat="49.706324" lon="10.028001"><ele>215.0</ele></trkpt>
    <trkpt lat="49.706323" lon="10.028262"><ele>217.7</ele></trkpt>
    <trkpt lat="49.706352" lon="10.028415"><ele>219.3</ele></trkpt>
    <trkpt lat="49.706363" lon="10.028503"><ele>220.3</ele></trkpt>
    <trkpt lat="49.706393" lon="10.028751"><ele>222.8</ele></trkpt>
    <trkpt lat="49.706448" lon="10.028984"><ele>224.8</ele></trkpt>
    <trkpt lat="49.706461" lon="10.029057"><ele>225.1</ele></trkpt>
    <trkpt lat="49.706391" lon="10.029143"><ele>225.7</ele></trkpt>
    <trkpt lat="49.706237" lon="10.029265"><ele>226.8</ele></trkpt>
    <trkpt lat="49.706133" lon="10.029347"><ele>227.5</ele></trkpt>
    <trkpt lat="49.705772" lon="10.029573"><ele>230.0</ele></trkpt>
    <trkpt lat="49.705401" lon="10.029908"><ele>232.7</ele></trkpt>
    <trkpt lat="49.704913" lon="10.030226"><ele>236.0</ele></trkpt>
    <trkpt lat="49.704527" lon="10.030544"><ele>237.1</ele></trkpt>
    <trkpt lat="49.704048" lon="10.030917"><ele>238.5</ele></trkpt>
    <trkpt lat="49.703999" lon="10.031054"><ele>238.7</ele></trkpt>
    <trkpt lat="49.703818" lon="10.031083"><ele>239.2</ele></trkpt>
    <trkpt lat="49.703568" lon="10.031062"><ele>239.8</ele></trkpt>
    <trkpt lat="49.703381" lon="10.031105"><ele>240.3</ele></trkpt>
    <trkpt lat="49.703023" lon="10.031356"><ele>241.1</ele></trkpt>
    <trkpt lat="49.702862" lon="10.031525"><ele>241.5</ele></trkpt>
    <trkpt lat="49.702598" lon="10.031801"><ele>242.1</ele></trkpt>
    <trkpt lat="49.702423" lon="10.032087"><ele>242.6</ele></trkpt>
    <trkpt lat="49.702291" lon="10.032472"><ele>243.1</ele></trkpt>
    <trkpt lat="49.702255" lon="10.032723"><ele>243.4</ele></trkpt>
    <trkpt lat="49.702182" lon="10.033554"><ele>245.0</ele></trkpt>
    <trkpt lat="49.702164" lon="10.034462"><ele>247.1</ele></trkpt>
    <trkpt lat="49.701910" lon="10.034413"><ele>248.1</ele></trkpt>
    <trkpt lat="49.701137" lon="10.034127"><ele>250.4</ele></trkpt>
    <trkpt lat="49.700942" lon="10.033889"><ele>250.3</ele></trkpt>
    <trkpt lat="49.700844" lon="10.033679"><ele>250.2</ele></trkpt>
    <trkpt lat="49.700766" lon="10.033596"><ele>250.1</ele></trkpt>
    <trkpt lat="49.700387" lon="10.033311"><ele>249.9</ele></trkpt>
    <trkpt lat="49.700311" lon="10.033287"><ele>249.9</ele></trkpt>
    <trkpt lat="49.700215" lon="10.033307"><ele>249.8</ele></trkpt>
    <trkpt lat="49.699601" lon="10.033761"><ele>249.2</ele></trkpt>
    <trkpt lat="49.699471" lon="10.033805"><ele>249.0</ele></trkpt>
    <trkpt lat="49.699315" lon="10.033775"><ele>248.6</ele></trkpt>
    <trkpt lat="49.699194" lon="10.033618"><ele>248.3</ele></trkpt>
    <trkpt lat="49.699053" lon="10.033518"><ele>248.0</ele></trkpt>
    <trkpt lat="49.698989" lon="10.033517"><ele>247.8</ele></trkpt>
    <trkpt lat="49.698969" lon="10.033516"><ele>247.8</ele></trkpt>
    <trkpt lat="49.698828" lon="10.033623"><ele>247.5</ele></trkpt>
    <trkpt lat="49.698696" lon="10.033923"><ele>247.0</ele></trkpt>
    <trkpt lat="49.698513" lon="10.034438"><ele>246.2</ele></trkpt>
    <trkpt lat="49.698446" lon="10.034667"><ele>245.8</ele></trkpt>
    <trkpt lat="49.698350" lon="10.035147"><ele>246.4</ele></trkpt>
    <trkpt lat="49.698144" lon="10.035724"><ele>247.5</ele></trkpt>
    <trkpt lat="49.698073" lon="10.036076"><ele>248.1</ele></trkpt>
    <trkpt lat="49.698033" lon="10.036312"><ele>248.5</ele></trkpt>
    <trkpt lat="49.697943" lon="10.036552"><ele>249.0</ele></trkpt>
    <trkpt lat="49.697777" lon="10.036806"><ele>249.6</ele></trkpt>
    <trkpt lat="49.697628" lon="10.036882"><ele>250.0</ele></trkpt>
    <trkpt lat="49.697484" lon="10.037187"><ele>250.9</ele></trkpt>
    <trkpt lat="49.697299" lon="10.037455"><ele>252.4</ele></trkpt>
    <trkpt lat="49.697124" lon="10.037645"><ele>253.6</ele></trkpt>
    <trkpt lat="49.697003" lon="10.037728"><ele>254.4</ele></trkpt>
    <trkpt lat="49.696824" lon="10.037786"><ele>255.5</ele></trkpt>
    <trkpt lat="49.696497" lon="10.037740"><ele>257.4</ele></trkpt>
    <trkpt lat="49.696024" lon="10.037423"><ele>260.4</ele></trkpt>
    <trkpt lat="49.695974" lon="10.036869"><ele>260.5</ele></trkpt>
    <trkpt lat="49.696029" lon="10.036407"><ele>260.1</ele></trkpt>
    <trkpt lat="49.695918" lon="10.036060"><ele>259.8</ele></trkpt>
    <trkpt lat="49.695985" lon="10.035991"><ele>259.7</ele></trkpt>
    <trkpt lat="49.695918" lon="10.036060"><ele>259.6</ele></trkpt>
    <trkpt lat="49.695559" lon="10.035296"><ele>258.9</ele></trkpt>
    <trkpt lat="49.695409" lon="10.034686"><ele>258.7</ele></trkpt>
    <trkpt lat="49.695352" lon="10.034562"><ele>258.7</ele></trkpt>
    <trkpt lat="49.695085" lon="10.034313"><ele>258.6</ele></trkpt>
    <trkpt lat="49.694958" lon="10.034342"><ele>258.6</ele></trkpt>
    <trkpt lat="49.694940" lon="10.034346"><ele>258.6</ele></trkpt>
    <trkpt lat="49.694682" lon="10.034777"><ele>258.6</ele></trkpt>
    <trkpt lat="49.694469" lon="10.034928"><ele>258.6</ele></trkpt>
    <trkpt lat="49.694361" lon="10.034873"><ele>258.6</ele></trkpt>
    <trkpt lat="49.694280" lon="10.034744"><ele>258.6</ele></trkpt>
    <trkpt lat="49.694172" lon="10.034414"><ele>258.6</ele></trkpt>
    <trkpt lat="49.694038" lon="10.034327"><ele>258.6</ele></trkpt>
    <trkpt lat="49.693717" lon="10.034277"><ele>258.7</ele></trkpt>
    <trkpt lat="49.693622" lon="10.034182"><ele>258.8</ele></trkpt>
    <trkpt lat="49.693526" lon="10.034138"><ele>258.8</ele></trkpt>
    <trkpt lat="49.693236" lon="10.034215"><ele>258.9</ele></trkpt>
    <trkpt lat="49.693137" lon="10.034284"><ele>258.9</ele></trkpt>
    <trkpt lat="49.693021" lon="10.034291"><ele>258.9</ele></trkpt>
    <trkpt lat="49.692686" lon="10.034090"><ele>259.0</ele></trkpt>
    <trkpt lat="49.692503" lon="10.034045"><ele>259.2</ele></trkpt>
    <trkpt lat="49.692307" lon="10.034140"><ele>259.7</ele></trkpt>
    <trkpt lat="49.692139" lon="10.034172"><ele>260.2</ele></trkpt>
    <trkpt lat="49.692009" lon="10.034266"><ele>260.6</ele></trkpt>
    <trkpt lat="49.691894" lon="10.034385"><ele>261.0</ele></trkpt>
    <trkpt lat="49.691734" lon="10.034700"><ele>261.7</ele></trkpt>
    <trkpt lat="49.691665" lon="10.034798"><ele>261.9</ele></trkpt>
    <trkpt lat="49.691430" lon="10.034978"><ele>262.7</ele></trkpt>
    <trkpt lat="49.691398" lon="10.035051"><ele>262.8</ele></trkpt>
    <trkpt lat="49.691387" lon="10.035231"><ele>263.1</ele></trkpt>
    <trkpt lat="49.691335" lon="10.035494"><ele>263.6</ele></trkpt>
    <trkpt lat="49.691262" lon="10.035704"><ele>264.0</ele></trkpt>
    <trkpt lat="49.691215" lon="10.035959"><ele>264.7</ele></trkpt>
    <trkpt lat="49.691177" lon="10.036590"><ele>266.1</ele></trkpt>
    <trkpt lat="49.691088" lon="10.036981"><ele>267.1</ele></trkpt>
    <trkpt lat="49.691103" lon="10.037156"><ele>267.5</ele></trkpt>
    <trkpt lat="49.690960" lon="10.037776"><ele>269.0</ele></trkpt>
    <trkpt lat="49.690666" lon="10.037903"><ele>270.1</ele></trkpt>
    <trkpt lat="49.690561" lon="10.037999"><ele>270.4</ele></trkpt>
    <trkpt lat="49.690442" lon="10.037965"><ele>270.3</ele></trkpt>
    <trkpt lat="49.690296" lon="10.037763"><ele>270.1</ele></trkpt>
    <trkpt lat="49.690185" lon="10.037390"><ele>269.7</ele></trkpt>
    <trkpt lat="49.689887" lon="10.036811"><ele>269.2</ele></trkpt>
    <trkpt lat="49.689337" lon="10.036098"><ele>268.3</ele></trkpt>
    <trkpt lat="49.689135" lon="10.035566"><ele>266.8</ele></trkpt>
    <trkpt lat="49.688959" lon="10.035388"><ele>266.0</ele></trkpt>
    <trkpt lat="49.688902" lon="10.035227"><ele>265.6</ele></trkpt>
    <trkpt lat="49.688836" lon="10.034852"><ele>264.7</ele></trkpt>
    <trkpt lat="49.688806" lon="10.034796"><ele>264.5</ele></trkpt>
    <trkpt lat="49.688092" lon="10.034277"><ele>261.6</ele></trkpt>
    <trkpt lat="49.687970" lon="10.034225"><ele>260.8</ele></trkpt>
    <trkpt lat="49.687856" lon="10.034244"><ele>260.2</ele></trkpt>
    <trkpt lat="49.687777" lon="10.034104"><ele>259.5</ele></trkpt>
    <trkpt lat="49.687713" lon="10.034062"><ele>259.1</ele></trkpt>
    <trkpt lat="49.687513" lon="10.033958"><ele>257.9</ele></trkpt>
    <trkpt lat="49.687142" lon="10.033867"><ele>255.8</ele></trkpt>
    <trkpt lat="49.686509" lon="10.033942"><ele>252.1</ele></trkpt>
    <trkpt lat="49.686235" lon="10.034152"><ele>250.8</ele></trkpt>
    <trkpt lat="49.685558" lon="10.034583"><ele>248.1</ele></trkpt>
    <trkpt lat="49.685494" lon="10.034638"><ele>247.9</ele></trkpt>
    <trkpt lat="49.685418" lon="10.034805"><ele>247.4</ele></trkpt>
    <trkpt lat="49.685207" lon="10.034897"><ele>246.6</ele></trkpt>
    <trkpt lat="49.685086" lon="10.034915"><ele>246.2</ele></trkpt>
    <trkpt lat="49.684995" lon="10.034895"><ele>245.9</ele></trkpt>
    <trkpt lat="49.684811" lon="10.034777"><ele>245.1</ele></trkpt>
    <trkpt lat="49.684643" lon="10.034749"><ele>244.4</ele></trkpt>
    <trkpt lat="49.684342" lon="10.034621"><ele>243.0</ele></trkpt>
    <trkpt lat="49.683984" lon="10.034554"><ele>241.4</ele></trkpt>
    <trkpt lat="49.683852" lon="10.034597"><ele>240.8</ele></trkpt>
    <trkpt lat="49.683074" lon="10.035498"><ele>237.3</ele></trkpt>
    <trkpt lat="49.682893" lon="10.035829"><ele>238.5</ele></trkpt>
    <trkpt lat="49.682647" lon="10.036547"><ele>240.7</ele></trkpt>
    <trkpt lat="49.682197" lon="10.037263"><ele>243.3</ele></trkpt>
    <trkpt lat="49.682186" lon="10.037306"><ele>243.4</ele></trkpt>
    <trkpt lat="49.682178" lon="10.037335"><ele>243.5</ele></trkpt>
    <trkpt lat="49.682191" lon="10.037556"><ele>244.1</ele></trkpt>
    <trkpt lat="49.682109" lon="10.037804"><ele>245.4</ele></trkpt>
    <trkpt lat="49.682057" lon="10.037882"><ele>246.0</ele></trkpt>
    <trkpt lat="49.682029" lon="10.038080"><ele>247.0</ele></trkpt>
    <trkpt lat="49.682166" lon="10.038270"><ele>248.5</ele></trkpt>
    <trkpt lat="49.682248" lon="10.038626"><ele>250.5</ele></trkpt>
    <trkpt lat="49.682284" lon="10.038640"><ele>250.8</ele></trkpt>
    <trkpt lat="49.682716" lon="10.039889"><ele>258.2</ele></trkpt>
    <trkpt lat="49.682848" lon="10.040302"><ele>259.3</ele></trkpt>
    <trkpt lat="49.682921" lon="10.040758"><ele>260.0</ele></trkpt>
    <trkpt lat="49.683175" lon="10.041576"><ele>261.2</ele></trkpt>
    <trkpt lat="49.683243" lon="10.041705"><ele>261.4</ele></trkpt>
    <trkpt lat="49.684218" lon="10.040404"><ele>263.1</ele></trkpt>
    <trkpt lat="49.684670" lon="10.039700"><ele>263.5</ele></trkpt>
    <trkpt lat="49.685187" lon="10.039000"><ele>264.1</ele></trkpt>
    <trkpt lat="49.685542" lon="10.038577"><ele>264.8</ele></trkpt>
    <trkpt lat="49.685660" lon="10.038467"><ele>265.0</ele></trkpt>
    <trkpt lat="49.685896" lon="10.038333"><ele>265.4</ele></trkpt>
    <trkpt lat="49.685890" lon="10.038262"><ele>265.4</ele></trkpt>
    <trkpt lat="49.685886" lon="10.038215"><ele>265.5</ele></trkpt>
    <trkpt lat="49.686004" lon="10.038192"><ele>265.6</ele></trkpt>
    <trkpt lat="49.685998" lon="10.038131"><ele>265.7</ele></trkpt>
    <trkpt lat="49.686014" lon="10.038128"><ele>265.7</ele></trkpt>
    <trkpt lat="49.686151" lon="10.038096"><ele>265.9</ele></trkpt>
    <trkpt lat="49.686217" lon="10.038081"><ele>266.0</ele></trkpt>
    <trkpt lat="49.686242" lon="10.038116"><ele>266.1</ele></trkpt>
    <trkpt lat="49.686321" lon="10.038157"><ele>266.2</ele></trkpt>
    <trkpt lat="49.686359" lon="10.038728"><ele>266.5</ele></trkpt>
    <trkpt lat="49.686331" lon="10.038868"><ele>266.6</ele></trkpt>
    <trkpt lat="49.686260" lon="10.038979"><ele>266.6</ele></trkpt>
    <trkpt lat="49.685939" lon="10.039187"><ele>266.8</ele></trkpt>
    <trkpt lat="49.685913" lon="10.039222"><ele>266.8</ele></trkpt>
    <trkpt lat="49.685911" lon="10.039384"><ele>266.8</ele></trkpt>
    <trkpt lat="49.685996" lon="10.039819"><ele>267.0</ele></trkpt>
    <trkpt lat="49.686055" lon="10.039987"><ele>267.0</ele></trkpt>
    <trkpt lat="49.686563" lon="10.041146"><ele>266.5</ele></trkpt>
    <trkpt lat="49.686586" lon="10.043905"><ele>263.5</ele></trkpt>
    <trkpt lat="49.686872" lon="10.043942"><ele>263.1</ele></trkpt>
    <trkpt lat="49.687165" lon="10.044066"><ele>262.7</ele></trkpt>
    <trkpt lat="49.687357" lon="10.044245"><ele>262.4</ele></trkpt>
    <trkpt lat="49.687510" lon="10.044439"><ele>262.1</ele></trkpt>
    <trkpt lat="49.687677" lon="10.044521"><ele>261.9</ele></trkpt>
    <trkpt lat="49.689418" lon="10.044761"><ele>261.5</ele></trkpt>
    <trkpt lat="49.690195" lon="10.044839"><ele>261.8</ele></trkpt>
    <trkpt lat="49.690645" lon="10.044778"><ele>262.1</ele></trkpt>
    <trkpt lat="49.691018" lon="10.044680"><ele>262.3</ele></trkpt>
    <trkpt lat="49.691355" lon="10.044559"><ele>262.5</ele></trkpt>
    <trkpt lat="49.691921" lon="10.044294"><ele>262.3</ele></trkpt>
    <trkpt lat="49.692093" lon="10.044244"><ele>262.2</ele></trkpt>
    <trkpt lat="49.692696" lon="10.044236"><ele>261.8</ele></trkpt>
    <trkpt lat="49.692935" lon="10.044274"><ele>261.7</ele></trkpt>
    <trkpt lat="49.693159" lon="10.044376"><ele>261.5</ele></trkpt>
    <trkpt lat="49.693400" lon="10.044631"><ele>260.5</ele></trkpt>
    <trkpt lat="49.693941" lon="10.045465"><ele>257.4</ele></trkpt>
    <trkpt lat="49.694156" lon="10.045682"><ele>256.3</ele></trkpt>
    <trkpt lat="49.694623" lon="10.046052"><ele>254.2</ele></trkpt>
    <trkpt lat="49.694735" lon="10.045544"><ele>253.8</ele></trkpt>
    <trkpt lat="49.694822" lon="10.045269"><ele>253.5</ele></trkpt>
    <trkpt lat="49.694824" lon="10.045265"><ele>253.5</ele></trkpt>
    <trkpt lat="49.695274" lon="10.044447"><ele>252.7</ele></trkpt>
    <trkpt lat="49.695513" lon="10.043897"><ele>252.1</ele></trkpt>
    <trkpt lat="49.696035" lon="10.042543"><ele>252.9</ele></trkpt>
    <trkpt lat="49.696430" lon="10.041678"><ele>253.6</ele></trkpt>
    <trkpt lat="49.696612" lon="10.041400"><ele>253.9</ele></trkpt>
    <trkpt lat="49.696694" lon="10.041324"><ele>253.9</ele></trkpt>
    <trkpt lat="49.697164" lon="10.041093"><ele>254.0</ele></trkpt>
    <trkpt lat="49.697377" lon="10.040951"><ele>254.1</ele></trkpt>
    <trkpt lat="49.697559" lon="10.040792"><ele>254.1</ele></trkpt>
    <trkpt lat="49.697944" lon="10.040351"><ele>254.3</ele></trkpt>
    <trkpt lat="49.698107" lon="10.040131"><ele>254.3</ele></trkpt>
    <trkpt lat="49.698266" lon="10.040179"><ele>254.5</ele></trkpt>
    <trkpt lat="49.698577" lon="10.040120"><ele>254.9</ele></trkpt>
    <trkpt lat="49.698732" lon="10.040065"><ele>255.1</ele></trkpt>
    <trkpt lat="49.699168" lon="10.039904"><ele>255.7</ele></trkpt>
    <trkpt lat="49.699416" lon="10.039700"><ele>256.1</ele></trkpt>
    <trkpt lat="49.699707" lon="10.039337"><ele>256.6</ele></trkpt>
    <trkpt lat="49.699829" lon="10.039387"><ele>256.8</ele></trkpt>
    <trkpt lat="49.699955" lon="10.039465"><ele>257.2</ele></trkpt>
    <trkpt lat="49.700590" lon="10.040090"><ele>259.5</ele></trkpt>
    <trkpt lat="49.700706" lon="10.040210"><ele>260.0</ele></trkpt>
    <trkpt lat="49.701844" lon="10.041298"><ele>263.7</ele></trkpt>
    <trkpt lat="49.701843" lon="10.041212"><ele>263.9</ele></trkpt>
    <trkpt lat="49.701926" lon="10.041118"><ele>264.1</ele></trkpt>
    <trkpt lat="49.702708" lon="10.040824"><ele>266.1</ele></trkpt>
    <trkpt lat="49.702772" lon="10.040674"><ele>266.4</ele></trkpt>
    <trkpt lat="49.702762" lon="10.040361"><ele>266.5</ele></trkpt>
    <trkpt lat="49.702701" lon="10.039861"><ele>265.9</ele></trkpt>
    <trkpt lat="49.702946" lon="10.039705"><ele>265.4</ele></trkpt>
    <trkpt lat="49.703628" lon="10.039416"><ele>263.9</ele></trkpt>
    <trkpt lat="49.703961" lon="10.039275"><ele>263.3</ele></trkpt>
    <trkpt lat="49.703880" lon="10.038415"><ele>262.5</ele></trkpt>
    <trkpt lat="49.703823" lon="10.037229"><ele>261.6</ele></trkpt>
    <trkpt lat="49.703876" lon="10.036174"><ele>260.8</ele></trkpt>
    <trkpt lat="49.703901" lon="10.035856"><ele>260.6</ele></trkpt>
    <trkpt lat="49.703932" lon="10.035695"><ele>260.5</ele></trkpt>
    <trkpt lat="49.703758" lon="10.035495"><ele>260.3</ele></trkpt>
    <trkpt lat="49.703789" lon="10.035407"><ele>260.3</ele></trkpt>
    <trkpt lat="49.703794" lon="10.035268"><ele>260.2</ele></trkpt>
    <trkpt lat="49.703775" lon="10.034756"><ele>259.9</ele></trkpt>
    <trkpt lat="49.703753" lon="10.034727"><ele>259.9</ele></trkpt>
    <trkpt lat="49.703747" lon="10.034546"><ele>259.8</ele></trkpt>
    <trkpt lat="49.703772" lon="10.033308"><ele>256.8</ele></trkpt>
    <trkpt lat="49.703754" lon="10.032899"><ele>254.5</ele></trkpt>
    <trkpt lat="49.703710" lon="10.032680"><ele>253.3</ele></trkpt>
    <trkpt lat="49.703680" lon="10.032615"><ele>252.9</ele></trkpt>
    <trkpt lat="49.703677" lon="10.032519"><ele>252.3</ele></trkpt>
    <trkpt lat="49.703747" lon="10.031698"><ele>247.8</ele></trkpt>
    <trkpt lat="49.703789" lon="10.031511"><ele>246.7</ele></trkpt>
    <trkpt lat="49.703818" lon="10.031083"><ele>244.4</ele></trkpt>
    <trkpt lat="49.703999" lon="10.031054"><ele>242.9</ele></trkpt>
    <trkpt lat="49.704048" lon="10.030917"><ele>242.0</ele></trkpt>
    <trkpt lat="49.703383" lon="10.030595"><ele>236.2</ele></trkpt>
    <trkpt lat="49.703068" lon="10.030559"><ele>233.6</ele></trkpt>
    <trkpt lat="49.702770" lon="10.030604"><ele>231.1</ele></trkpt>
    <trkpt lat="49.702433" lon="10.030774"><ele>228.9</ele></trkpt>
    <trkpt lat="49.702234" lon="10.031007"><ele>228.2</ele></trkpt>
    <trkpt lat="49.701698" lon="10.032148"><ele>225.8</ele></trkpt>
    <trkpt lat="49.701608" lon="10.032338"><ele>225.4</ele></trkpt>
    <trkpt lat="49.701538" lon="10.032819"><ele>224.5</ele></trkpt>
    <trkpt lat="49.701338" lon="10.032094"><ele>219.4</ele></trkpt>
    <trkpt lat="49.701135" lon="10.031067"><ele>212.1</ele></trkpt>
    <trkpt lat="49.701017" lon="10.030119"><ele>205.4</ele></trkpt>
    <trkpt lat="49.700991" lon="10.029780"><ele>203.8</ele></trkpt>
    <trkpt lat="49.701092" lon="10.029422"><ele>201.9</ele></trkpt>
    <trkpt lat="49.701155" lon="10.029094"><ele>200.3</ele></trkpt>
    <trkpt lat="49.701362" lon="10.028799"><ele>198.2</ele></trkpt>
    <trkpt lat="49.701576" lon="10.028558"><ele>196.2</ele></trkpt>
    <trkpt lat="49.701750" lon="10.028459"><ele>194.9</ele></trkpt>
    <trkpt lat="49.701696" lon="10.028312"><ele>194.1</ele></trkpt>
    <trkpt lat="49.701733" lon="10.028011"><ele>192.6</ele></trkpt>
    <trkpt lat="49.701813" lon="10.027718"><ele>191.6</ele></trkpt>
    <trkpt lat="49.702024" lon="10.027721"><ele>190.8</ele></trkpt>
    <trkpt lat="49.702179" lon="10.025447"><ele>185.5</ele></trkpt>
    <trkpt lat="49.703077" lon="10.025160"><ele>184.6</ele></trkpt>
    <trkpt lat="49.703421" lon="10.025089"><ele>184.2</ele></trkpt>
    <trkpt lat="49.703506" lon="10.025049"><ele>184.1</ele></trkpt>
    <trkpt lat="49.703577" lon="10.025024"><ele>184.1</ele></trkpt>
    <trkpt lat="49.703627" lon="10.025007"><ele>184.0</ele></trkpt>
    <trkpt lat="49.703685" lon="10.024973"><ele>184.0</ele></trkpt>
    <trkpt lat="49.703718" lon="10.024954"><ele>183.9</ele></trkpt>
    <trkpt lat="49.704219" lon="10.024810"><ele>183.4</ele></trkpt>
    <trkpt lat="49.704420" lon="10.024752"><ele>183.2</ele></trkpt>
    <trkpt lat="49.704794" lon="10.024644"><ele>182.7</ele></trkpt>
    <trkpt lat="49.705260" lon="10.024498"><ele>182.2</ele></trkpt>
    <trkpt lat="49.705087" lon="10.023780"><ele>181.6</ele></trkpt>
    <trkpt lat="49.704983" lon="10.022804"><ele>180.2</ele></trkpt>
    <trkpt lat="49.704981" lon="10.022791"><ele>180.2</ele></trkpt>
    <trkpt lat="49.704971" lon="10.022727"><ele>180.1</ele></trkpt>
    <trkpt lat="49.704955" lon="10.022607"><ele>179.9</ele></trkpt>
    <trkpt lat="49.706301" lon="10.022049"><ele>177.4</ele></trkpt>
    <trkpt lat="49.706590" lon="10.021824"><ele>177.1</ele></trkpt>
    <trkpt lat="49.706585" lon="10.021781"><ele>177.1</ele></trkpt>
    <trkpt lat="49.706671" lon="10.021456"><ele>176.9</ele></trkpt>
    <trkpt lat="49.706974" lon="10.021323"><ele>176.6</ele></trkpt>
    <trkpt lat="49.707008" lon="10.021361"><ele>176.6</ele></trkpt>
    <trkpt lat="49.707085" lon="10.021331"><ele>176.5</ele></trkpt>
    <trkpt lat="49.707121" lon="10.021250"><ele>176.4</ele></trkpt>
    <trkpt lat="49.707449" lon="10.021157"><ele>176.2</ele></trkpt>
    <trkpt lat="49.708133" lon="10.021069"><ele>176.3</ele></trkpt>
    <trkpt lat="49.708718" lon="10.021027"><ele>176.4</ele></trkpt>
    <trkpt lat="49.708717" lon="10.021273"><ele>176.4</ele></trkpt>
    <trkpt lat="49.708819" lon="10.021251"><ele>176.4</ele></trkpt>
    <trkpt lat="49.708906" lon="10.021233"><ele>176.4</ele></trkpt>
    <trkpt lat="49.708906" lon="10.021162"><ele>176.4</ele></trkpt>
    <trkpt lat="49.708902" lon="10.020002"><ele>176.8</ele></trkpt>
    <trkpt lat="49.708817" lon="10.018787"><ele>177.2</ele></trkpt>
    <trkpt lat="49.708649" lon="10.017556"><ele>178.2</ele></trkpt>
    <trkpt lat="49.708496" lon="10.016808"><ele>179.2</ele></trkpt>
    <trkpt lat="49.708449" lon="10.016620"><ele>179.4</ele></trkpt>
    <trkpt lat="49.708439" lon="10.016577"><ele>179.5</ele></trkpt>
    <trkpt lat="49.708198" lon="10.015703"><ele>180.6</ele></trkpt>
    <trkpt lat="49.708179" lon="10.015638"><ele>180.7</ele></trkpt>
    <trkpt lat="49.708027" lon="10.015177"><ele>181.4</ele></trkpt>
    <trkpt lat="49.707858" lon="10.014783"><ele>182.1</ele></trkpt>
    <trkpt lat="49.707627" lon="10.014218"><ele>183.1</ele></trkpt>
    <trkpt lat="49.707391" lon="10.013859"><ele>183.8</ele></trkpt>
    <trkpt lat="49.707313" lon="10.013764"><ele>184.0</ele></trkpt>
    <trkpt lat="49.707250" lon="10.013678"><ele>184.2</ele></trkpt>
    <trkpt lat="49.707295" lon="10.013610"><ele>184.4</ele></trkpt>
    <trkpt lat="49.707349" lon="10.013528"><ele>184.5</ele></trkpt>
    <trkpt lat="49.707460" lon="10.013377"><ele>184.7</ele></trkpt>
    <trkpt lat="49.707803" lon="10.012945"><ele>184.7</ele></trkpt>
    <trkpt lat="49.707778" lon="10.012909"><ele>184.7</ele></trkpt>
    <trkpt lat="49.707773" lon="10.012901"><ele>184.7</ele></trkpt>
    <trkpt lat="49.707819" lon="10.012849"><ele>184.7</ele></trkpt>
    <trkpt lat="49.707850" lon="10.012776"><ele>184.7</ele></trkpt>
    <trkpt lat="49.708947" lon="10.011327"><ele>184.7</ele></trkpt>
  </trkseg></trk>
</gpx>
