<?xml version="1.0" encoding="UTF-8"?>
<gpx version="1.1" creator="tools/import_reference_gpx.py" xmlns="http://www.topografix.com/GPX/1/1">
  <metadata><name>Veitshöchheim: Schlossgarten und Seelein</name><desc>Referenz-Route (in komoot geplant) – vor Veröffentlichung prüfen</desc></metadata>
  <trk><name>Veitshöchheim: Schlossgarten und Seelein</name><trkseg>
    <trkpt lat="49.830342" lon="9.876272"><ele>176.7</ele></trkpt>
    <trkpt lat="49.830993" lon="9.876130"><ele>176.7</ele></trkpt>
    <trkpt lat="49.830988" lon="9.876079"><ele>176.7</ele></trkpt>
    <trkpt lat="49.830627" lon="9.876142"><ele>176.6</ele></trkpt>
    <trkpt lat="49.830653" lon="9.876136"><ele>176.6</ele></trkpt>
    <trkpt lat="49.830683" lon="9.876130"><ele>176.5</ele></trkpt>
    <trkpt lat="49.830680" lon="9.876096"><ele>176.5</ele></trkpt>
    <trkpt lat="49.830694" lon="9.876006"><ele>176.5</ele></trkpt>
    <trkpt lat="49.830940" lon="9.875952"><ele>176.3</ele></trkpt>
    <trkpt lat="49.830953" lon="9.875889"><ele>176.3</ele></trkpt>
    <trkpt lat="49.831016" lon="9.875840"><ele>176.2</ele></trkpt>
    <trkpt lat="49.831044" lon="9.875777"><ele>176.2</ele></trkpt>
    <trkpt lat="49.831239" lon="9.875701"><ele>176.0</ele></trkpt>
    <trkpt lat="49.831281" lon="9.875756"><ele>176.0</ele></trkpt>
    <trkpt lat="49.831329" lon="9.875747"><ele>176.0</ele></trkpt>
    <trkpt lat="49.831610" lon="9.875690"><ele>175.8</ele></trkpt>
    <trkpt lat="49.831795" lon="9.875707"><ele>175.6</ele></trkpt>
    <trkpt lat="49.831787" lon="9.875629"><ele>175.6</ele></trkpt>
    <trkpt lat="49.831780" lon="9.875536"><ele>175.6</ele></trkpt>
    <trkpt lat="49.831778" lon="9.875489"><ele>175.5</ele></trkpt>
    <trkpt lat="49.831772" lon="9.875451"><ele>175.5</ele></trkpt>
    <trkpt lat="49.831760" lon="9.875327"><ele>175.5</ele></trkpt>
    <trkpt lat="49.831757" lon="9.875290"><ele>175.4</ele></trkpt>
    <trkpt lat="49.831440" lon="9.875359"><ele>175.2</ele></trkpt>
    <trkpt lat="49.831242" lon="9.875403"><ele>175.1</ele></trkpt>
    <trkpt lat="49.830743" lon="9.875512"><ele>174.7</ele></trkpt>
    <trkpt lat="49.830280" lon="9.875613"><ele>174.3</ele></trkpt>
    <trkpt lat="49.830743" lon="9.875512"><ele>174.0</ele></trkpt>
    <trkpt lat="49.831242" lon="9.875403"><ele>173.9</ele></trkpt>
    <trkpt lat="49.831289" lon="9.875305"><ele>173.9</ele></trkpt>
    <trkpt lat="49.831317" lon="9.875300"><ele>173.9</ele></trkpt>
    <trkpt lat="49.831448" lon="9.875275"><ele>173.9</ele></trkpt>
    <trkpt lat="49.831424" lon="9.874972"><ele>173.8</ele></trkpt>
    <trkpt lat="49.831722" lon="9.874905"><ele>173.8</ele></trkpt>
    <trkpt lat="49.832017" lon="9.874838"><ele>173.7</ele></trkpt>
    <trkpt lat="49.831994" lon="9.874581"><ele>173.7</ele></trkpt>
    <trkpt lat="49.831961" lon="9.874588"><ele>173.8</ele></trkpt>
    <trkpt lat="49.831949" lon="9.874591"><ele>173.8</ele></trkpt>
    <trkpt lat="49.831961" lon="9.874588"><ele>173.9</ele></trkpt>
    <trkpt lat="49.831994" lon="9.874581"><ele>173.9</ele></trkpt>
    <trkpt lat="49.832017" lon="9.874838"><ele>174.2</ele></trkpt>
    <trkpt lat="49.831722" lon="9.874905"><ele>174.8</ele></trkpt>
    <trkpt lat="49.831749" lon="9.875208"><ele>175.1</ele></trkpt>
    <trkpt lat="49.831757" lon="9.875290"><ele>175.2</ele></trkpt>
    <trkpt lat="49.831760" lon="9.875327"><ele>175.3</ele></trkpt>
    <trkpt lat="49.831772" lon="9.875451"><ele>175.4</ele></trkpt>
    <trkpt lat="49.831778" lon="9.875489"><ele>175.5</ele></trkpt>
    <trkpt lat="49.831849" lon="9.875462"><ele>175.6</ele></trkpt>
    <trkpt lat="49.831778" lon="9.875489"><ele>175.7</ele></trkpt>
    <trkpt lat="49.831780" lon="9.875536"><ele>175.8</ele></trkpt>
    <trkpt lat="49.831787" lon="9.875629"><ele>175.9</ele></trkpt>
    <trkpt lat="49.831795" lon="9.875707"><ele>176.0</ele></trkpt>
    <trkpt lat="49.831871" lon="9.875707"><ele>176.1</ele></trkpt>
    <trkpt lat="49.832232" lon="9.875605"><ele>176.8</ele></trkpt>
    <trkpt lat="49.832421" lon="9.875574"><ele>177.2</ele></trkpt>
    <trkpt lat="49.832789" lon="9.875512"><ele>178.1</ele></trkpt>
    <trkpt lat="49.832841" lon="9.875546"><ele>178.2</ele></trkpt>
    <trkpt lat="49.832924" lon="9.875542"><ele>178.4</ele></trkpt>
    <trkpt lat="49.832995" lon="9.875500"><ele>178.6</ele></trkpt>
    <trkpt lat="49.833056" lon="9.875464"><ele>178.8</ele></trkpt>
    <trkpt lat="49.833063" lon="9.875460"><ele>178.8</ele></trkpt>
    <trkpt lat="49.833262" lon="9.875326"><ele>179.4</ele></trkpt>
    <trkpt lat="49.833542" lon="9.875261"><ele>180.1</ele></trkpt>
    <trkpt lat="49.833679" lon="9.875287"><ele>180.4</ele></trkpt>
    <trkpt lat="49.833732" lon="9.875332"><ele>180.5</ele></trkpt>
    <trkpt lat="49.833767" lon="9.875367"><ele>180.6</ele></trkpt>
    <trkpt lat="49.833819" lon="9.875446"><ele>180.8</ele></trkpt>
    <trkpt lat="49.833872" lon="9.875614"><ele>181.1</ele></trkpt>
    <trkpt lat="49.833877" lon="9.875866"><ele>181.5</ele></trkpt>
    <trkpt lat="49.834278" lon="9.875746"><ele>182.7</ele></trkpt>
    <trkpt lat="49.834930" lon="9.875402"><ele>184.6</ele></trkpt>
    <trkpt lat="49.835448" lon="9.875092"><ele>186.2</ele></trkpt>
    <trkpt lat="49.835886" lon="9.875845"><ele>190.9</ele></trkpt>
    <trkpt lat="49.836011" lon="9.876250"><ele>193.2</ele></trkpt>
    <trkpt lat="49.836149" lon="9.876908"><ele>196.8</ele></trkpt>
    <trkpt lat="49.836176" lon="9.877017"><ele>197.4</ele></trkpt>
    <trkpt lat="49.836288" lon="9.877625"><ele>200.6</ele></trkpt>
    <trkpt lat="49.836398" lon="9.878394"><ele>204.1</ele></trkpt>
    <trkpt lat="49.836398" lon="9.878537"><ele>204.7</ele></trkpt>
    <trkpt lat="49.836393" lon="9.879731"><ele>209.9</ele></trkpt>
    <trkpt lat="49.836507" lon="9.880290"><ele>212.5</ele></trkpt>
    <trkpt lat="49.836615" lon="9.880821"><ele>214.9</ele></trkpt>
    <trkpt lat="49.836728" lon="9.881856"><ele>219.4</ele></trkpt>
    <trkpt lat="49.836857" lon="9.882681"><ele>223.1</ele></trkpt>
    <trkpt lat="49.836810" lon="9.882852"><ele>223.9</ele></trkpt>
    <trkpt lat="49.836792" lon="9.883027"><ele>224.6</ele></trkpt>
    <trkpt lat="49.836782" lon="9.883276"><ele>225.3</ele></trkpt>
    <trkpt lat="49.837023" lon="9.884082"><ele>226.7</ele></trkpt>
    <trkpt lat="49.837315" lon="9.885290"><ele>228.8</ele></trkpt>
    <trkpt lat="49.837618" lon="9.886337"><ele>230.6</ele></trkpt>
    <trkpt lat="49.838568" lon="9.888262"><ele>233.0</ele></trkpt>
    <trkpt lat="49.839154" lon="9.889384"><ele>229.5</ele></trkpt>
    <trkpt lat="49.839183" lon="9.889440"><ele>229.3</ele></trkpt>
    <trkpt lat="49.839517" lon="9.888984"><ele>227.6</ele></trkpt>
    <trkpt lat="49.839721" lon="9.888775"><ele>226.7</ele></trkpt>
    <trkpt lat="49.839781" lon="9.888775"><ele>226.5</ele></trkpt>
    <trkpt lat="49.840000" lon="9.889200"><ele>225.4</ele></trkpt>
    <trkpt lat="49.840183" lon="9.889243"><ele>224.8</ele></trkpt>
    <trkpt lat="49.840546" lon="9.888741"><ele>223.1</ele></trkpt>
    <trkpt lat="49.840666" lon="9.888537"><ele>222.5</ele></trkpt>
    <trkpt lat="49.841452" lon="9.890062"><ele>223.8</ele></trkpt>
    <trkpt lat="49.841652" lon="9.890295"><ele>224.7</ele></trkpt>
    <trkpt lat="49.842007" lon="9.890512"><ele>226.0</ele></trkpt>
    <trkpt lat="49.842139" lon="9.890617"><ele>226.5</ele></trkpt>
    <trkpt lat="49.842324" lon="9.890796"><ele>227.3</ele></trkpt>
    <trkpt lat="49.842828" lon="9.891948"><ele>232.5</ele></trkpt>
    <trkpt lat="49.843267" lon="9.893074"><ele>237.3</ele></trkpt>
    <trkpt lat="49.843327" lon="9.893230"><ele>238.0</ele></trkpt>
    <trkpt lat="49.843435" lon="9.893507"><ele>239.3</ele></trkpt>
    <trkpt lat="49.843460" lon="9.893635"><ele>239.8</ele></trkpt>
    <trkpt lat="49.843632" lon="9.893615"><ele>240.8</ele></trkpt>
    <trkpt lat="49.843831" lon="9.893771"><ele>242.2</ele></trkpt>
    <trkpt lat="49.844613" lon="9.893927"><ele>246.9</ele></trkpt>
    <trkpt lat="49.844787" lon="9.894057"><ele>248.0</ele></trkpt>
    <trkpt lat="49.845206" lon="9.894208"><ele>250.2</ele></trkpt>
    <trkpt lat="49.846172" lon="9.895136"><ele>255.6</ele></trkpt>
    <trkpt lat="49.846461" lon="9.895585"><ele>257.6</ele></trkpt>
    <trkpt lat="49.846987" lon="9.895786"><ele>260.3</ele></trkpt>
    <trkpt lat="49.847802" lon="9.895981"><ele>264.3</ele></trkpt>
    <trkpt lat="49.848208" lon="9.896161"><ele>266.1</ele></trkpt>
    <trkpt lat="49.848589" lon="9.896187"><ele>266.9</ele></trkpt>
    <trkpt lat="49.848937" lon="9.896365"><ele>267.7</ele></trkpt>
    <trkpt lat="49.849331" lon="9.896420"><ele>268.6</ele></trkpt>
    <trkpt lat="49.849687" lon="9.896552"><ele>269.5</ele></trkpt>
    <trkpt lat="49.849970" lon="9.896941"><ele>270.1</ele></trkpt>
    <trkpt lat="49.851550" lon="9.898400"><ele>272.2</ele></trkpt>
    <trkpt lat="49.852311" lon="9.899215"><ele>273.2</ele></trkpt>
    <trkpt lat="49.852571" lon="9.899363"><ele>273.5</ele></trkpt>
    <trkpt lat="49.852627" lon="9.899430"><ele>273.6</ele></trkpt>
    <trkpt lat="49.852680" lon="9.899492"><ele>273.6</ele></trkpt>
    <trkpt lat="49.853008" lon="9.900315"><ele>274.2</ele></trkpt>
    <trkpt lat="49.853358" lon="9.900963"><ele>274.7</ele></trkpt>
    <trkpt lat="49.854085" lon="9.902553"><ele>276.8</ele></trkpt>
    <trkpt lat="49.854184" lon="9.902689"><ele>277.2</ele></trkpt>
    <trkpt lat="49.854325" lon="9.902691"><ele>277.7</ele></trkpt>
    <trkpt lat="49.854511" lon="9.902608"><ele>278.3</ele></trkpt>
    <trkpt lat="49.855387" lon="9.902077"><ele>281.5</ele></trkpt>
    <trkpt lat="49.855588" lon="9.901884"><ele>282.4</ele></trkpt>
    <trkpt lat="49.855966" lon="9.901335"><ele>284.4</ele></trkpt>
    <trkpt lat="49.856125" lon="9.901246"><ele>285.0</ele></trkpt>
    <trkpt lat="49.856560" lon="9.901200"><ele>286.7</ele></trkpt>
    <trkpt lat="49.856462" lon="9.900741"><ele>287.9</ele></trkpt>
    <trkpt lat="49.856045" lon="9.900017"><ele>288.9</ele></trkpt>
    <trkpt lat="49.855832" lon="9.899692"><ele>289.2</ele></trkpt>
    <trkpt lat="49.855653" lon="9.899418"><ele>289.5</ele></trkpt>
    <trkpt lat="49.855237" lon="9.898513"><ele>290.3</ele></trkpt>
    <trkpt lat="49.855035" lon="9.897889"><ele>292.1</ele></trkpt>
    <trkpt lat="49.855147" lon="9.897292"><ele>293.8</ele></trkpt>
    <trkpt lat="49.855105" lon="9.896729"><ele>295.4</ele></trkpt>
    <trkpt lat="49.855016" lon="9.896216"><ele>296.8</ele></trkpt>
    <trkpt lat="49.855053" lon="9.895597"><ele>298.7</ele></trkpt>
    <trkpt lat="49.855304" lon="9.894806"><ele>301.7</ele></trkpt>
    <trkpt lat="49.855654" lon="9.893978"><ele>305.1</ele></trkpt>
    <trkpt lat="49.856167" lon="9.893101"><ele>308.0</ele></trkpt>
    <trkpt lat="49.856507" lon="9.892431"><ele>308.7</ele></trkpt>
    <trkpt lat="49.856664" lon="9.892178"><ele>309.0</ele></trkpt>
    <trkpt lat="49.857130" lon="9.891425"><ele>309.8</ele></trkpt>
    <trkpt lat="49.857101" lon="9.891368"><ele>309.9</ele></trkpt>
    <trkpt lat="49.855647" lon="9.888851"><ele>302.0</ele></trkpt>
    <trkpt lat="49.856117" lon="9.887700"><ele>298.7</ele></trkpt>
    <trkpt lat="49.856284" lon="9.887524"><ele>298.0</ele></trkpt>
    <trkpt lat="49.856200" lon="9.887230"><ele>297.2</ele></trkpt>
    <trkpt lat="49.855968" lon="9.886107"><ele>294.8</ele></trkpt>
    <trkpt lat="49.855846" lon="9.885767"><ele>294.1</ele></trkpt>
    <trkpt lat="49.855718" lon="9.885411"><ele>293.3</ele></trkpt>
    <trkpt lat="49.855408" lon="9.884896"><ele>291.9</ele></trkpt>
    <trkpt lat="49.854690" lon="9.884012"><ele>290.4</ele></trkpt>
    <trkpt lat="49.854687" lon="9.883864"><ele>290.3</ele></trkpt>
    <trkpt lat="49.853662" lon="9.883577"><ele>289.1</ele></trkpt>
    <trkpt lat="49.852382" lon="9.883153"><ele>291.3</ele></trkpt>
    <trkpt lat="49.852137" lon="9.883164"><ele>291.7</ele></trkpt>
    <trkpt lat="49.852055" lon="9.883201"><ele>291.9</ele></trkpt>
    <trkpt lat="49.852137" lon="9.883164"><ele>292.0</ele></trkpt>
    <trkpt lat="49.852564" lon="9.882292"><ele>294.0</ele></trkpt>
    <trkpt lat="49.852822" lon="9.881922"><ele>295.1</ele></trkpt>
    <trkpt lat="49.853140" lon="9.881356"><ele>296.5</ele></trkpt>
    <trkpt lat="49.853204" lon="9.881144"><ele>296.9</ele></trkpt>
    <trkpt lat="49.853218" lon="9.880978"><ele>297.2</ele></trkpt>
    <trkpt lat="49.853202" lon="9.880799"><ele>297.2</ele></trkpt>
    <trkpt lat="49.853141" lon="9.880810"><ele>297.1</ele></trkpt>
    <trkpt lat="49.853202" lon="9.880799"><ele>297.0</ele></trkpt>
    <trkpt lat="49.853239" lon="9.880581"><ele>296.8</ele></trkpt>
    <trkpt lat="49.853235" lon="9.880484"><ele>296.7</ele></trkpt>
    <trkpt lat="49.853183" lon="9.879873"><ele>296.1</ele></trkpt>
    <trkpt lat="49.853090" lon="9.879326"><ele>295.6</ele></trkpt>
    <trkpt lat="49.853100" lon="9.879154"><ele>295.4</ele></trkpt>
    <trkpt lat="49.852727" lon="9.877523"><ele>292.1</ele></trkpt>
    <trkpt lat="49.852637" lon="9.877271"><ele>291.2</ele></trkpt>
    <trkpt lat="49.852571" lon="9.876895"><ele>290.2</ele></trkpt>
    <trkpt lat="49.852508" lon="9.876952"><ele>289.8</ele></trkpt>
    <trkpt lat="49.852161" lon="9.877088"><ele>288.3</ele></trkpt>
    <trkpt lat="49.850667" lon="9.877111"><ele>279.7</ele></trkpt>
    <trkpt lat="49.850128" lon="9.877179"><ele>276.3</ele></trkpt>
    <trkpt lat="49.849983" lon="9.877209"><ele>275.4</ele></trkpt>
    <trkpt lat="49.848684" lon="9.877479"><ele>266.4</ele></trkpt>
    <trkpt lat="49.848324" lon="9.877491"><ele>263.9</ele></trkpt>
    <trkpt lat="49.848390" lon="9.877244"><ele>262.5</ele></trkpt>
    <trkpt lat="49.848362" lon="9.876549"><ele>258.4</ele></trkpt>
    <trkpt lat="49.848269" lon="9.876308"><ele>256.8</ele></trkpt>
    <trkpt lat="49.848240" lon="9.876223"><ele>256.2</ele></trkpt>
    <trkpt lat="49.848269" lon="9.876308"><ele>255.7</ele></trkpt>
    <trkpt lat="49.848073" lon="9.876214"><ele>253.8</ele></trkpt>
    <trkpt lat="49.847271" lon="9.875432"><ele>245.0</ele></trkpt>
    <trkpt lat="49.846953" lon="9.875223"><ele>241.5</ele></trkpt>
    <trkpt lat="49.846415" lon="9.875344"><ele>236.0</ele></trkpt>
    <trkpt lat="49.845351" lon="9.875306"><ele>225.8</ele></trkpt>
    <trkpt lat="49.845114" lon="9.875245"><ele>223.8</ele></trkpt>
    <trkpt lat="49.844759" lon="9.875155"><ele>220.7</ele></trkpt>
    <trkpt lat="49.844285" lon="9.874924"><ele>216.4</ele></trkpt>
    <trkpt lat="49.844219" lon="9.874883"><ele>215.8</ele></trkpt>
    <trkpt lat="49.843748" lon="9.874587"><ele>212.1</ele></trkpt>
    <trkpt lat="49.843728" lon="9.874564"><ele>212.0</ele></trkpt>
    <trkpt lat="49.843706" lon="9.874409"><ele>211.3</ele></trkpt>
    <trkpt lat="49.843156" lon="9.874122"><ele>207.8</ele></trkpt>
    <trkpt lat="49.842055" lon="9.873434"><ele>200.2</ele></trkpt>
    <trkpt lat="49.841251" lon="9.872946"><ele>194.0</ele></trkpt>
    <trkpt lat="49.841165" lon="9.872913"><ele>193.4</ele></trkpt>
    <trkpt lat="49.841026" lon="9.872874"><ele>192.4</ele></trkpt>
    <trkpt lat="49.840785" lon="9.872935"><ele>190.6</ele></trkpt>
    <trkpt lat="49.840632" lon="9.873032"><ele>189.6</ele></trkpt>
    <trkpt lat="49.840558" lon="9.873096"><ele>189.3</ele></trkpt>
    <trkpt lat="49.839769" lon="9.873769"><ele>185.7</ele></trkpt>
    <trkpt lat="49.839571" lon="9.874004"><ele>184.7</ele></trkpt>
    <trkpt lat="49.839141" lon="9.874699"><ele>182.4</ele></trkpt>
    <trkpt lat="49.838898" lon="9.875082"><ele>181.3</ele></trkpt>
    <trkpt lat="49.838841" lon="9.875136"><ele>181.1</ele></trkpt>
    <trkpt lat="49.838785" lon="9.875141"><ele>181.0</ele></trkpt>
    <trkpt lat="49.838653" lon="9.874949"><ele>180.4</ele></trkpt>
    <trkpt lat="49.838491" lon="9.874726"><ele>179.7</ele></trkpt>
    <trkpt lat="49.838211" lon="9.874459"><ele>178.7</ele></trkpt>
    <trkpt lat="49.838043" lon="9.874408"><ele>178.2</ele></trkpt>
    <trkpt lat="49.837982" lon="9.874402"><ele>178.0</ele></trkpt>
    <trkpt lat="49.837954" lon="9.874560"><ele>177.7</ele></trkpt>
    <trkpt lat="49.837882" lon="9.874693"><ele>177.4</ele></trkpt>
    <trkpt lat="49.837662" lon="9.874783"><ele>177.0</ele></trkpt>
    <trkpt lat="49.837444" lon="9.874783"><ele>176.7</ele></trkpt>
    <trkpt lat="49.837283" lon="9.874743"><ele>176.6</ele></trkpt>
    <trkpt lat="49.837131" lon="9.874656"><ele>176.4</ele></trkpt>
    <trkpt lat="49.837011" lon="9.874548"><ele>176.2</ele></trkpt>
    <trkpt lat="49.836920" lon="9.874418"><ele>176.0</ele></trkpt>
    <trkpt lat="49.836861" lon="9.874271"><ele>175.9</ele></trkpt>
    <trkpt lat="49.836796" lon="9.874041"><ele>175.7</ele></trkpt>
    <trkpt lat="49.836687" lon="9.873586"><ele>175.3</ele></trkpt>
    <trkpt lat="49.835779" lon="9.874283"><ele>175.5</ele></trkpt>
    <trkpt lat="49.835373" lon="9.874503"><ele>175.7</ele></trkpt>
    <trkpt lat="49.834975" lon="9.874666"><ele>176.0</ele></trkpt>
    <trkpt lat="49.834301" lon="9.874805"><ele>176.1</ele></trkpt>
    <trkpt lat="49.833693" lon="9.874733"><ele>176.1</ele></trkpt>
    <trkpt lat="49.833522" lon="9.874697"><ele>176.1</ele></trkpt>
    <trkpt lat="49.833308" lon="9.874577"><ele>176.1</ele></trkpt>
    <trkpt lat="49.833150" lon="9.874842"><ele>176.1</ele></trkpt>
    <trkpt lat="49.832862" lon="9.875148"><ele>176.2</ele></trkpt>
    <trkpt lat="49.832822" lon="9.875198"><ele>176.3</ele></trkpt>
    <trkpt lat="49.832751" lon="9.875234"><ele>176.3</ele></trkpt>
    <trkpt lat="49.832758" lon="9.875422"><ele>176.4</ele></trkpt>
    <trkpt lat="49.832789" lon="9.875512"><ele>176.4</ele></trkpt>
    <trkpt lat="49.832421" lon="9.875574"><ele>176.6</ele></trkpt>
    <trkpt lat="49.832232" lon="9.875605"><ele>176.7</ele></trkpt>
    <trkpt lat="49.831871" lon="9.875707"><ele>176.8</ele></trkpt>
    <trkpt lat="49.831795" lon="9.875707"><ele>176.9</ele></trkpt>
    <trkpt lat="49.831610" lon="9.875690"><ele>177.0</ele></trkpt>
    <trkpt lat="49.831329" lon="9.875747"><ele>177.0</ele></trkpt>
    <trkpt lat="49.831281" lon="9.875756"><ele>177.0</ele></trkpt>
    <trkpt lat="49.831239" lon="9.875701"><ele>177.0</ele></trkpt>
    <trkpt lat="49.831044" lon="9.875777"><ele>177.0</ele></trkpt>
    <trkpt lat="49.831016" lon="9.875840"><ele>177.0</ele></trkpt>
    <trkpt lat="49.830953" lon="9.875889"><ele>177.0</ele></trkpt>
    <trkpt lat="49.830940" lon="9.875952"><ele>177.0</ele></trkpt>
    <trkpt lat="49.830694" lon="9.876006"><ele>177.0</ele></trkpt>
    <trkpt lat="49.830680" lon="9.876096"><ele>177.0</ele></trkpt>
    <trkpt lat="49.830683" lon="9.876130"><ele>177.0</ele></trkpt>
    <trkpt lat="49.830653" lon="9.876136"><ele>177.0</ele></trkpt>
    <trkpt lat="49.830627" lon="9.876142"><ele>177.0</ele></trkpt>
    <trkpt lat="49.830988" lon="9.876079"><ele>177.0</ele></trkpt>
    <trkpt lat="49.830993" lon="9.876130"><ele>177.0</ele></trkpt>
    <trkpt lat="49.830342" lon="9.876272"><ele>177.0</ele></trkpt>
  </trkseg></trk>
</gpx>
