<?xml version="1.0" encoding="UTF-8"?>
<gpx version="1.1" creator="tools/import_reference_gpx.py" xmlns="http://www.topografix.com/GPX/1/1">
  <metadata><name>Winterhausen: Maintalblick und Steinkreis</name><desc>Referenz-Route (in komoot geplant) – vor Veröffentlichung prüfen</desc></metadata>
  <trk><name>Winterhausen: Maintalblick und Steinkreis</name><trkseg>
    <trkpt lat="49.708947" lon="10.011327"><ele>187.0</ele></trkpt>
    <trkpt lat="49.707850" lon="10.012776"><ele>186.7</ele></trkpt>
    <trkpt lat="49.707819" lon="10.012849"><ele>186.7</ele></trkpt>
    <trkpt lat="49.707773" lon="10.012901"><ele>186.7</ele></trkpt>
    <trkpt lat="49.707778" lon="10.012909"><ele>186.7</ele></trkpt>
    <trkpt lat="49.707803" lon="10.012945"><ele>186.6</ele></trkpt>
    <trkpt lat="49.707460" lon="10.013377"><ele>186.4</ele></trkpt>
    <trkpt lat="49.707349" lon="10.013528"><ele>186.3</ele></trkpt>
    <trkpt lat="49.707295" lon="10.013610"><ele>186.3</ele></trkpt>
    <trkpt lat="49.707250" lon="10.013678"><ele>186.3</ele></trkpt>
    <trkpt lat="49.707189" lon="10.013598"><ele>186.2</ele></trkpt>
    <trkpt lat="49.707031" lon="10.013421"><ele>186.1</ele></trkpt>
    <trkpt lat="49.706975" lon="10.013357"><ele>186.1</ele></trkpt>
    <trkpt lat="49.707079" lon="10.013217"><ele>186.4</ele></trkpt>
    <trkpt lat="49.707267" lon="10.012957"><ele>187.1</ele></trkpt>
    <trkpt lat="49.707217" lon="10.012896"><ele>187.2</ele></trkpt>
    <trkpt lat="49.706946" lon="10.012346"><ele>188.5</ele></trkpt>
    <trkpt lat="49.706504" lon="10.011107"><ele>190.9</ele></trkpt>
    <trkpt lat="49.706418" lon="10.010864"><ele>191.7</ele></trkpt>
    <trkpt lat="49.706376" lon="10.010749"><ele>192.1</ele></trkpt>
    <trkpt lat="49.706055" lon="10.009925"><ele>194.7</ele></trkpt>
    <trkpt lat="49.705871" lon="10.009543"><ele>196.0</ele></trkpt>
    <trkpt lat="49.705260" lon="10.008460"><ele>199.6</ele></trkpt>
    <trkpt lat="49.705070" lon="10.007959"><ele>200.6</ele></trkpt>
    <trkpt lat="49.704954" lon="10.007513"><ele>201.5</ele></trkpt>
    <trkpt lat="49.704869" lon="10.007365"><ele>201.8</ele></trkpt>
    <trkpt lat="49.704772" lon="10.007688"><ele>202.5</ele></trkpt>
    <trkpt lat="49.704659" lon="10.008124"><ele>203.3</ele></trkpt>
    <trkpt lat="49.704417" lon="10.008308"><ele>204.1</ele></trkpt>
    <trkpt lat="49.704271" lon="10.008414"><ele>204.5</ele></trkpt>
    <trkpt lat="49.704001" lon="10.008534"><ele>205.2</ele></trkpt>
    <trkpt lat="49.703970" lon="10.008456"><ele>205.4</ele></trkpt>
    <trkpt lat="49.703934" lon="10.008360"><ele>205.5</ele></trkpt>
    <trkpt lat="49.703910" lon="10.008215"><ele>205.8</ele></trkpt>
    <trkpt lat="49.703897" lon="10.007987"><ele>206.2</ele></trkpt>
    <trkpt lat="49.703872" lon="10.007673"><ele>206.7</ele></trkpt>
    <trkpt lat="49.703459" lon="10.006855"><ele>208.5</ele></trkpt>
    <trkpt lat="49.702902" lon="10.006034"><ele>212.3</ele></trkpt>
    <trkpt lat="49.702710" lon="10.005811"><ele>213.5</ele></trkpt>
    <trkpt lat="49.702497" lon="10.005691"><ele>214.6</ele></trkpt>
    <trkpt lat="49.702174" lon="10.005664"><ele>216.2</ele></trkpt>
    <trkpt lat="49.702053" lon="10.005615"><ele>216.8</ele></trkpt>
    <trkpt lat="49.701152" lon="10.004978"><ele>222.4</ele></trkpt>
    <trkpt lat="49.700727" lon="10.004530"><ele>225.3</ele></trkpt>
    <trkpt lat="49.700554" lon="10.004418"><ele>226.4</ele></trkpt>
    <trkpt lat="49.700396" lon="10.004107"><ele>227.9</ele></trkpt>
    <trkpt lat="49.700130" lon="10.003929"><ele>229.9</ele></trkpt>
    <trkpt lat="49.699904" lon="10.003510"><ele>232.3</ele></trkpt>
    <trkpt lat="49.699613" lon="10.003156"><ele>234.9</ele></trkpt>
    <trkpt lat="49.699002" lon="10.002762"><ele>239.4</ele></trkpt>
    <trkpt lat="49.698645" lon="10.002304"><ele>243.8</ele></trkpt>
    <trkpt lat="49.698494" lon="10.001839"><ele>247.2</ele></trkpt>
    <trkpt lat="49.698482" lon="10.001456"><ele>249.6</ele></trkpt>
    <trkpt lat="49.698606" lon="10.000455"><ele>256.1</ele></trkpt>
    <trkpt lat="49.698628" lon="9.999088"><ele>264.1</ele></trkpt>
    <trkpt lat="49.698757" lon="9.997048"><ele>274.5</ele></trkpt>
    <trkpt lat="49.699001" lon="9.996541"><ele>276.1</ele></trkpt>
    <trkpt lat="49.699152" lon="9.996586"><ele>276.7</ele></trkpt>
    <trkpt lat="49.699280" lon="9.996611"><ele>277.2</ele></trkpt>
    <trkpt lat="49.699497" lon="9.996702"><ele>278.0</ele></trkpt>
    <trkpt lat="49.699574" lon="9.996782"><ele>278.4</ele></trkpt>
    <trkpt lat="49.699600" lon="9.996832"><ele>278.5</ele></trkpt>
    <trkpt lat="49.699623" lon="9.996876"><ele>278.7</ele></trkpt>
    <trkpt lat="49.699793" lon="9.997547"><ele>280.4</ele></trkpt>
    <trkpt lat="49.700014" lon="9.998065"><ele>281.1</ele></trkpt>
    <trkpt lat="49.700075" lon="9.998418"><ele>281.5</ele></trkpt>
    <trkpt lat="49.700138" lon="9.998546"><ele>281.7</ele></trkpt>
    <trkpt lat="49.700504" lon="9.998954"><ele>282.5</ele></trkpt>
    <trkpt lat="49.700590" lon="9.999103"><ele>282.7</ele></trkpt>
    <trkpt lat="49.700674" lon="9.999341"><ele>283.0</ele></trkpt>
    <trkpt lat="49.700840" lon="9.999583"><ele>283.4</ele></trkpt>
    <trkpt lat="49.700961" lon="9.999843"><ele>283.5</ele></trkpt>
    <trkpt lat="49.701017" lon="9.999947"><ele>283.6</ele></trkpt>
    <trkpt lat="49.701115" lon="10.000000"><ele>283.6</ele></trkpt>
    <trkpt lat="49.701873" lon="10.000201"><ele>284.1</ele></trkpt>
    <trkpt lat="49.702475" lon="9.999888"><ele>284.4</ele></trkpt>
    <trkpt lat="49.702525" lon="9.999795"><ele>284.5</ele></trkpt>
    <trkpt lat="49.702621" lon="9.999117"><ele>284.4</ele></trkpt>
    <trkpt lat="49.702705" lon="9.998721"><ele>284.4</ele></trkpt>
    <trkpt lat="49.703072" lon="9.998073"><ele>284.4</ele></trkpt>
    <trkpt lat="49.703448" lon="9.997385"><ele>283.9</ele></trkpt>
    <trkpt lat="49.703555" lon="9.997767"><ele>282.3</ele></trkpt>
    <trkpt lat="49.703910" lon="9.999086"><ele>276.9</ele></trkpt>
    <trkpt lat="49.703966" lon="9.999542"><ele>275.1</ele></trkpt>
    <trkpt lat="49.704039" lon="10.000553"><ele>272.5</ele></trkpt>
    <trkpt lat="49.704064" lon="10.000913"><ele>271.7</ele></trkpt>
    <trkpt lat="49.704221" lon="10.001069"><ele>271.1</ele></trkpt>
    <trkpt lat="49.704329" lon="10.001226"><ele>270.7</ele></trkpt>
    <trkpt lat="49.704369" lon="10.001285"><ele>270.5</ele></trkpt>
    <trkpt lat="49.704473" lon="10.001272"><ele>270.1</ele></trkpt>
    <trkpt lat="49.704369" lon="10.001285"><ele>269.8</ele></trkpt>
    <trkpt lat="49.704492" lon="10.001450"><ele>269.3</ele></trkpt>
    <trkpt lat="49.704642" lon="10.001524"><ele>268.8</ele></trkpt>
    <trkpt lat="49.705277" lon="10.001407"><ele>269.9</ele></trkpt>
    <trkpt lat="49.705667" lon="10.001291"><ele>271.5</ele></trkpt>
    <trkpt lat="49.705861" lon="10.001188"><ele>272.3</ele></trkpt>
    <trkpt lat="49.706055" lon="10.001011"><ele>273.2</ele></trkpt>
    <trkpt lat="49.706337" lon="10.000630"><ele>274.7</ele></trkpt>
    <trkpt lat="49.706465" lon="10.000382"><ele>275.4</ele></trkpt>
    <trkpt lat="49.706655" lon="9.999887"><ele>276.2</ele></trkpt>
    <trkpt lat="49.706923" lon="9.999592"><ele>276.9</ele></trkpt>
    <trkpt lat="49.707100" lon="9.999336"><ele>277.4</ele></trkpt>
    <trkpt lat="49.707149" lon="9.999251"><ele>277.6</ele></trkpt>
    <trkpt lat="49.707530" lon="9.998828"><ele>278.6</ele></trkpt>
    <trkpt lat="49.707629" lon="9.998581"><ele>279.0</ele></trkpt>
    <trkpt lat="49.707970" lon="9.997177"><ele>277.7</ele></trkpt>
    <trkpt lat="49.708045" lon="9.996843"><ele>277.4</ele></trkpt>
    <trkpt lat="49.708032" lon="9.996499"><ele>277.0</ele></trkpt>
    <trkpt lat="49.707981" lon="9.996223"><ele>276.7</ele></trkpt>
    <trkpt lat="49.707800" lon="9.995776"><ele>276.3</ele></trkpt>
    <trkpt lat="49.707794" lon="9.995540"><ele>276.5</ele></trkpt>
    <trkpt lat="49.707794" lon="9.995425"><ele>276.6</ele></trkpt>
    <trkpt lat="49.707824" lon="9.995295"><ele>276.7</ele></trkpt>
    <trkpt lat="49.707319" lon="9.994830"><ele>277.3</ele></trkpt>
    <trkpt lat="49.707235" lon="9.994719"><ele>277.4</ele></trkpt>
    <trkpt lat="49.707203" lon="9.994567"><ele>277.6</ele></trkpt>
    <trkpt lat="49.707241" lon="9.994480"><ele>277.6</ele></trkpt>
    <trkpt lat="49.707323" lon="9.994372"><ele>277.8</ele></trkpt>
    <trkpt lat="49.708181" lon="9.993656"><ele>278.7</ele></trkpt>
    <trkpt lat="49.708377" lon="9.993597"><ele>278.9</ele></trkpt>
    <trkpt lat="49.708666" lon="9.993568"><ele>279.2</ele></trkpt>
    <trkpt lat="49.709316" lon="9.993401"><ele>279.8</ele></trkpt>
    <trkpt lat="49.709431" lon="9.993412"><ele>279.9</ele></trkpt>
    <trkpt lat="49.709469" lon="9.993687"><ele>279.9</ele></trkpt>
    <trkpt lat="49.709620" lon="9.994034"><ele>280.0</ele></trkpt>
    <trkpt lat="49.709636" lon="9.994070"><ele>280.0</ele></trkpt>
    <trkpt lat="49.709641" lon="9.994222"><ele>280.0</ele></trkpt>
    <trkpt lat="49.709593" lon="9.994314"><ele>280.0</ele></trkpt>
    <trkpt lat="49.709579" lon="9.994341"><ele>280.0</ele></trkpt>
    <trkpt lat="49.709528" lon="9.994347"><ele>280.0</ele></trkpt>
    <trkpt lat="49.709579" lon="9.994341"><ele>280.0</ele></trkpt>
    <trkpt lat="49.709593" lon="9.994314"><ele>280.0</ele></trkpt>
    <trkpt lat="49.709641" lon="9.994222"><ele>280.1</ele></trkpt>
    <trkpt lat="49.709636" lon="9.994070"><ele>280.1</ele></trkpt>
    <trkpt lat="49.709620" lon="9.994034"><ele>280.1</ele></trkpt>
    <trkpt lat="49.709469" lon="9.993687"><ele>280.2</ele></trkpt>
    <trkpt lat="49.709431" lon="9.993412"><ele>280.2</ele></trkpt>
    <trkpt lat="49.709610" lon="9.993427"><ele>280.2</ele></trkpt>
    <trkpt lat="49.710015" lon="9.993719"><ele>280.0</ele></trkpt>
    <trkpt lat="49.710302" lon="9.993796"><ele>279.7</ele></trkpt>
    <trkpt lat="49.710487" lon="9.993837"><ele>279.5</ele></trkpt>
    <trkpt lat="49.710589" lon="9.993816"><ele>279.4</ele></trkpt>
    <trkpt lat="49.711067" lon="9.993542"><ele>279.0</ele></trkpt>
    <trkpt lat="49.711569" lon="9.993567"><ele>278.3</ele></trkpt>
    <trkpt lat="49.711876" lon="9.993500"><ele>277.5</ele></trkpt>
    <trkpt lat="49.712124" lon="9.993332"><ele>276.7</ele></trkpt>
    <trkpt lat="49.712561" lon="9.993103"><ele>275.5</ele></trkpt>
    <trkpt lat="49.713198" lon="9.993144"><ele>273.7</ele></trkpt>
    <trkpt lat="49.713637" lon="9.993004"><ele>273.6</ele></trkpt>
    <trkpt lat="49.714439" lon="9.992344"><ele>273.5</ele></trkpt>
    <trkpt lat="49.714590" lon="9.992138"><ele>273.5</ele></trkpt>
    <trkpt lat="49.714691" lon="9.991828"><ele>273.5</ele></trkpt>
    <trkpt lat="49.714794" lon="9.991381"><ele>274.3</ele></trkpt>
    <trkpt lat="49.714805" lon="9.991331"><ele>274.4</ele></trkpt>
    <trkpt lat="49.714942" lon="9.991043"><ele>275.1</ele></trkpt>
    <trkpt lat="49.715105" lon="9.990782"><ele>275.8</ele></trkpt>
    <trkpt lat="49.715368" lon="9.990505"><ele>276.7</ele></trkpt>
    <trkpt lat="49.715632" lon="9.990232"><ele>277.7</ele></trkpt>
    <trkpt lat="49.715559" lon="9.989999"><ele>278.2</ele></trkpt>
    <trkpt lat="49.714324" lon="9.987724"><ele>282.4</ele></trkpt>
    <trkpt lat="49.713636" lon="9.986097"><ele>280.8</ele></trkpt>
    <trkpt lat="49.713319" lon="9.985357"><ele>279.9</ele></trkpt>
    <trkpt lat="49.712958" lon="9.984508"><ele>277.9</ele></trkpt>
    <trkpt lat="49.712962" lon="9.984325"><ele>277.5</ele></trkpt>
    <trkpt lat="49.712964" lon="9.984169"><ele>277.2</ele></trkpt>
    <trkpt lat="49.713038" lon="9.983628"><ele>276.0</ele></trkpt>
    <trkpt lat="49.713281" lon="9.983191"><ele>274.8</ele></trkpt>
    <trkpt lat="49.713532" lon="9.982996"><ele>273.8</ele></trkpt>
    <trkpt lat="49.713743" lon="9.982912"><ele>273.6</ele></trkpt>
    <trkpt lat="49.714014" lon="9.982885"><ele>273.2</ele></trkpt>
    <trkpt lat="49.715006" lon="9.983012"><ele>272.0</ele></trkpt>
    <trkpt lat="49.715241" lon="9.983111"><ele>271.7</ele></trkpt>
    <trkpt lat="49.715770" lon="9.983428"><ele>270.5</ele></trkpt>
    <trkpt lat="49.716385" lon="9.984097"><ele>268.8</ele></trkpt>
    <trkpt lat="49.717405" lon="9.984918"><ele>266.1</ele></trkpt>
    <trkpt lat="49.718759" lon="9.986356"><ele>263.3</ele></trkpt>
    <trkpt lat="49.719153" lon="9.986940"><ele>263.2</ele></trkpt>
    <trkpt lat="49.719605" lon="9.987958"><ele>263.2</ele></trkpt>
    <trkpt lat="49.719660" lon="9.988160"><ele>262.7</ele></trkpt>
    <trkpt lat="49.719572" lon="9.988215"><ele>262.4</ele></trkpt>
    <trkpt lat="49.719474" lon="9.988344"><ele>262.0</ele></trkpt>
    <trkpt lat="49.719393" lon="9.988492"><ele>261.6</ele></trkpt>
    <trkpt lat="49.719203" lon="9.989172"><ele>260.0</ele></trkpt>
    <trkpt lat="49.719139" lon="9.989641"><ele>259.0</ele></trkpt>
    <trkpt lat="49.719080" lon="9.989759"><ele>258.7</ele></trkpt>
    <trkpt lat="49.718758" lon="9.990060"><ele>257.5</ele></trkpt>
    <trkpt lat="49.718403" lon="9.990551"><ele>254.0</ele></trkpt>
    <trkpt lat="49.717969" lon="9.991023"><ele>249.8</ele></trkpt>
    <trkpt lat="49.717835" lon="9.991222"><ele>248.4</ele></trkpt>
    <trkpt lat="49.717656" lon="9.991602"><ele>246.0</ele></trkpt>
    <trkpt lat="49.717559" lon="9.991745"><ele>244.9</ele></trkpt>
    <trkpt lat="49.716837" lon="9.992362"><ele>241.3</ele></trkpt>
    <trkpt lat="49.715992" lon="9.992974"><ele>238.4</ele></trkpt>
    <trkpt lat="49.715281" lon="9.993609"><ele>236.6</ele></trkpt>
    <trkpt lat="49.714996" lon="9.993786"><ele>236.0</ele></trkpt>
    <trkpt lat="49.714765" lon="9.994046"><ele>235.4</ele></trkpt>
    <trkpt lat="49.714479" lon="9.994483"><ele>234.7</ele></trkpt>
    <trkpt lat="49.714205" lon="9.994765"><ele>233.9</ele></trkpt>
    <trkpt lat="49.713143" lon="9.995599"><ele>228.8</ele></trkpt>
    <trkpt lat="49.712827" lon="9.995907"><ele>227.2</ele></trkpt>
    <trkpt lat="49.712365" lon="9.996513"><ele>225.4</ele></trkpt>
    <trkpt lat="49.711996" lon="9.997051"><ele>224.2</ele></trkpt>
    <trkpt lat="49.711833" lon="9.997240"><ele>223.6</ele></trkpt>
    <trkpt lat="49.711483" lon="9.997515"><ele>222.6</ele></trkpt>
    <trkpt lat="49.710934" lon="9.998228"><ele>226.1</ele></trkpt>
    <trkpt lat="49.710896" lon="9.998313"><ele>226.7</ele></trkpt>
    <trkpt lat="49.710857" lon="9.998334"><ele>227.0</ele></trkpt>
    <trkpt lat="49.710820" lon="9.998340"><ele>227.3</ele></trkpt>
    <trkpt lat="49.710587" lon="9.998195"><ele>229.5</ele></trkpt>
    <trkpt lat="49.710462" lon="9.998218"><ele>230.5</ele></trkpt>
    <trkpt lat="49.710095" lon="9.998476"><ele>234.0</ele></trkpt>
    <trkpt lat="49.709417" lon="9.999028"><ele>239.4</ele></trkpt>
    <trkpt lat="49.709023" lon="9.999543"><ele>242.3</ele></trkpt>
    <trkpt lat="49.709007" lon="9.999583"><ele>242.4</ele></trkpt>
    <trkpt lat="49.708790" lon="9.999927"><ele>244.2</ele></trkpt>
    <trkpt lat="49.708100" lon="10.000602"><ele>246.9</ele></trkpt>
    <trkpt lat="49.707885" lon="10.000847"><ele>246.3</ele></trkpt>
    <trkpt lat="49.706810" lon="10.002326"><ele>242.9</ele></trkpt>
    <trkpt lat="49.706083" lon="10.003051"><ele>238.2</ele></trkpt>
    <trkpt lat="49.705698" lon="10.003668"><ele>235.1</ele></trkpt>
    <trkpt lat="49.705523" lon="10.003785"><ele>234.1</ele></trkpt>
    <trkpt lat="49.705068" lon="10.003807"><ele>230.6</ele></trkpt>
    <trkpt lat="49.704895" lon="10.003929"><ele>229.1</ele></trkpt>
    <trkpt lat="49.704764" lon="10.004134"><ele>227.7</ele></trkpt>
    <trkpt lat="49.704287" lon="10.005039"><ele>221.8</ele></trkpt>
    <trkpt lat="49.704238" lon="10.005209"><ele>220.9</ele></trkpt>
    <trkpt lat="49.704230" lon="10.005365"><ele>220.1</ele></trkpt>
    <trkpt lat="49.704249" lon="10.005677"><ele>218.3</ele></trkpt>
    <trkpt lat="49.704283" lon="10.005836"><ele>217.4</ele></trkpt>
    <trkpt lat="49.704766" lon="10.006958"><ele>209.8</ele></trkpt>
    <trkpt lat="49.704869" lon="10.007365"><ele>207.4</ele></trkpt>
    <trkpt lat="49.704954" lon="10.007513"><ele>206.2</ele></trkpt>
    <trkpt lat="49.705070" lon="10.007959"><ele>203.8</ele></trkpt>
    <trkpt lat="49.705260" lon="10.008460"><ele>201.7</ele></trkpt>
    <trkpt lat="49.705871" lon="10.009543"><ele>196.4</ele></trkpt>
    <trkpt lat="49.706055" lon="10.009925"><ele>194.7</ele></trkpt>
    <trkpt lat="49.706376" lon="10.010749"><ele>192.2</ele></trkpt>
    <trkpt lat="49.706418" lon="10.010864"><ele>191.9</ele></trkpt>
    <trkpt lat="49.706504" lon="10.011107"><ele>191.3</ele></trkpt>
    <trkpt lat="49.706946" lon="10.012346"><ele>188.0</ele></trkpt>
    <trkpt lat="49.707217" lon="10.012896"><ele>187.3</ele></trkpt>
    <trkpt lat="49.707267" lon="10.012957"><ele>187.2</ele></trkpt>
    <trkpt lat="49.707079" lon="10.013217"><ele>187.0</ele></trkpt>
    <trkpt lat="49.706975" lon="10.013357"><ele>186.9</ele></trkpt>
    <trkpt lat="49.707031" lon="10.013421"><ele>186.9</ele></trkpt>
    <trkpt lat="49.707189" lon="10.013598"><ele>186.7</ele></trkpt>
    <trkpt lat="49.707250" lon="10.013678"><ele>186.6</ele></trkpt>
    <trkpt lat="49.707295" lon="10.013610"><ele>186.6</ele></trkpt>
    <trkpt lat="49.707349" lon="10.013528"><ele>186.5</ele></trkpt>
    <trkpt lat="49.707460" lon="10.013377"><ele>186.4</ele></trkpt>
    <trkpt lat="49.707803" lon="10.012945"><ele>186.1</ele></trkpt>
    <trkpt lat="49.707778" lon="10.012909"><ele>186.1</ele></trkpt>
    <trkpt lat="49.707773" lon="10.012901"><ele>186.1</ele></trkpt>
    <trkpt lat="49.707819" lon="10.012849"><ele>186.1</ele></trkpt>
    <trkpt lat="49.707850" lon="10.012776"><ele>186.1</ele></trkpt>
    <trkpt lat="49.708947" lon="10.011327"><ele>186.1</ele></trkpt>
  </trkseg></trk>
</gpx>
