<?xml version="1.0" encoding="UTF-8"?>
<gpx version="1.1" creator="tools/import_reference_gpx.py" xmlns="http://www.topografix.com/GPX/1/1">
  <metadata><name>Bergtheim: Weinbergkapelle Harfenspiel</name><desc>Referenz-Route (in komoot geplant) – vor Veröffentlichung prüfen</desc></metadata>
  <trk><name>Bergtheim: Weinbergkapelle Harfenspiel</name><trkseg>
    <trkpt lat="49.898997" lon="10.076825"><ele>270.0</ele></trkpt>
    <trkpt lat="49.899775" lon="10.076814"><ele>270.0</ele></trkpt>
    <trkpt lat="49.900869" lon="10.076813"><ele>269.1</ele></trkpt>
    <trkpt lat="49.901240" lon="10.076671"><ele>268.7</ele></trkpt>
    <trkpt lat="49.901355" lon="10.076659"><ele>268.6</ele></trkpt>
    <trkpt lat="49.901503" lon="10.076683"><ele>268.4</ele></trkpt>
    <trkpt lat="49.901908" lon="10.076866"><ele>267.9</ele></trkpt>
    <trkpt lat="49.901895" lon="10.077228"><ele>267.5</ele></trkpt>
    <trkpt lat="49.901920" lon="10.078370"><ele>266.4</ele></trkpt>
    <trkpt lat="49.901945" lon="10.079512"><ele>265.3</ele></trkpt>
    <trkpt lat="49.902000" lon="10.082007"><ele>263.5</ele></trkpt>
    <trkpt lat="49.902061" lon="10.084894"><ele>261.5</ele></trkpt>
    <trkpt lat="49.900401" lon="10.085273"><ele>260.7</ele></trkpt>
    <trkpt lat="49.900558" lon="10.086199"><ele>260.8</ele></trkpt>
    <trkpt lat="49.900669" lon="10.086628"><ele>260.9</ele></trkpt>
    <trkpt lat="49.901284" lon="10.088524"><ele>261.9</ele></trkpt>
    <trkpt lat="49.901328" lon="10.088658"><ele>262.1</ele></trkpt>
    <trkpt lat="49.901073" lon="10.089940"><ele>263.7</ele></trkpt>
    <trkpt lat="49.900953" lon="10.090843"><ele>264.7</ele></trkpt>
    <trkpt lat="49.900922" lon="10.090960"><ele>264.8</ele></trkpt>
    <trkpt lat="49.898076" lon="10.090772"><ele>269.6</ele></trkpt>
    <trkpt lat="49.898181" lon="10.090837"><ele>269.8</ele></trkpt>
    <trkpt lat="49.898243" lon="10.091015"><ele>270.1</ele></trkpt>
    <trkpt lat="49.898456" lon="10.093079"><ele>276.3</ele></trkpt>
    <trkpt lat="49.898506" lon="10.093454"><ele>277.7</ele></trkpt>
    <trkpt lat="49.898741" lon="10.094728"><ele>281.2</ele></trkpt>
    <trkpt lat="49.898816" lon="10.094998"><ele>281.7</ele></trkpt>
    <trkpt lat="49.898819" lon="10.095007"><ele>281.7</ele></trkpt>
    <trkpt lat="49.898826" lon="10.095032"><ele>281.7</ele></trkpt>
    <trkpt lat="49.898878" lon="10.095218"><ele>282.0</ele></trkpt>
    <trkpt lat="49.898970" lon="10.095549"><ele>282.6</ele></trkpt>
    <trkpt lat="49.899051" lon="10.095845"><ele>283.1</ele></trkpt>
    <trkpt lat="49.898970" lon="10.095549"><ele>283.7</ele></trkpt>
    <trkpt lat="49.898878" lon="10.095218"><ele>284.2</ele></trkpt>
    <trkpt lat="49.898826" lon="10.095032"><ele>284.6</ele></trkpt>
    <trkpt lat="49.898819" lon="10.095007"><ele>284.6</ele></trkpt>
    <trkpt lat="49.898816" lon="10.094998"><ele>284.6</ele></trkpt>
    <trkpt lat="49.898741" lon="10.094728"><ele>284.7</ele></trkpt>
    <trkpt lat="49.898821" lon="10.094711"><ele>284.7</ele></trkpt>
    <trkpt lat="49.899494" lon="10.094575"><ele>284.3</ele></trkpt>
    <trkpt lat="49.899758" lon="10.094551"><ele>284.2</ele></trkpt>
    <trkpt lat="49.900384" lon="10.094615"><ele>283.9</ele></trkpt>
    <trkpt lat="49.900624" lon="10.094588"><ele>284.1</ele></trkpt>
    <trkpt lat="49.901488" lon="10.094159"><ele>284.9</ele></trkpt>
    <trkpt lat="49.901664" lon="10.094127"><ele>285.0</ele></trkpt>
    <trkpt lat="49.902089" lon="10.094130"><ele>285.4</ele></trkpt>
    <trkpt lat="49.902571" lon="10.094033"><ele>285.4</ele></trkpt>
    <trkpt lat="49.903196" lon="10.094116"><ele>285.3</ele></trkpt>
    <trkpt lat="49.903378" lon="10.094108"><ele>285.3</ele></trkpt>
    <trkpt lat="49.904604" lon="10.093661"><ele>281.5</ele></trkpt>
    <trkpt lat="49.904421" lon="10.092464"><ele>277.2</ele></trkpt>
    <trkpt lat="49.904410" lon="10.092320"><ele>276.7</ele></trkpt>
    <trkpt lat="49.904438" lon="10.092135"><ele>276.0</ele></trkpt>
    <trkpt lat="49.904568" lon="10.091831"><ele>275.0</ele></trkpt>
    <trkpt lat="49.903721" lon="10.089794"><ele>269.2</ele></trkpt>
    <trkpt lat="49.903689" lon="10.089719"><ele>269.0</ele></trkpt>
    <trkpt lat="49.903037" lon="10.088182"><ele>266.8</ele></trkpt>
    <trkpt lat="49.902906" lon="10.087768"><ele>266.3</ele></trkpt>
    <trkpt lat="49.903054" lon="10.087800"><ele>266.0</ele></trkpt>
    <trkpt lat="49.903315" lon="10.087678"><ele>265.5</ele></trkpt>
    <trkpt lat="49.903568" lon="10.087384"><ele>265.1</ele></trkpt>
    <trkpt lat="49.904434" lon="10.086130"><ele>263.3</ele></trkpt>
    <trkpt lat="49.904574" lon="10.086376"><ele>263.0</ele></trkpt>
    <trkpt lat="49.905264" lon="10.088118"><ele>262.6</ele></trkpt>
    <trkpt lat="49.905353" lon="10.088298"><ele>262.6</ele></trkpt>
    <trkpt lat="49.906384" lon="10.089466"><ele>262.8</ele></trkpt>
    <trkpt lat="49.906515" lon="10.089591"><ele>262.9</ele></trkpt>
    <trkpt lat="49.906558" lon="10.089595"><ele>262.9</ele></trkpt>
    <trkpt lat="49.906599" lon="10.089543"><ele>262.9</ele></trkpt>
    <trkpt lat="49.906768" lon="10.089131"><ele>263.1</ele></trkpt>
    <trkpt lat="49.906824" lon="10.089054"><ele>263.1</ele></trkpt>
    <trkpt lat="49.907048" lon="10.088909"><ele>263.2</ele></trkpt>
    <trkpt lat="49.907423" lon="10.088689"><ele>263.5</ele></trkpt>
    <trkpt lat="49.907831" lon="10.088401"><ele>263.9</ele></trkpt>
    <trkpt lat="49.907955" lon="10.088268"><ele>264.0</ele></trkpt>
    <trkpt lat="49.908056" lon="10.088103"><ele>264.1</ele></trkpt>
    <trkpt lat="49.908205" lon="10.087742"><ele>264.3</ele></trkpt>
    <trkpt lat="49.908242" lon="10.087701"><ele>264.4</ele></trkpt>
    <trkpt lat="49.908287" lon="10.087701"><ele>264.4</ele></trkpt>
    <trkpt lat="49.908322" lon="10.087745"><ele>264.5</ele></trkpt>
    <trkpt lat="49.908535" lon="10.088242"><ele>265.1</ele></trkpt>
    <trkpt lat="49.908578" lon="10.088274"><ele>265.2</ele></trkpt>
    <trkpt lat="49.908885" lon="10.088183"><ele>266.2</ele></trkpt>
    <trkpt lat="49.910625" lon="10.087560"><ele>271.3</ele></trkpt>
    <trkpt lat="49.912480" lon="10.086896"><ele>274.4</ele></trkpt>
    <trkpt lat="49.912226" lon="10.085389"><ele>274.4</ele></trkpt>
    <trkpt lat="49.912214" lon="10.085225"><ele>274.4</ele></trkpt>
    <trkpt lat="49.912233" lon="10.085067"><ele>274.4</ele></trkpt>
    <trkpt lat="49.912325" lon="10.084758"><ele>273.9</ele></trkpt>
    <trkpt lat="49.912329" lon="10.084662"><ele>273.8</ele></trkpt>
    <trkpt lat="49.912304" lon="10.084592"><ele>273.7</ele></trkpt>
    <trkpt lat="49.912010" lon="10.084350"><ele>273.1</ele></trkpt>
    <trkpt lat="49.911942" lon="10.084308"><ele>273.0</ele></trkpt>
    <trkpt lat="49.911431" lon="10.084000"><ele>271.9</ele></trkpt>
    <trkpt lat="49.911305" lon="10.083712"><ele>271.5</ele></trkpt>
    <trkpt lat="49.911223" lon="10.083594"><ele>271.3</ele></trkpt>
    <trkpt lat="49.910768" lon="10.083141"><ele>270.1</ele></trkpt>
    <trkpt lat="49.910368" lon="10.082894"><ele>269.0</ele></trkpt>
    <trkpt lat="49.909353" lon="10.082142"><ele>266.6</ele></trkpt>
    <trkpt lat="49.907925" lon="10.080893"><ele>266.8</ele></trkpt>
    <trkpt lat="49.907426" lon="10.080575"><ele>267.5</ele></trkpt>
    <trkpt lat="49.907343" lon="10.080523"><ele>267.6</ele></trkpt>
    <trkpt lat="49.907085" lon="10.080263"><ele>268.0</ele></trkpt>
    <trkpt lat="49.906441" lon="10.079701"><ele>269.1</ele></trkpt>
    <trkpt lat="49.906037" lon="10.079441"><ele>269.5</ele></trkpt>
    <trkpt lat="49.904752" lon="10.078492"><ele>270.8</ele></trkpt>
    <trkpt lat="49.903695" lon="10.077626"><ele>270.0</ele></trkpt>
    <trkpt lat="49.903094" lon="10.077194"><ele>269.5</ele></trkpt>
    <trkpt lat="49.902576" lon="10.076952"><ele>269.4</ele></trkpt>
    <trkpt lat="49.902314" lon="10.076874"><ele>269.3</ele></trkpt>
    <trkpt lat="49.902037" lon="10.076851"><ele>269.3</ele></trkpt>
    <trkpt lat="49.901926" lon="10.076793"><ele>269.2</ele></trkpt>
    <trkpt lat="49.901908" lon="10.076866"><ele>269.2</ele></trkpt>
    <trkpt lat="49.901503" lon="10.076683"><ele>269.1</ele></trkpt>
    <trkpt lat="49.901355" lon="10.076659"><ele>269.1</ele></trkpt>
    <trkpt lat="49.901240" lon="10.076671"><ele>269.1</ele></trkpt>
    <trkpt lat="49.900869" lon="10.076813"><ele>269.1</ele></trkpt>
    <trkpt lat="49.899775" lon="10.076814"><ele>269.1</ele></trkpt>
    <trkpt lat="49.898997" lon="10.076825"><ele>269.1</ele></trkpt>
  </trkseg></trk>
</gpx>
