<?xml version="1.0" encoding="UTF-8"?>
<gpx version="1.1" creator="tools/import_reference_gpx.py" xmlns="http://www.topografix.com/GPX/1/1">
  <metadata><name>Veitshöchheim: Seelein, Ravensburg und Weinberge</name><desc>Referenz-Route (in komoot geplant) – vor Veröffentlichung prüfen</desc></metadata>
  <trk><name>Veitshöchheim: Seelein, Ravensburg und Weinberge</name><trkseg>
    <trkpt lat="49.830342" lon="9.876272"><ele>176.8</ele></trkpt>
    <trkpt lat="49.830993" lon="9.876130"><ele>176.8</ele></trkpt>
    <trkpt lat="49.830988" lon="9.876079"><ele>176.8</ele></trkpt>
    <trkpt lat="49.830627" lon="9.876142"><ele>176.8</ele></trkpt>
    <trkpt lat="49.830653" lon="9.876136"><ele>176.8</ele></trkpt>
    <trkpt lat="49.830683" lon="9.876130"><ele>176.8</ele></trkpt>
    <trkpt lat="49.830680" lon="9.876096"><ele>176.9</ele></trkpt>
    <trkpt lat="49.830694" lon="9.876006"><ele>176.9</ele></trkpt>
    <trkpt lat="49.830940" lon="9.875952"><ele>177.0</ele></trkpt>
    <trkpt lat="49.830953" lon="9.875889"><ele>177.0</ele></trkpt>
    <trkpt lat="49.831016" lon="9.875840"><ele>177.0</ele></trkpt>
    <trkpt lat="49.831044" lon="9.875777"><ele>177.0</ele></trkpt>
    <trkpt lat="49.831239" lon="9.875701"><ele>177.1</ele></trkpt>
    <trkpt lat="49.831281" lon="9.875756"><ele>177.1</ele></trkpt>
    <trkpt lat="49.831329" lon="9.875747"><ele>177.1</ele></trkpt>
    <trkpt lat="49.831610" lon="9.875690"><ele>177.3</ele></trkpt>
    <trkpt lat="49.831795" lon="9.875707"><ele>177.3</ele></trkpt>
    <trkpt lat="49.831871" lon="9.875707"><ele>177.4</ele></trkpt>
    <trkpt lat="49.832232" lon="9.875605"><ele>177.7</ele></trkpt>
    <trkpt lat="49.832421" lon="9.875574"><ele>178.2</ele></trkpt>
    <trkpt lat="49.832789" lon="9.875512"><ele>179.0</ele></trkpt>
    <trkpt lat="49.832841" lon="9.875546"><ele>179.2</ele></trkpt>
    <trkpt lat="49.832924" lon="9.875542"><ele>179.4</ele></trkpt>
    <trkpt lat="49.832995" lon="9.875500"><ele>179.5</ele></trkpt>
    <trkpt lat="49.833056" lon="9.875464"><ele>179.7</ele></trkpt>
    <trkpt lat="49.833063" lon="9.875460"><ele>179.7</ele></trkpt>
    <trkpt lat="49.833262" lon="9.875326"><ele>180.2</ele></trkpt>
    <trkpt lat="49.833542" lon="9.875261"><ele>180.9</ele></trkpt>
    <trkpt lat="49.833679" lon="9.875287"><ele>181.2</ele></trkpt>
    <trkpt lat="49.833732" lon="9.875332"><ele>181.3</ele></trkpt>
    <trkpt lat="49.833767" lon="9.875367"><ele>181.4</ele></trkpt>
    <trkpt lat="49.833819" lon="9.875446"><ele>181.6</ele></trkpt>
    <trkpt lat="49.833872" lon="9.875614"><ele>182.3</ele></trkpt>
    <trkpt lat="49.833877" lon="9.875866"><ele>183.4</ele></trkpt>
    <trkpt lat="49.833800" lon="9.876081"><ele>184.5</ele></trkpt>
    <trkpt lat="49.833702" lon="9.876181"><ele>185.2</ele></trkpt>
    <trkpt lat="49.832919" lon="9.876602"><ele>190.7</ele></trkpt>
    <trkpt lat="49.832969" lon="9.876780"><ele>191.5</ele></trkpt>
    <trkpt lat="49.833204" lon="9.877600"><ele>195.1</ele></trkpt>
    <trkpt lat="49.832693" lon="9.878176"><ele>198.7</ele></trkpt>
    <trkpt lat="49.832406" lon="9.878441"><ele>200.6</ele></trkpt>
    <trkpt lat="49.832550" lon="9.879095"><ele>203.1</ele></trkpt>
    <trkpt lat="49.832588" lon="9.879589"><ele>205.0</ele></trkpt>
    <trkpt lat="49.832609" lon="9.879916"><ele>206.3</ele></trkpt>
    <trkpt lat="49.832808" lon="9.880754"><ele>209.9</ele></trkpt>
    <trkpt lat="49.832928" lon="9.881410"><ele>212.5</ele></trkpt>
    <trkpt lat="49.832960" lon="9.881652"><ele>213.5</ele></trkpt>
    <trkpt lat="49.832977" lon="9.881791"><ele>214.1</ele></trkpt>
    <trkpt lat="49.833074" lon="9.882380"><ele>216.8</ele></trkpt>
    <trkpt lat="49.833137" lon="9.882763"><ele>218.7</ele></trkpt>
    <trkpt lat="49.833200" lon="9.883147"><ele>220.5</ele></trkpt>
    <trkpt lat="49.833244" lon="9.883364"><ele>221.6</ele></trkpt>
    <trkpt lat="49.833301" lon="9.883634"><ele>223.0</ele></trkpt>
    <trkpt lat="49.833388" lon="9.883959"><ele>224.6</ele></trkpt>
    <trkpt lat="49.833473" lon="9.884272"><ele>226.2</ele></trkpt>
    <trkpt lat="49.833702" lon="9.884908"><ele>229.7</ele></trkpt>
    <trkpt lat="49.833944" lon="9.885480"><ele>233.0</ele></trkpt>
    <trkpt lat="49.834032" lon="9.885631"><ele>234.0</ele></trkpt>
    <trkpt lat="49.834188" lon="9.885901"><ele>235.7</ele></trkpt>
    <trkpt lat="49.834429" lon="9.886223"><ele>238.1</ele></trkpt>
    <trkpt lat="49.834556" lon="9.886351"><ele>239.3</ele></trkpt>
    <trkpt lat="49.834986" lon="9.886760"><ele>242.5</ele></trkpt>
    <trkpt lat="49.835069" lon="9.886840"><ele>243.0</ele></trkpt>
    <trkpt lat="49.835320" lon="9.887082"><ele>244.6</ele></trkpt>
    <trkpt lat="49.835407" lon="9.887159"><ele>245.1</ele></trkpt>
    <trkpt lat="49.835843" lon="9.887847"><ele>248.3</ele></trkpt>
    <trkpt lat="49.835861" lon="9.887914"><ele>248.6</ele></trkpt>
    <trkpt lat="49.835995" lon="9.887914"><ele>249.3</ele></trkpt>
    <trkpt lat="49.836047" lon="9.887946"><ele>249.6</ele></trkpt>
    <trkpt lat="49.836112" lon="9.888060"><ele>250.1</ele></trkpt>
    <trkpt lat="49.836185" lon="9.888273"><ele>250.8</ele></trkpt>
    <trkpt lat="49.836240" lon="9.889487"><ele>252.9</ele></trkpt>
    <trkpt lat="49.836264" lon="9.889680"><ele>253.2</ele></trkpt>
    <trkpt lat="49.836303" lon="9.889818"><ele>253.5</ele></trkpt>
    <trkpt lat="49.836409" lon="9.889962"><ele>253.9</ele></trkpt>
    <trkpt lat="49.836540" lon="9.890051"><ele>254.2</ele></trkpt>
    <trkpt lat="49.836891" lon="9.890152"><ele>255.2</ele></trkpt>
    <trkpt lat="49.837061" lon="9.890225"><ele>255.6</ele></trkpt>
    <trkpt lat="49.837371" lon="9.890425"><ele>255.8</ele></trkpt>
    <trkpt lat="49.837449" lon="9.890505"><ele>255.9</ele></trkpt>
    <trkpt lat="49.837598" lon="9.890687"><ele>256.1</ele></trkpt>
    <trkpt lat="49.837739" lon="9.891027"><ele>256.3</ele></trkpt>
    <trkpt lat="49.837870" lon="9.891569"><ele>256.6</ele></trkpt>
    <trkpt lat="49.837893" lon="9.891837"><ele>256.8</ele></trkpt>
    <trkpt lat="49.837904" lon="9.892390"><ele>257.1</ele></trkpt>
    <trkpt lat="49.837865" lon="9.892869"><ele>257.2</ele></trkpt>
    <trkpt lat="49.837829" lon="9.893027"><ele>257.2</ele></trkpt>
    <trkpt lat="49.837638" lon="9.893517"><ele>257.3</ele></trkpt>
    <trkpt lat="49.837486" lon="9.893751"><ele>257.3</ele></trkpt>
    <trkpt lat="49.837656" lon="9.894369"><ele>257.4</ele></trkpt>
    <trkpt lat="49.837690" lon="9.894626"><ele>257.5</ele></trkpt>
    <trkpt lat="49.837635" lon="9.895038"><ele>257.4</ele></trkpt>
    <trkpt lat="49.837638" lon="9.895596"><ele>257.1</ele></trkpt>
    <trkpt lat="49.837663" lon="9.895705"><ele>257.0</ele></trkpt>
    <trkpt lat="49.837707" lon="9.895763"><ele>257.0</ele></trkpt>
    <trkpt lat="49.837942" lon="9.895743"><ele>256.7</ele></trkpt>
    <trkpt lat="49.838044" lon="9.895656"><ele>256.6</ele></trkpt>
    <trkpt lat="49.838404" lon="9.894852"><ele>256.0</ele></trkpt>
    <trkpt lat="49.838675" lon="9.894212"><ele>255.7</ele></trkpt>
    <trkpt lat="49.838898" lon="9.893792"><ele>255.6</ele></trkpt>
    <trkpt lat="49.839641" lon="9.892644"><ele>255.2</ele></trkpt>
    <trkpt lat="49.840042" lon="9.892101"><ele>256.7</ele></trkpt>
    <trkpt lat="49.840062" lon="9.892431"><ele>257.4</ele></trkpt>
    <trkpt lat="49.840247" lon="9.892940"><ele>258.8</ele></trkpt>
    <trkpt lat="49.840418" lon="9.893622"><ele>260.4</ele></trkpt>
    <trkpt lat="49.840495" lon="9.893781"><ele>260.9</ele></trkpt>
    <trkpt lat="49.840515" lon="9.893942"><ele>261.3</ele></trkpt>
    <trkpt lat="49.840496" lon="9.894131"><ele>261.6</ele></trkpt>
    <trkpt lat="49.840402" lon="9.894287"><ele>262.0</ele></trkpt>
    <trkpt lat="49.840096" lon="9.894590"><ele>262.9</ele></trkpt>
    <trkpt lat="49.839351" lon="9.895884"><ele>265.7</ele></trkpt>
    <trkpt lat="49.839171" lon="9.896096"><ele>266.0</ele></trkpt>
    <trkpt lat="49.838994" lon="9.896196"><ele>266.1</ele></trkpt>
    <trkpt lat="49.838940" lon="9.896628"><ele>266.1</ele></trkpt>
    <trkpt lat="49.838921" lon="9.897433"><ele>266.2</ele></trkpt>
    <trkpt lat="49.838904" lon="9.898159"><ele>266.4</ele></trkpt>
    <trkpt lat="49.838635" lon="9.898142"><ele>266.4</ele></trkpt>
    <trkpt lat="49.838369" lon="9.898054"><ele>266.1</ele></trkpt>
    <trkpt lat="49.837936" lon="9.897757"><ele>265.7</ele></trkpt>
    <trkpt lat="49.837891" lon="9.897740"><ele>265.6</ele></trkpt>
    <trkpt lat="49.837688" lon="9.897662"><ele>265.4</ele></trkpt>
    <trkpt lat="49.837354" lon="9.897518"><ele>265.1</ele></trkpt>
    <trkpt lat="49.837108" lon="9.897339"><ele>264.8</ele></trkpt>
    <trkpt lat="49.836876" lon="9.897102"><ele>264.4</ele></trkpt>
    <trkpt lat="49.836688" lon="9.896871"><ele>263.9</ele></trkpt>
    <trkpt lat="49.836552" lon="9.896548"><ele>263.3</ele></trkpt>
    <trkpt lat="49.836752" lon="9.896222"><ele>262.6</ele></trkpt>
    <trkpt lat="49.837074" lon="9.896067"><ele>261.8</ele></trkpt>
    <trkpt lat="49.837353" lon="9.895944"><ele>261.2</ele></trkpt>
    <trkpt lat="49.837602" lon="9.895834"><ele>260.6</ele></trkpt>
    <trkpt lat="49.837707" lon="9.895763"><ele>260.2</ele></trkpt>
    <trkpt lat="49.837942" lon="9.895743"><ele>259.5</ele></trkpt>
    <trkpt lat="49.838044" lon="9.895656"><ele>259.1</ele></trkpt>
    <trkpt lat="49.838404" lon="9.894852"><ele>257.1</ele></trkpt>
    <trkpt lat="49.838675" lon="9.894212"><ele>255.5</ele></trkpt>
    <trkpt lat="49.838898" lon="9.893792"><ele>254.4</ele></trkpt>
    <trkpt lat="49.839641" lon="9.892644"><ele>250.8</ele></trkpt>
    <trkpt lat="49.840042" lon="9.892101"><ele>249.0</ele></trkpt>
    <trkpt lat="49.840800" lon="9.891339"><ele>241.4</ele></trkpt>
    <trkpt lat="49.841104" lon="9.891156"><ele>238.5</ele></trkpt>
    <trkpt lat="49.841290" lon="9.890979"><ele>236.5</ele></trkpt>
    <trkpt lat="49.841657" lon="9.890958"><ele>233.2</ele></trkpt>
    <trkpt lat="49.841854" lon="9.890781"><ele>232.4</ele></trkpt>
    <trkpt lat="49.842007" lon="9.890512"><ele>232.1</ele></trkpt>
    <trkpt lat="49.842139" lon="9.890617"><ele>231.9</ele></trkpt>
    <trkpt lat="49.842438" lon="9.890414"><ele>231.5</ele></trkpt>
    <trkpt lat="49.842657" lon="9.890008"><ele>231.0</ele></trkpt>
    <trkpt lat="49.842827" lon="9.889768"><ele>230.7</ele></trkpt>
    <trkpt lat="49.843156" lon="9.889305"><ele>230.8</ele></trkpt>
    <trkpt lat="49.843570" lon="9.888903"><ele>234.0</ele></trkpt>
    <trkpt lat="49.843850" lon="9.888664"><ele>236.2</ele></trkpt>
    <trkpt lat="49.844522" lon="9.888354"><ele>240.9</ele></trkpt>
    <trkpt lat="49.844752" lon="9.888304"><ele>242.4</ele></trkpt>
    <trkpt lat="49.845358" lon="9.887992"><ele>247.2</ele></trkpt>
    <trkpt lat="49.846006" lon="9.888063"><ele>252.0</ele></trkpt>
    <trkpt lat="49.846038" lon="9.888052"><ele>252.2</ele></trkpt>
    <trkpt lat="49.846454" lon="9.887912"><ele>255.4</ele></trkpt>
    <trkpt lat="49.846955" lon="9.888088"><ele>257.7</ele></trkpt>
    <trkpt lat="49.847172" lon="9.888048"><ele>258.6</ele></trkpt>
    <trkpt lat="49.848153" lon="9.887358"><ele>263.2</ele></trkpt>
    <trkpt lat="49.848729" lon="9.887118"><ele>265.0</ele></trkpt>
    <trkpt lat="49.849803" lon="9.886668"><ele>268.3</ele></trkpt>
    <trkpt lat="49.850270" lon="9.886435"><ele>270.1</ele></trkpt>
    <trkpt lat="49.850675" lon="9.886377"><ele>271.6</ele></trkpt>
    <trkpt lat="49.851213" lon="9.886054"><ele>273.9</ele></trkpt>
    <trkpt lat="49.851420" lon="9.885963"><ele>274.7</ele></trkpt>
    <trkpt lat="49.851765" lon="9.885812"><ele>276.2</ele></trkpt>
    <trkpt lat="49.852401" lon="9.885606"><ele>279.3</ele></trkpt>
    <trkpt lat="49.852557" lon="9.885494"><ele>280.1</ele></trkpt>
    <trkpt lat="49.852498" lon="9.884939"><ele>281.8</ele></trkpt>
    <trkpt lat="49.852455" lon="9.884620"><ele>282.8</ele></trkpt>
    <trkpt lat="49.852396" lon="9.884376"><ele>283.6</ele></trkpt>
    <trkpt lat="49.852095" lon="9.883616"><ele>286.9</ele></trkpt>
    <trkpt lat="49.852066" lon="9.883450"><ele>287.5</ele></trkpt>
    <trkpt lat="49.851986" lon="9.883232"><ele>288.4</ele></trkpt>
    <trkpt lat="49.852137" lon="9.883164"><ele>289.3</ele></trkpt>
    <trkpt lat="49.852564" lon="9.882292"><ele>293.4</ele></trkpt>
    <trkpt lat="49.852822" lon="9.881922"><ele>294.6</ele></trkpt>
    <trkpt lat="49.853140" lon="9.881356"><ele>295.2</ele></trkpt>
    <trkpt lat="49.853204" lon="9.881144"><ele>295.3</ele></trkpt>
    <trkpt lat="49.853218" lon="9.880978"><ele>295.5</ele></trkpt>
    <trkpt lat="49.853202" lon="9.880799"><ele>295.6</ele></trkpt>
    <trkpt lat="49.853141" lon="9.880810"><ele>295.7</ele></trkpt>
    <trkpt lat="49.853172" lon="9.880680"><ele>295.8</ele></trkpt>
    <trkpt lat="49.853112" lon="9.879908"><ele>296.3</ele></trkpt>
    <trkpt lat="49.852988" lon="9.878979"><ele>296.2</ele></trkpt>
    <trkpt lat="49.852862" lon="9.878448"><ele>296.1</ele></trkpt>
    <trkpt lat="49.852508" lon="9.876952"><ele>296.2</ele></trkpt>
    <trkpt lat="49.852571" lon="9.876895"><ele>296.6</ele></trkpt>
    <trkpt lat="49.852937" lon="9.876594"><ele>299.1</ele></trkpt>
    <trkpt lat="49.853253" lon="9.876272"><ele>301.5</ele></trkpt>
    <trkpt lat="49.853272" lon="9.875698"><ele>303.7</ele></trkpt>
    <trkpt lat="49.853241" lon="9.874882"><ele>306.8</ele></trkpt>
    <trkpt lat="49.853338" lon="9.874434"><ele>307.8</ele></trkpt>
    <trkpt lat="49.853362" lon="9.874164"><ele>308.4</ele></trkpt>
    <trkpt lat="49.853295" lon="9.873700"><ele>309.4</ele></trkpt>
    <trkpt lat="49.853290" lon="9.873343"><ele>310.1</ele></trkpt>
    <trkpt lat="49.853371" lon="9.872948"><ele>311.0</ele></trkpt>
    <trkpt lat="49.853488" lon="9.872613"><ele>311.8</ele></trkpt>
    <trkpt lat="49.853713" lon="9.872248"><ele>312.3</ele></trkpt>
    <trkpt lat="49.853884" lon="9.871878"><ele>312.0</ele></trkpt>
    <trkpt lat="49.853957" lon="9.871457"><ele>311.6</ele></trkpt>
    <trkpt lat="49.854111" lon="9.871103"><ele>311.2</ele></trkpt>
    <trkpt lat="49.854533" lon="9.870755"><ele>310.6</ele></trkpt>
    <trkpt lat="49.854742" lon="9.870403"><ele>310.1</ele></trkpt>
    <trkpt lat="49.854868" lon="9.870030"><ele>309.8</ele></trkpt>
    <trkpt lat="49.854649" lon="9.869628"><ele>309.3</ele></trkpt>
    <trkpt lat="49.854847" lon="9.869451"><ele>309.0</ele></trkpt>
    <trkpt lat="49.855155" lon="9.869194"><ele>308.5</ele></trkpt>
    <trkpt lat="49.855257" lon="9.869177"><ele>308.4</ele></trkpt>
    <trkpt lat="49.855342" lon="9.869016"><ele>308.2</ele></trkpt>
    <trkpt lat="49.855393" lon="9.868920"><ele>308.1</ele></trkpt>
    <trkpt lat="49.855413" lon="9.868812"><ele>308.0</ele></trkpt>
    <trkpt lat="49.855316" lon="9.868503"><ele>307.7</ele></trkpt>
    <trkpt lat="49.854727" lon="9.867271"><ele>304.3</ele></trkpt>
    <trkpt lat="49.854442" lon="9.866755"><ele>302.7</ele></trkpt>
    <trkpt lat="49.854369" lon="9.866542"><ele>302.1</ele></trkpt>
    <trkpt lat="49.854356" lon="9.866115"><ele>301.2</ele></trkpt>
    <trkpt lat="49.854396" lon="9.865974"><ele>301.8</ele></trkpt>
    <trkpt lat="49.854577" lon="9.865619"><ele>303.3</ele></trkpt>
    <trkpt lat="49.854709" lon="9.865368"><ele>304.4</ele></trkpt>
    <trkpt lat="49.854884" lon="9.865163"><ele>305.5</ele></trkpt>
    <trkpt lat="49.855383" lon="9.864819"><ele>308.4</ele></trkpt>
    <trkpt lat="49.855518" lon="9.864787"><ele>309.1</ele></trkpt>
    <trkpt lat="49.855579" lon="9.864773"><ele>309.4</ele></trkpt>
    <trkpt lat="49.856407" lon="9.864744"><ele>306.6</ele></trkpt>
    <trkpt lat="49.856686" lon="9.864735"><ele>304.7</ele></trkpt>
    <trkpt lat="49.856842" lon="9.864767"><ele>303.7</ele></trkpt>
    <trkpt lat="49.856873" lon="9.864322"><ele>301.7</ele></trkpt>
    <trkpt lat="49.856826" lon="9.863780"><ele>299.4</ele></trkpt>
    <trkpt lat="49.856767" lon="9.863564"><ele>298.1</ele></trkpt>
    <trkpt lat="49.856664" lon="9.863448"><ele>296.3</ele></trkpt>
    <trkpt lat="49.856312" lon="9.863172"><ele>290.7</ele></trkpt>
    <trkpt lat="49.856184" lon="9.863110"><ele>288.8</ele></trkpt>
    <trkpt lat="49.855948" lon="9.862995"><ele>285.3</ele></trkpt>
    <trkpt lat="49.855814" lon="9.862982"><ele>283.4</ele></trkpt>
    <trkpt lat="49.855749" lon="9.862918"><ele>282.3</ele></trkpt>
    <trkpt lat="49.854998" lon="9.863419"><ele>271.8</ele></trkpt>
    <trkpt lat="49.854213" lon="9.863880"><ele>265.3</ele></trkpt>
    <trkpt lat="49.853024" lon="9.865046"><ele>255.5</ele></trkpt>
    <trkpt lat="49.852856" lon="9.865170"><ele>254.4</ele></trkpt>
    <trkpt lat="49.852797" lon="9.865214"><ele>254.0</ele></trkpt>
    <trkpt lat="49.852745" lon="9.865305"><ele>253.6</ele></trkpt>
    <trkpt lat="49.852762" lon="9.865513"><ele>252.8</ele></trkpt>
    <trkpt lat="49.852871" lon="9.866003"><ele>250.8</ele></trkpt>
    <trkpt lat="49.852868" lon="9.866224"><ele>250.0</ele></trkpt>
    <trkpt lat="49.852827" lon="9.866475"><ele>249.0</ele></trkpt>
    <trkpt lat="49.852668" lon="9.866871"><ele>247.7</ele></trkpt>
    <trkpt lat="49.852573" lon="9.866942"><ele>247.3</ele></trkpt>
    <trkpt lat="49.852440" lon="9.866959"><ele>246.8</ele></trkpt>
    <trkpt lat="49.852325" lon="9.866956"><ele>246.4</ele></trkpt>
    <trkpt lat="49.852100" lon="9.867033"><ele>245.5</ele></trkpt>
    <trkpt lat="49.851749" lon="9.867246"><ele>244.0</ele></trkpt>
    <trkpt lat="49.850732" lon="9.867885"><ele>240.7</ele></trkpt>
    <trkpt lat="49.849726" lon="9.868674"><ele>238.5</ele></trkpt>
    <trkpt lat="49.849285" lon="9.868831"><ele>237.1</ele></trkpt>
    <trkpt lat="49.848838" lon="9.868837"><ele>235.3</ele></trkpt>
    <trkpt lat="49.848620" lon="9.868813"><ele>234.4</ele></trkpt>
    <trkpt lat="49.848096" lon="9.868755"><ele>232.4</ele></trkpt>
    <trkpt lat="49.847928" lon="9.868806"><ele>231.7</ele></trkpt>
    <trkpt lat="49.847868" lon="9.868825"><ele>231.4</ele></trkpt>
    <trkpt lat="49.847528" lon="9.869019"><ele>229.4</ele></trkpt>
    <trkpt lat="49.847231" lon="9.869307"><ele>227.2</ele></trkpt>
    <trkpt lat="49.846814" lon="9.869712"><ele>224.1</ele></trkpt>
    <trkpt lat="49.846654" lon="9.869816"><ele>223.0</ele></trkpt>
    <trkpt lat="49.846181" lon="9.870036"><ele>219.9</ele></trkpt>
    <trkpt lat="49.845377" lon="9.870397"><ele>216.2</ele></trkpt>
    <trkpt lat="49.844871" lon="9.870767"><ele>213.8</ele></trkpt>
    <trkpt lat="49.844833" lon="9.870794"><ele>213.6</ele></trkpt>
    <trkpt lat="49.844660" lon="9.870971"><ele>212.7</ele></trkpt>
    <trkpt lat="49.844551" lon="9.871098"><ele>212.1</ele></trkpt>
    <trkpt lat="49.844373" lon="9.871329"><ele>211.5</ele></trkpt>
    <trkpt lat="49.844178" lon="9.871690"><ele>210.8</ele></trkpt>
    <trkpt lat="49.844014" lon="9.872020"><ele>210.1</ele></trkpt>
    <trkpt lat="49.843970" lon="9.872227"><ele>209.8</ele></trkpt>
    <trkpt lat="49.844001" lon="9.872586"><ele>209.2</ele></trkpt>
    <trkpt lat="49.844066" lon="9.872796"><ele>208.9</ele></trkpt>
    <trkpt lat="49.844349" lon="9.873462"><ele>207.7</ele></trkpt>
    <trkpt lat="49.844394" lon="9.873738"><ele>207.5</ele></trkpt>
    <trkpt lat="49.844349" lon="9.874059"><ele>207.3</ele></trkpt>
    <trkpt lat="49.844295" lon="9.874188"><ele>207.3</ele></trkpt>
    <trkpt lat="49.844175" lon="9.874347"><ele>207.1</ele></trkpt>
    <trkpt lat="49.844088" lon="9.874405"><ele>207.1</ele></trkpt>
    <trkpt lat="49.843881" lon="9.874434"><ele>206.9</ele></trkpt>
    <trkpt lat="49.843706" lon="9.874409"><ele>206.8</ele></trkpt>
    <trkpt lat="49.843156" lon="9.874122"><ele>206.3</ele></trkpt>
    <trkpt lat="49.842055" lon="9.873434"><ele>199.3</ele></trkpt>
    <trkpt lat="49.841251" lon="9.872946"><ele>193.9</ele></trkpt>
    <trkpt lat="49.841165" lon="9.872913"><ele>193.5</ele></trkpt>
    <trkpt lat="49.841026" lon="9.872874"><ele>192.7</ele></trkpt>
    <trkpt lat="49.840785" lon="9.872935"><ele>191.4</ele></trkpt>
    <trkpt lat="49.840632" lon="9.873032"><ele>190.5</ele></trkpt>
    <trkpt lat="49.840558" lon="9.873096"><ele>190.1</ele></trkpt>
    <trkpt lat="49.839769" lon="9.873769"><ele>185.3</ele></trkpt>
    <trkpt lat="49.839571" lon="9.874004"><ele>184.5</ele></trkpt>
    <trkpt lat="49.839141" lon="9.874699"><ele>182.4</ele></trkpt>
    <trkpt lat="49.838898" lon="9.875082"><ele>181.3</ele></trkpt>
    <trkpt lat="49.838841" lon="9.875136"><ele>181.1</ele></trkpt>
    <trkpt lat="49.838785" lon="9.875141"><ele>180.9</ele></trkpt>
    <trkpt lat="49.838653" lon="9.874949"><ele>180.3</ele></trkpt>
    <trkpt lat="49.838491" lon="9.874726"><ele>179.6</ele></trkpt>
    <trkpt lat="49.838211" lon="9.874459"><ele>178.8</ele></trkpt>
    <trkpt lat="49.838043" lon="9.874408"><ele>178.4</ele></trkpt>
    <trkpt lat="49.837982" lon="9.874402"><ele>178.3</ele></trkpt>
    <trkpt lat="49.837954" lon="9.874560"><ele>178.0</ele></trkpt>
    <trkpt lat="49.837882" lon="9.874693"><ele>177.8</ele></trkpt>
    <trkpt lat="49.837662" lon="9.874783"><ele>177.3</ele></trkpt>
    <trkpt lat="49.837444" lon="9.874783"><ele>176.8</ele></trkpt>
    <trkpt lat="49.837283" lon="9.874743"><ele>176.4</ele></trkpt>
    <trkpt lat="49.837131" lon="9.874656"><ele>176.1</ele></trkpt>
    <trkpt lat="49.837011" lon="9.874548"><ele>175.8</ele></trkpt>
    <trkpt lat="49.836920" lon="9.874418"><ele>175.5</ele></trkpt>
    <trkpt lat="49.836861" lon="9.874271"><ele>175.3</ele></trkpt>
    <trkpt lat="49.836796" lon="9.874041"><ele>175.4</ele></trkpt>
    <trkpt lat="49.836687" lon="9.873586"><ele>175.4</ele></trkpt>
    <trkpt lat="49.835779" lon="9.874283"><ele>175.6</ele></trkpt>
    <trkpt lat="49.835373" lon="9.874503"><ele>175.7</ele></trkpt>
    <trkpt lat="49.834975" lon="9.874666"><ele>175.8</ele></trkpt>
    <trkpt lat="49.834301" lon="9.874805"><ele>175.9</ele></trkpt>
    <trkpt lat="49.833693" lon="9.874733"><ele>176.0</ele></trkpt>
    <trkpt lat="49.833522" lon="9.874697"><ele>176.1</ele></trkpt>
    <trkpt lat="49.833308" lon="9.874577"><ele>176.2</ele></trkpt>
    <trkpt lat="49.833150" lon="9.874842"><ele>176.3</ele></trkpt>
    <trkpt lat="49.832862" lon="9.875148"><ele>176.4</ele></trkpt>
    <trkpt lat="49.832822" lon="9.875198"><ele>176.5</ele></trkpt>
    <trkpt lat="49.832751" lon="9.875234"><ele>176.5</ele></trkpt>
    <trkpt lat="49.832758" lon="9.875422"><ele>176.5</ele></trkpt>
    <trkpt lat="49.832789" lon="9.875512"><ele>176.6</ele></trkpt>
    <trkpt lat="49.832421" lon="9.875574"><ele>176.7</ele></trkpt>
    <trkpt lat="49.832232" lon="9.875605"><ele>176.8</ele></trkpt>
    <trkpt lat="49.831871" lon="9.875707"><ele>176.8</ele></trkpt>
    <trkpt lat="49.831795" lon="9.875707"><ele>176.8</ele></trkpt>
    <trkpt lat="49.831610" lon="9.875690"><ele>176.8</ele></trkpt>
    <trkpt lat="49.831329" lon="9.875747"><ele>176.8</ele></trkpt>
    <trkpt lat="49.831281" lon="9.875756"><ele>176.8</ele></trkpt>
    <trkpt lat="49.831239" lon="9.875701"><ele>176.8</ele></trkpt>
    <trkpt lat="49.831044" lon="9.875777"><ele>176.8</ele></trkpt>
    <trkpt lat="49.831016" lon="9.875840"><ele>176.8</ele></trkpt>
    <trkpt lat="49.830953" lon="9.875889"><ele>176.8</ele></trkpt>
    <trkpt lat="49.830940" lon="9.875952"><ele>176.8</ele></trkpt>
    <trkpt lat="49.830694" lon="9.876006"><ele>176.8</ele></trkpt>
    <trkpt lat="49.830680" lon="9.876096"><ele>176.8</ele></trkpt>
    <trkpt lat="49.830683" lon="9.876130"><ele>176.8</ele></trkpt>
    <trkpt lat="49.830653" lon="9.876136"><ele>176.8</ele></trkpt>
    <trkpt lat="49.830627" lon="9.876142"><ele>176.8</ele></trkpt>
    <trkpt lat="49.830988" lon="9.876079"><ele>176.8</ele></trkpt>
    <trkpt lat="49.830993" lon="9.876130"><ele>176.8</ele></trkpt>
    <trkpt lat="49.830342" lon="9.876272"><ele>176.8</ele></trkpt>
  </trkseg></trk>
</gpx>
