<?xml version="1.0" encoding="UTF-8"?>
<gpx version="1.1" creator="tools/make_demo_gpx.py" xmlns="http://www.topografix.com/GPX/1/1">
  <metadata><name>DEMO Karlstadt – Gambach (Maintalhöhen)</name><desc>DEMO-DATEN – synthetisch, kein echter Wanderweg</desc></metadata>
  <trk><name>DEMO Karlstadt – Gambach (Maintalhöhen)</name><trkseg>
    <trkpt lat="49.960000" lon="9.772000"><ele>165.0</ele></trkpt>
    <trkpt lat="49.960257" lon="9.772399"><ele>165.2</ele></trkpt>
    <trkpt lat="49.960527" lon="9.772785"><ele>165.9</ele></trkpt>
    <trkpt lat="49.960806" lon="9.773163"><ele>167.0</ele></trkpt>
    <trkpt lat="49.961088" lon="9.773537"><ele>168.6</ele></trkpt>
    <trkpt lat="49.961367" lon="9.773914"><ele>170.6</ele></trkpt>
    <trkpt lat="49.961636" lon="9.774301"><ele>173.0</ele></trkpt>
    <trkpt lat="49.961890" lon="9.774704"><ele>175.8</ele></trkpt>
    <trkpt lat="49.962125" lon="9.775125"><ele>178.9</ele></trkpt>
    <trkpt lat="49.962341" lon="9.775565"><ele>182.4</ele></trkpt>
    <trkpt lat="49.962541" lon="9.776022"><ele>186.1</ele></trkpt>
    <trkpt lat="49.962728" lon="9.776490"><ele>190.1</ele></trkpt>
    <trkpt lat="49.962912" lon="9.776963"><ele>194.3</ele></trkpt>
    <trkpt lat="49.963098" lon="9.777433"><ele>198.7</ele></trkpt>
    <trkpt lat="49.963296" lon="9.777891"><ele>203.2</ele></trkpt>
    <trkpt lat="49.963512" lon="9.778332"><ele>207.8</ele></trkpt>
    <trkpt lat="49.963750" lon="9.778750"><ele>212.5</ele></trkpt>
    <trkpt lat="49.964012" lon="9.779144"><ele>217.2</ele></trkpt>
    <trkpt lat="49.964296" lon="9.779516"><ele>221.8</ele></trkpt>
    <trkpt lat="49.964598" lon="9.779871"><ele>226.3</ele></trkpt>
    <trkpt lat="49.964912" lon="9.780213"><ele>230.7</ele></trkpt>
    <trkpt lat="49.965228" lon="9.780553"><ele>234.9</ele></trkpt>
    <trkpt lat="49.965541" lon="9.780897"><ele>238.9</ele></trkpt>
    <trkpt lat="49.965841" lon="9.781253"><ele>242.6</ele></trkpt>
    <trkpt lat="49.966125" lon="9.781625"><ele>246.1</ele></trkpt>
    <trkpt lat="49.966390" lon="9.782016"><ele>249.2</ele></trkpt>
    <trkpt lat="49.966636" lon="9.782426"><ele>252.0</ele></trkpt>
    <trkpt lat="49.966867" lon="9.782851"><ele>254.4</ele></trkpt>
    <trkpt lat="49.967088" lon="9.783287"><ele>256.4</ele></trkpt>
    <trkpt lat="49.967306" lon="9.783725"><ele>258.0</ele></trkpt>
    <trkpt lat="49.967527" lon="9.784160"><ele>259.1</ele></trkpt>
    <trkpt lat="49.967757" lon="9.784587"><ele>259.8</ele></trkpt>
    <trkpt lat="49.968000" lon="9.785000"><ele>260.0</ele></trkpt>
    <trkpt lat="49.968362" lon="9.785154"><ele>260.2</ele></trkpt>
    <trkpt lat="49.968738" lon="9.785294"><ele>260.6</ele></trkpt>
    <trkpt lat="49.969124" lon="9.785425"><ele>261.4</ele></trkpt>
    <trkpt lat="49.969512" lon="9.785553"><ele>262.4</ele></trkpt>
    <trkpt lat="49.969895" lon="9.785685"><ele>263.8</ele></trkpt>
    <trkpt lat="49.970267" lon="9.785829"><ele>265.4</ele></trkpt>
    <trkpt lat="49.970622" lon="9.785991"><ele>267.2</ele></trkpt>
    <trkpt lat="49.970957" lon="9.786172"><ele>269.3</ele></trkpt>
    <trkpt lat="49.971272" lon="9.786374"><ele>271.6</ele></trkpt>
    <trkpt lat="49.971570" lon="9.786591"><ele>274.1</ele></trkpt>
    <trkpt lat="49.971858" lon="9.786819"><ele>276.8</ele></trkpt>
    <trkpt lat="49.972144" lon="9.787049"><ele>279.6</ele></trkpt>
    <trkpt lat="49.972437" lon="9.787272"><ele>282.5</ele></trkpt>
    <trkpt lat="49.972746" lon="9.787480"><ele>285.5</ele></trkpt>
    <trkpt lat="49.973076" lon="9.787666"><ele>288.5</ele></trkpt>
    <trkpt lat="49.973431" lon="9.787827"><ele>291.5</ele></trkpt>
    <trkpt lat="49.973810" lon="9.787964"><ele>294.5</ele></trkpt>
    <trkpt lat="49.974212" lon="9.788079"><ele>297.5</ele></trkpt>
    <trkpt lat="49.974628" lon="9.788178"><ele>300.4</ele></trkpt>
    <trkpt lat="49.975052" lon="9.788271"><ele>303.2</ele></trkpt>
    <trkpt lat="49.975473" lon="9.788366"><ele>305.9</ele></trkpt>
    <trkpt lat="49.975884" lon="9.788470"><ele>308.4</ele></trkpt>
    <trkpt lat="49.976279" lon="9.788592"><ele>310.7</ele></trkpt>
    <trkpt lat="49.976654" lon="9.788733"><ele>312.8</ele></trkpt>
    <trkpt lat="49.977009" lon="9.788894"><ele>314.6</ele></trkpt>
    <trkpt lat="49.977347" lon="9.789072"><ele>316.2</ele></trkpt>
    <trkpt lat="49.977673" lon="9.789262"><ele>317.6</ele></trkpt>
    <trkpt lat="49.977995" lon="9.789457"><ele>318.6</ele></trkpt>
    <trkpt lat="49.978319" lon="9.789649"><ele>319.4</ele></trkpt>
    <trkpt lat="49.978653" lon="9.789831"><ele>319.8</ele></trkpt>
    <trkpt lat="49.979000" lon="9.790000"><ele>320.0</ele></trkpt>
    <trkpt lat="49.979340" lon="9.789751"><ele>320.0</ele></trkpt>
    <trkpt lat="49.979692" lon="9.789490"><ele>320.2</ele></trkpt>
    <trkpt lat="49.980053" lon="9.789219"><ele>320.4</ele></trkpt>
    <trkpt lat="49.980418" lon="9.788946"><ele>320.7</ele></trkpt>
    <trkpt lat="49.980780" lon="9.788674"><ele>321.1</ele></trkpt>
    <trkpt lat="49.981134" lon="9.788412"><ele>321.6</ele></trkpt>
    <trkpt lat="49.981474" lon="9.788162"><ele>322.1</ele></trkpt>
    <trkpt lat="49.981797" lon="9.787930"><ele>322.8</ele></trkpt>
    <trkpt lat="49.982102" lon="9.787716"><ele>323.5</ele></trkpt>
    <trkpt lat="49.982391" lon="9.787518"><ele>324.2</ele></trkpt>
    <trkpt lat="49.982667" lon="9.787333"><ele>325.0</ele></trkpt>
    <trkpt lat="49.982936" lon="9.787155"><ele>325.8</ele></trkpt>
    <trkpt lat="49.983206" lon="9.786976"><ele>326.7</ele></trkpt>
    <trkpt lat="49.983483" lon="9.786790"><ele>327.6</ele></trkpt>
    <trkpt lat="49.983775" lon="9.786589"><ele>328.6</ele></trkpt>
    <trkpt lat="49.984086" lon="9.786368"><ele>329.5</ele></trkpt>
    <trkpt lat="49.984419" lon="9.786126"><ele>330.5</ele></trkpt>
    <trkpt lat="49.984775" lon="9.785861"><ele>331.4</ele></trkpt>
    <trkpt lat="49.985150" lon="9.785578"><ele>332.4</ele></trkpt>
    <trkpt lat="49.985539" lon="9.785279"><ele>333.3</ele></trkpt>
    <trkpt lat="49.985936" lon="9.784973"><ele>334.2</ele></trkpt>
    <trkpt lat="49.986333" lon="9.784667"><ele>335.0</ele></trkpt>
    <trkpt lat="49.986724" lon="9.784367"><ele>335.8</ele></trkpt>
    <trkpt lat="49.987102" lon="9.784080"><ele>336.5</ele></trkpt>
    <trkpt lat="49.987464" lon="9.783809"><ele>337.2</ele></trkpt>
    <trkpt lat="49.987807" lon="9.783556"><ele>337.9</ele></trkpt>
    <trkpt lat="49.988134" lon="9.783321"><ele>338.4</ele></trkpt>
    <trkpt lat="49.988447" lon="9.783099"><ele>338.9</ele></trkpt>
    <trkpt lat="49.988751" lon="9.782885"><ele>339.3</ele></trkpt>
    <trkpt lat="49.989053" lon="9.782674"><ele>339.6</ele></trkpt>
    <trkpt lat="49.989359" lon="9.782459"><ele>339.8</ele></trkpt>
    <trkpt lat="49.989673" lon="9.782236"><ele>340.0</ele></trkpt>
    <trkpt lat="49.990000" lon="9.782000"><ele>340.0</ele></trkpt>
    <trkpt lat="49.990303" lon="9.781670"><ele>340.0</ele></trkpt>
    <trkpt lat="49.990615" lon="9.781331"><ele>339.9</ele></trkpt>
    <trkpt lat="49.990935" lon="9.780983"><ele>339.8</ele></trkpt>
    <trkpt lat="49.991260" lon="9.780632"><ele>339.7</ele></trkpt>
    <trkpt lat="49.991585" lon="9.780280"><ele>339.6</ele></trkpt>
    <trkpt lat="49.991906" lon="9.779932"><ele>339.4</ele></trkpt>
    <trkpt lat="49.992218" lon="9.779593"><ele>339.1</ele></trkpt>
    <trkpt lat="49.992519" lon="9.779265"><ele>338.9</ele></trkpt>
    <trkpt lat="49.992806" lon="9.778951"><ele>338.6</ele></trkpt>
    <trkpt lat="49.993078" lon="9.778652"><ele>338.3</ele></trkpt>
    <trkpt lat="49.993337" lon="9.778365"><ele>338.0</ele></trkpt>
    <trkpt lat="49.993586" lon="9.778090"><ele>337.6</ele></trkpt>
    <trkpt lat="49.993827" lon="9.777822"><ele>337.3</ele></trkpt>
    <trkpt lat="49.994067" lon="9.777555"><ele>336.9</ele></trkpt>
    <trkpt lat="49.994309" lon="9.777285"><ele>336.5</ele></trkpt>
    <trkpt lat="49.994560" lon="9.777007"><ele>336.1</ele></trkpt>
    <trkpt lat="49.994824" lon="9.776717"><ele>335.6</ele></trkpt>
    <trkpt lat="49.995104" lon="9.776410"><ele>335.2</ele></trkpt>
    <trkpt lat="49.995401" lon="9.776086"><ele>334.8</ele></trkpt>
    <trkpt lat="49.995716" lon="9.775744"><ele>334.4</ele></trkpt>
    <trkpt lat="49.996047" lon="9.775386"><ele>333.9</ele></trkpt>
    <trkpt lat="49.996390" lon="9.775015"><ele>333.5</ele></trkpt>
    <trkpt lat="49.996742" lon="9.774636"><ele>333.1</ele></trkpt>
    <trkpt lat="49.997097" lon="9.774254"><ele>332.7</ele></trkpt>
    <trkpt lat="49.997450" lon="9.773874"><ele>332.4</ele></trkpt>
    <trkpt lat="49.997797" lon="9.773501"><ele>332.0</ele></trkpt>
    <trkpt lat="49.998132" lon="9.773138"><ele>331.7</ele></trkpt>
    <trkpt lat="49.998454" lon="9.772789"><ele>331.4</ele></trkpt>
    <trkpt lat="49.998762" lon="9.772454"><ele>331.1</ele></trkpt>
    <trkpt lat="49.999056" lon="9.772133"><ele>330.9</ele></trkpt>
    <trkpt lat="49.999338" lon="9.771824"><ele>330.6</ele></trkpt>
    <trkpt lat="49.999612" lon="9.771523"><ele>330.4</ele></trkpt>
    <trkpt lat="49.999882" lon="9.771226"><ele>330.3</ele></trkpt>
    <trkpt lat="50.000152" lon="9.770929"><ele>330.2</ele></trkpt>
    <trkpt lat="50.000426" lon="9.770628"><ele>330.1</ele></trkpt>
    <trkpt lat="50.000708" lon="9.770319"><ele>330.0</ele></trkpt>
    <trkpt lat="50.001000" lon="9.770000"><ele>330.0</ele></trkpt>
    <trkpt lat="50.001195" lon="9.769508"><ele>329.9</ele></trkpt>
    <trkpt lat="50.001399" lon="9.769006"><ele>329.8</ele></trkpt>
    <trkpt lat="50.001611" lon="9.768497"><ele>329.5</ele></trkpt>
    <trkpt lat="50.001828" lon="9.767983"><ele>329.1</ele></trkpt>
    <trkpt lat="50.002044" lon="9.767469"><ele>328.7</ele></trkpt>
    <trkpt lat="50.002257" lon="9.766959"><ele>328.1</ele></trkpt>
    <trkpt lat="50.002461" lon="9.766458"><ele>327.4</ele></trkpt>
    <trkpt lat="50.002654" lon="9.765968"><ele>326.7</ele></trkpt>
    <trkpt lat="50.002833" lon="9.765492"><ele>325.8</ele></trkpt>
    <trkpt lat="50.002997" lon="9.765030"><ele>324.9</ele></trkpt>
    <trkpt lat="50.003148" lon="9.764582"><ele>323.9</ele></trkpt>
    <trkpt lat="50.003288" lon="9.764144"><ele>322.9</ele></trkpt>
    <trkpt lat="50.003422" lon="9.763713"><ele>321.8</ele></trkpt>
    <trkpt lat="50.003553" lon="9.763285"><ele>320.6</ele></trkpt>
    <trkpt lat="50.003688" lon="9.762853"><ele>319.4</ele></trkpt>
    <trkpt lat="50.003831" lon="9.762413"><ele>318.2</ele></trkpt>
    <trkpt lat="50.003986" lon="9.761960"><ele>316.9</ele></trkpt>
    <trkpt lat="50.004158" lon="9.761491"><ele>315.6</ele></trkpt>
    <trkpt lat="50.004347" lon="9.761005"><ele>314.4</ele></trkpt>
    <trkpt lat="50.004554" lon="9.760500"><ele>313.1</ele></trkpt>
    <trkpt lat="50.004776" lon="9.759980"><ele>311.8</ele></trkpt>
    <trkpt lat="50.005012" lon="9.759447"><ele>310.6</ele></trkpt>
    <trkpt lat="50.005256" lon="9.758906"><ele>309.4</ele></trkpt>
    <trkpt lat="50.005503" lon="9.758362"><ele>308.2</ele></trkpt>
    <trkpt lat="50.005748" lon="9.757820"><ele>307.1</ele></trkpt>
    <trkpt lat="50.005986" lon="9.757284"><ele>306.1</ele></trkpt>
    <trkpt lat="50.006213" lon="9.756760"><ele>305.1</ele></trkpt>
    <trkpt lat="50.006427" lon="9.756249"><ele>304.2</ele></trkpt>
    <trkpt lat="50.006627" lon="9.755752"><ele>303.3</ele></trkpt>
    <trkpt lat="50.006813" lon="9.755269"><ele>302.6</ele></trkpt>
    <trkpt lat="50.006987" lon="9.754797"><ele>301.9</ele></trkpt>
    <trkpt lat="50.007153" lon="9.754334"><ele>301.3</ele></trkpt>
    <trkpt lat="50.007314" lon="9.753875"><ele>300.9</ele></trkpt>
    <trkpt lat="50.007476" lon="9.753416"><ele>300.5</ele></trkpt>
    <trkpt lat="50.007642" lon="9.752952"><ele>300.2</ele></trkpt>
    <trkpt lat="50.007816" lon="9.752481"><ele>300.1</ele></trkpt>
    <trkpt lat="50.008000" lon="9.752000"><ele>300.0</ele></trkpt>
    <trkpt lat="50.007808" lon="9.751525"><ele>299.9</ele></trkpt>
    <trkpt lat="50.007631" lon="9.751036"><ele>299.5</ele></trkpt>
    <trkpt lat="50.007463" lon="9.750538"><ele>298.8</ele></trkpt>
    <trkpt lat="50.007297" lon="9.750037"><ele>297.8</ele></trkpt>
    <trkpt lat="50.007125" lon="9.749542"><ele>296.7</ele></trkpt>
    <trkpt lat="50.006940" lon="9.749060"><ele>295.2</ele></trkpt>
    <trkpt lat="50.006735" lon="9.748598"><ele>293.6</ele></trkpt>
    <trkpt lat="50.006509" lon="9.748157"><ele>291.7</ele></trkpt>
    <trkpt lat="50.006262" lon="9.747737"><ele>289.7</ele></trkpt>
    <trkpt lat="50.006000" lon="9.747333"><ele>287.5</ele></trkpt>
    <trkpt lat="50.005729" lon="9.746937"><ele>285.2</ele></trkpt>
    <trkpt lat="50.005460" lon="9.746540"><ele>282.7</ele></trkpt>
    <trkpt lat="50.005202" lon="9.746131"><ele>280.2</ele></trkpt>
    <trkpt lat="50.004964" lon="9.745703"><ele>277.6</ele></trkpt>
    <trkpt lat="50.004750" lon="9.745250"><ele>275.0</ele></trkpt>
    <trkpt lat="50.004564" lon="9.744770"><ele>272.4</ele></trkpt>
    <trkpt lat="50.004402" lon="9.744265"><ele>269.8</ele></trkpt>
    <trkpt lat="50.004260" lon="9.743740"><ele>267.3</ele></trkpt>
    <trkpt lat="50.004129" lon="9.743204"><ele>264.8</ele></trkpt>
    <trkpt lat="50.004000" lon="9.742667"><ele>262.5</ele></trkpt>
    <trkpt lat="50.003863" lon="9.742138"><ele>260.3</ele></trkpt>
    <trkpt lat="50.003709" lon="9.741624"><ele>258.3</ele></trkpt>
    <trkpt lat="50.003535" lon="9.741131"><ele>256.4</ele></trkpt>
    <trkpt lat="50.003340" lon="9.740660"><ele>254.8</ele></trkpt>
    <trkpt lat="50.003125" lon="9.740208"><ele>253.3</ele></trkpt>
    <trkpt lat="50.002897" lon="9.739770"><ele>252.2</ele></trkpt>
    <trkpt lat="50.002662" lon="9.739337"><ele>251.2</ele></trkpt>
    <trkpt lat="50.002431" lon="9.738903"><ele>250.5</ele></trkpt>
    <trkpt lat="50.002208" lon="9.738459"><ele>250.1</ele></trkpt>
    <trkpt lat="50.002000" lon="9.738000"><ele>250.0</ele></trkpt>
    <trkpt lat="50.001665" lon="9.737797"><ele>250.1</ele></trkpt>
    <trkpt lat="50.001347" lon="9.737576"><ele>250.6</ele></trkpt>
    <trkpt lat="50.001040" lon="9.737345"><ele>251.3</ele></trkpt>
    <trkpt lat="50.000731" lon="9.737115"><ele>252.3</ele></trkpt>
    <trkpt lat="50.000407" lon="9.736901"><ele>253.5</ele></trkpt>
    <trkpt lat="50.000060" lon="9.736710"><ele>255.0</ele></trkpt>
    <trkpt lat="49.999683" lon="9.736548"><ele>256.7</ele></trkpt>
    <trkpt lat="49.999280" lon="9.736412"><ele>258.6</ele></trkpt>
    <trkpt lat="49.998858" lon="9.736296"><ele>260.7</ele></trkpt>
    <trkpt lat="49.998430" lon="9.736186"><ele>262.9</ele></trkpt>
    <trkpt lat="49.998011" lon="9.736066"><ele>265.2</ele></trkpt>
    <trkpt lat="49.997614" lon="9.735924"><ele>267.6</ele></trkpt>
    <trkpt lat="49.997250" lon="9.735750"><ele>270.0</ele></trkpt>
    <trkpt lat="49.996922" lon="9.735540"><ele>272.4</ele></trkpt>
    <trkpt lat="49.996626" lon="9.735297"><ele>274.8</ele></trkpt>
    <trkpt lat="49.996353" lon="9.735032"><ele>277.1</ele></trkpt>
    <trkpt lat="49.996089" lon="9.734757"><ele>279.3</ele></trkpt>
    <trkpt lat="49.995818" lon="9.734489"><ele>281.4</ele></trkpt>
    <trkpt lat="49.995529" lon="9.734240"><ele>283.3</ele></trkpt>
    <trkpt lat="49.995213" lon="9.734017"><ele>285.0</ele></trkpt>
    <trkpt lat="49.994869" lon="9.733824"><ele>286.5</ele></trkpt>
    <trkpt lat="49.994500" lon="9.733654"><ele>287.7</ele></trkpt>
    <trkpt lat="49.994117" lon="9.733498"><ele>288.7</ele></trkpt>
    <trkpt lat="49.993732" lon="9.733345"><ele>289.4</ele></trkpt>
    <trkpt lat="49.993357" lon="9.733182"><ele>289.9</ele></trkpt>
    <trkpt lat="49.993000" lon="9.733000"><ele>290.0</ele></trkpt>
    <trkpt lat="49.992716" lon="9.732653"><ele>290.1</ele></trkpt>
    <trkpt lat="49.992441" lon="9.732296"><ele>290.3</ele></trkpt>
    <trkpt lat="49.992173" lon="9.731932"><ele>290.6</ele></trkpt>
    <trkpt lat="49.991910" lon="9.731564"><ele>291.1</ele></trkpt>
    <trkpt lat="49.991648" lon="9.731194"><ele>291.7</ele></trkpt>
    <trkpt lat="49.991382" lon="9.730829"><ele>292.4</ele></trkpt>
    <trkpt lat="49.991109" lon="9.730470"><ele>293.3</ele></trkpt>
    <trkpt lat="49.990825" lon="9.730123"><ele>294.2</ele></trkpt>
    <trkpt lat="49.990528" lon="9.729787"><ele>295.3</ele></trkpt>
    <trkpt lat="49.990218" lon="9.729466"><ele>296.5</ele></trkpt>
    <trkpt lat="49.989895" lon="9.729158"><ele>297.7</ele></trkpt>
    <trkpt lat="49.989561" lon="9.728860"><ele>299.1</ele></trkpt>
    <trkpt lat="49.989219" lon="9.728571"><ele>300.5</ele></trkpt>
    <trkpt lat="49.988873" lon="9.728285"><ele>302.0</ele></trkpt>
    <trkpt lat="49.988529" lon="9.727998"><ele>303.5</ele></trkpt>
    <trkpt lat="49.988190" lon="9.727705"><ele>305.1</ele></trkpt>
    <trkpt lat="49.987862" lon="9.727401"><ele>306.7</ele></trkpt>
    <trkpt lat="49.987548" lon="9.727084"><ele>308.3</ele></trkpt>
    <trkpt lat="49.987250" lon="9.726750"><ele>310.0</ele></trkpt>
    <trkpt lat="49.986969" lon="9.726399"><ele>311.7</ele></trkpt>
    <trkpt lat="49.986704" lon="9.726033"><ele>313.3</ele></trkpt>
    <trkpt lat="49.986453" lon="9.725652"><ele>314.9</ele></trkpt>
    <trkpt lat="49.986213" lon="9.725261"><ele>316.5</ele></trkpt>
    <trkpt lat="49.985978" lon="9.724864"><ele>318.0</ele></trkpt>
    <trkpt lat="49.985745" lon="9.724466"><ele>319.5</ele></trkpt>
    <trkpt lat="49.985508" lon="9.724071"><ele>320.9</ele></trkpt>
    <trkpt lat="49.985263" lon="9.723684"><ele>322.3</ele></trkpt>
    <trkpt lat="49.985008" lon="9.723308"><ele>323.5</ele></trkpt>
    <trkpt lat="49.984739" lon="9.722945"><ele>324.7</ele></trkpt>
    <trkpt lat="49.984456" lon="9.722596"><ele>325.8</ele></trkpt>
    <trkpt lat="49.984161" lon="9.722260"><ele>326.7</ele></trkpt>
    <trkpt lat="49.983855" lon="9.721934"><ele>327.6</ele></trkpt>
    <trkpt lat="49.983542" lon="9.721616"><ele>328.3</ele></trkpt>
    <trkpt lat="49.983226" lon="9.721300"><ele>328.9</ele></trkpt>
    <trkpt lat="49.982910" lon="9.720985"><ele>329.4</ele></trkpt>
    <trkpt lat="49.982599" lon="9.720665"><ele>329.7</ele></trkpt>
    <trkpt lat="49.982295" lon="9.720337"><ele>329.9</ele></trkpt>
    <trkpt lat="49.982000" lon="9.720000"><ele>330.0</ele></trkpt>
    <trkpt lat="49.981704" lon="9.720296"><ele>329.9</ele></trkpt>
    <trkpt lat="49.981420" lon="9.720580"><ele>329.7</ele></trkpt>
    <trkpt lat="49.981144" lon="9.720856"><ele>329.4</ele></trkpt>
    <trkpt lat="49.980872" lon="9.721128"><ele>328.9</ele></trkpt>
    <trkpt lat="49.980598" lon="9.721402"><ele>328.3</ele></trkpt>
    <trkpt lat="49.980316" lon="9.721684"><ele>327.6</ele></trkpt>
    <trkpt lat="49.980019" lon="9.721981"><ele>326.8</ele></trkpt>
    <trkpt lat="49.979706" lon="9.722294"><ele>325.9</ele></trkpt>
    <trkpt lat="49.979375" lon="9.722625"><ele>324.8</ele></trkpt>
    <trkpt lat="49.979027" lon="9.722973"><ele>323.7</ele></trkpt>
    <trkpt lat="49.978667" lon="9.723333"><ele>322.5</ele></trkpt>
    <trkpt lat="49.978300" lon="9.723700"><ele>321.2</ele></trkpt>
    <trkpt lat="49.977933" lon="9.724067"><ele>319.9</ele></trkpt>
    <trkpt lat="49.977574" lon="9.724426"><ele>318.5</ele></trkpt>
    <trkpt lat="49.977229" lon="9.724771"><ele>317.1</ele></trkpt>
    <trkpt lat="49.976904" lon="9.725096"><ele>315.7</ele></trkpt>
    <trkpt lat="49.976601" lon="9.725399"><ele>314.3</ele></trkpt>
    <trkpt lat="49.976320" lon="9.725680"><ele>312.9</ele></trkpt>
    <trkpt lat="49.976059" lon="9.725941"><ele>311.5</ele></trkpt>
    <trkpt lat="49.975812" lon="9.726188"><ele>310.1</ele></trkpt>
    <trkpt lat="49.975572" lon="9.726428"><ele>308.8</ele></trkpt>
    <trkpt lat="49.975333" lon="9.726667"><ele>307.5</ele></trkpt>
    <trkpt lat="49.975088" lon="9.726912"><ele>306.3</ele></trkpt>
    <trkpt lat="49.974829" lon="9.727171"><ele>305.2</ele></trkpt>
    <trkpt lat="49.974555" lon="9.727445"><ele>304.1</ele></trkpt>
    <trkpt lat="49.974262" lon="9.727738"><ele>303.2</ele></trkpt>
    <trkpt lat="49.973952" lon="9.728048"><ele>302.4</ele></trkpt>
    <trkpt lat="49.973629" lon="9.728371"><ele>301.7</ele></trkpt>
    <trkpt lat="49.973297" lon="9.728703"><ele>301.1</ele></trkpt>
    <trkpt lat="49.972962" lon="9.729038"><ele>300.6</ele></trkpt>
    <trkpt lat="49.972632" lon="9.729368"><ele>300.3</ele></trkpt>
    <trkpt lat="49.972310" lon="9.729690"><ele>300.1</ele></trkpt>
    <trkpt lat="49.972000" lon="9.730000"><ele>300.0</ele></trkpt>
    <trkpt lat="49.971945" lon="9.730555"><ele>299.9</ele></trkpt>
    <trkpt lat="49.971902" lon="9.731098"><ele>299.6</ele></trkpt>
    <trkpt lat="49.971869" lon="9.731631"><ele>299.1</ele></trkpt>
    <trkpt lat="49.971838" lon="9.732162"><ele>298.5</ele></trkpt>
    <trkpt lat="49.971805" lon="9.732695"><ele>297.6</ele></trkpt>
    <trkpt lat="49.971761" lon="9.733239"><ele>296.6</ele></trkpt>
    <trkpt lat="49.971702" lon="9.733798"><ele>295.5</ele></trkpt>
    <trkpt lat="49.971625" lon="9.734375"><ele>294.1</ele></trkpt>
    <trkpt lat="49.971529" lon="9.734971"><ele>292.7</ele></trkpt>
    <trkpt lat="49.971416" lon="9.735584"><ele>291.1</ele></trkpt>
    <trkpt lat="49.971291" lon="9.736209"><ele>289.4</ele></trkpt>
    <trkpt lat="49.971162" lon="9.736838"><ele>287.7</ele></trkpt>
    <trkpt lat="49.971036" lon="9.737464"><ele>285.8</ele></trkpt>
    <trkpt lat="49.970921" lon="9.738079"><ele>283.9</ele></trkpt>
    <trkpt lat="49.970824" lon="9.738676"><ele>282.0</ele></trkpt>
    <trkpt lat="49.970750" lon="9.739250"><ele>280.0</ele></trkpt>
    <trkpt lat="49.970699" lon="9.739801"><ele>278.0</ele></trkpt>
    <trkpt lat="49.970671" lon="9.740329"><ele>276.1</ele></trkpt>
    <trkpt lat="49.970661" lon="9.740839"><ele>274.2</ele></trkpt>
    <trkpt lat="49.970662" lon="9.741338"><ele>272.3</ele></trkpt>
    <trkpt lat="49.970666" lon="9.741834"><ele>270.6</ele></trkpt>
    <trkpt lat="49.970666" lon="9.742334"><ele>268.9</ele></trkpt>
    <trkpt lat="49.970654" lon="9.742846"><ele>267.3</ele></trkpt>
    <trkpt lat="49.970625" lon="9.743375"><ele>265.9</ele></trkpt>
    <trkpt lat="49.970577" lon="9.743923"><ele>264.5</ele></trkpt>
    <trkpt lat="49.970511" lon="9.744489"><ele>263.4</ele></trkpt>
    <trkpt lat="49.970430" lon="9.745070"><ele>262.4</ele></trkpt>
    <trkpt lat="49.970338" lon="9.745662"><ele>261.5</ele></trkpt>
    <trkpt lat="49.970244" lon="9.746256"><ele>260.9</ele></trkpt>
    <trkpt lat="49.970152" lon="9.746848"><ele>260.4</ele></trkpt>
    <trkpt lat="49.970070" lon="9.747430"><ele>260.1</ele></trkpt>
    <trkpt lat="49.970000" lon="9.748000"><ele>260.0</ele></trkpt>
    <trkpt lat="49.970331" lon="9.748276"><ele>259.9</ele></trkpt>
    <trkpt lat="49.970678" lon="9.748537"><ele>259.6</ele></trkpt>
    <trkpt lat="49.971034" lon="9.748787"><ele>259.2</ele></trkpt>
    <trkpt lat="49.971391" lon="9.749037"><ele>258.5</ele></trkpt>
    <trkpt lat="49.971739" lon="9.749296"><ele>257.7</ele></trkpt>
    <trkpt lat="49.972069" lon="9.749574"><ele>256.7</ele></trkpt>
    <trkpt lat="49.972375" lon="9.749875"><ele>255.6</ele></trkpt>
    <trkpt lat="49.972656" lon="9.750201"><ele>254.4</ele></trkpt>
    <trkpt lat="49.972917" lon="9.750548"><ele>253.0</ele></trkpt>
    <trkpt lat="49.973164" lon="9.750907"><ele>251.5</ele></trkpt>
    <trkpt lat="49.973410" lon="9.751268"><ele>250.0</ele></trkpt>
    <trkpt lat="49.973667" lon="9.751619"><ele>248.3</ele></trkpt>
    <trkpt lat="49.973944" lon="9.751949"><ele>246.7</ele></trkpt>
    <trkpt lat="49.974250" lon="9.752250"><ele>245.0</ele></trkpt>
    <trkpt lat="49.974587" lon="9.752520"><ele>243.3</ele></trkpt>
    <trkpt lat="49.974952" lon="9.752762"><ele>241.7</ele></trkpt>
    <trkpt lat="49.975339" lon="9.752983"><ele>240.0</ele></trkpt>
    <trkpt lat="49.975736" lon="9.753193"><ele>238.5</ele></trkpt>
    <trkpt lat="49.976131" lon="9.753405"><ele>237.0</ele></trkpt>
    <trkpt lat="49.976513" lon="9.753629"><ele>235.6</ele></trkpt>
    <trkpt lat="49.976875" lon="9.753875"><ele>234.4</ele></trkpt>
    <trkpt lat="49.977212" lon="9.754145"><ele>233.3</ele></trkpt>
    <trkpt lat="49.977525" lon="9.754439"><ele>232.3</ele></trkpt>
    <trkpt lat="49.977820" lon="9.754751"><ele>231.5</ele></trkpt>
    <trkpt lat="49.978106" lon="9.755073"><ele>230.8</ele></trkpt>
    <trkpt lat="49.978392" lon="9.755394"><ele>230.4</ele></trkpt>
    <trkpt lat="49.978688" lon="9.755705"><ele>230.1</ele></trkpt>
    <trkpt lat="49.979000" lon="9.756000"><ele>230.0</ele></trkpt>
    <trkpt lat="49.979252" lon="9.755548"><ele>230.0</ele></trkpt>
    <trkpt lat="49.979523" lon="9.755077"><ele>230.0</ele></trkpt>
    <trkpt lat="49.979803" lon="9.754597"><ele>230.0</ele></trkpt>
    <trkpt lat="49.980080" lon="9.754120"><ele>230.0</ele></trkpt>
    <trkpt lat="49.980340" lon="9.753660"><ele>230.0</ele></trkpt>
    <trkpt lat="49.980572" lon="9.753228"><ele>230.0</ele></trkpt>
    <trkpt lat="49.980773" lon="9.752827"><ele>230.0</ele></trkpt>
    <trkpt lat="49.980946" lon="9.752454"><ele>230.0</ele></trkpt>
    <trkpt lat="49.981104" lon="9.752096"><ele>230.0</ele></trkpt>
    <trkpt lat="49.981260" lon="9.751740"><ele>230.0</ele></trkpt>
    <trkpt lat="49.981433" lon="9.751367"><ele>230.0</ele></trkpt>
    <trkpt lat="49.981635" lon="9.750965"><ele>230.0</ele></trkpt>
    <trkpt lat="49.981875" lon="9.750525"><ele>230.0</ele></trkpt>
    <trkpt lat="49.982153" lon="9.750047"><ele>230.0</ele></trkpt>
    <trkpt lat="49.982460" lon="9.749540"><ele>230.0</ele></trkpt>
    <trkpt lat="49.982784" lon="9.749016"><ele>230.0</ele></trkpt>
    <trkpt lat="49.983106" lon="9.748494"><ele>230.0</ele></trkpt>
    <trkpt lat="49.983413" lon="9.747987"><ele>230.0</ele></trkpt>
    <trkpt lat="49.983692" lon="9.747508"><ele>230.0</ele></trkpt>
    <trkpt lat="49.983940" lon="9.747060"><ele>230.0</ele></trkpt>
    <trkpt lat="49.984160" lon="9.746640"><ele>230.0</ele></trkpt>
    <trkpt lat="49.984363" lon="9.746237"><ele>230.0</ele></trkpt>
    <trkpt lat="49.984563" lon="9.745837"><ele>230.0</ele></trkpt>
    <trkpt lat="49.984772" lon="9.745428"><ele>230.0</ele></trkpt>
    <trkpt lat="49.985000" lon="9.745000"><ele>230.0</ele></trkpt>
    <trkpt lat="49.985197" lon="9.745485"><ele>229.7</ele></trkpt>
    <trkpt lat="49.985417" lon="9.745947"><ele>228.8</ele></trkpt>
    <trkpt lat="49.985645" lon="9.746400"><ele>227.3</ele></trkpt>
    <trkpt lat="49.985861" lon="9.746866"><ele>225.2</ele></trkpt>
    <trkpt lat="49.986047" lon="9.747362"><ele>222.7</ele></trkpt>
    <trkpt lat="49.986193" lon="9.747898"><ele>219.6</ele></trkpt>
    <trkpt lat="49.986303" lon="9.748470"><ele>216.2</ele></trkpt>
    <trkpt lat="49.986390" lon="9.749064"><ele>212.5</ele></trkpt>
    <trkpt lat="49.986479" lon="9.749657"><ele>208.5</ele></trkpt>
    <trkpt lat="49.986593" lon="9.750225"><ele>204.3</ele></trkpt>
    <trkpt lat="49.986750" lon="9.750750"><ele>200.0</ele></trkpt>
    <trkpt lat="49.986957" lon="9.751225"><ele>195.7</ele></trkpt>
    <trkpt lat="49.987207" lon="9.751657"><ele>191.5</ele></trkpt>
    <trkpt lat="49.987481" lon="9.752064"><ele>187.5</ele></trkpt>
    <trkpt lat="49.987757" lon="9.752470"><ele>183.8</ele></trkpt>
    <trkpt lat="49.988011" lon="9.752898"><ele>180.4</ele></trkpt>
    <trkpt lat="49.988229" lon="9.753362"><ele>177.3</ele></trkpt>
    <trkpt lat="49.988407" lon="9.753866"><ele>174.8</ele></trkpt>
    <trkpt lat="49.988554" lon="9.754400"><ele>172.7</ele></trkpt>
    <trkpt lat="49.988690" lon="9.754947"><ele>171.2</ele></trkpt>
    <trkpt lat="49.988833" lon="9.755485"><ele>170.3</ele></trkpt>
    <trkpt lat="49.989000" lon="9.756000"><ele>170.0</ele></trkpt>
  </trkseg></trk>
</gpx>
