<?xml version="1.0" encoding="UTF-8"?>
<gpx version="1.1" creator="tools/make_demo_gpx.py" xmlns="http://www.topografix.com/GPX/1/1">
  <metadata><name>DEMO Veitshöchheim – Thüngersheim</name><desc>DEMO-DATEN – synthetisch, kein echter Wanderweg</desc></metadata>
  <trk><name>DEMO Veitshöchheim – Thüngersheim</name><trkseg>
    <trkpt lat="49.830000" lon="9.882000"><ele>180.0</ele></trkpt>
    <trkpt lat="49.830292" lon="9.881651"><ele>180.1</ele></trkpt>
    <trkpt lat="49.830594" lon="9.881291"><ele>180.5</ele></trkpt>
    <trkpt lat="49.830905" lon="9.880923"><ele>181.1</ele></trkpt>
    <trkpt lat="49.831220" lon="9.880551"><ele>181.9</ele></trkpt>
    <trkpt lat="49.831534" lon="9.880180"><ele>183.0</ele></trkpt>
    <trkpt lat="49.831842" lon="9.879815"><ele>184.2</ele></trkpt>
    <trkpt lat="49.832140" lon="9.879460"><ele>185.7</ele></trkpt>
    <trkpt lat="49.832423" lon="9.879120"><ele>187.4</ele></trkpt>
    <trkpt lat="49.832690" lon="9.878795"><ele>189.3</ele></trkpt>
    <trkpt lat="49.832942" lon="9.878487"><ele>191.3</ele></trkpt>
    <trkpt lat="49.833180" lon="9.878191"><ele>193.5</ele></trkpt>
    <trkpt lat="49.833409" lon="9.877905"><ele>195.8</ele></trkpt>
    <trkpt lat="49.833634" lon="9.877624"><ele>198.2</ele></trkpt>
    <trkpt lat="49.833860" lon="9.877340"><ele>200.7</ele></trkpt>
    <trkpt lat="49.834095" lon="9.877048"><ele>203.3</ele></trkpt>
    <trkpt lat="49.834344" lon="9.876742"><ele>206.0</ele></trkpt>
    <trkpt lat="49.834610" lon="9.876419"><ele>208.7</ele></trkpt>
    <trkpt lat="49.834895" lon="9.876076"><ele>211.3</ele></trkpt>
    <trkpt lat="49.835201" lon="9.875714"><ele>214.0</ele></trkpt>
    <trkpt lat="49.835524" lon="9.875333"><ele>216.7</ele></trkpt>
    <trkpt lat="49.835860" lon="9.874940"><ele>219.3</ele></trkpt>
    <trkpt lat="49.836205" lon="9.874538"><ele>221.8</ele></trkpt>
    <trkpt lat="49.836552" lon="9.874134"><ele>224.2</ele></trkpt>
    <trkpt lat="49.836894" lon="9.873734"><ele>226.5</ele></trkpt>
    <trkpt lat="49.837228" lon="9.873344"><ele>228.7</ele></trkpt>
    <trkpt lat="49.837547" lon="9.872967"><ele>230.7</ele></trkpt>
    <trkpt lat="49.837852" lon="9.872606"><ele>232.6</ele></trkpt>
    <trkpt lat="49.838140" lon="9.872260"><ele>234.3</ele></trkpt>
    <trkpt lat="49.838414" lon="9.871929"><ele>235.8</ele></trkpt>
    <trkpt lat="49.838677" lon="9.871609"><ele>237.0</ele></trkpt>
    <trkpt lat="49.838934" lon="9.871294"><ele>238.1</ele></trkpt>
    <trkpt lat="49.839191" lon="9.870980"><ele>238.9</ele></trkpt>
    <trkpt lat="49.839451" lon="9.870663"><ele>239.5</ele></trkpt>
    <trkpt lat="49.839720" lon="9.870337"><ele>239.9</ele></trkpt>
    <trkpt lat="49.840000" lon="9.870000"><ele>240.0</ele></trkpt>
    <trkpt lat="49.840339" lon="9.869772"><ele>240.1</ele></trkpt>
    <trkpt lat="49.840688" lon="9.869534"><ele>240.5</ele></trkpt>
    <trkpt lat="49.841046" lon="9.869288"><ele>241.0</ele></trkpt>
    <trkpt lat="49.841407" lon="9.869037"><ele>241.8</ele></trkpt>
    <trkpt lat="49.841769" lon="9.868787"><ele>242.8</ele></trkpt>
    <trkpt lat="49.842125" lon="9.868542"><ele>244.0</ele></trkpt>
    <trkpt lat="49.842472" lon="9.868306"><ele>245.4</ele></trkpt>
    <trkpt lat="49.842806" lon="9.868083"><ele>247.0</ele></trkpt>
    <trkpt lat="49.843125" lon="9.867875"><ele>248.8</ele></trkpt>
    <trkpt lat="49.843429" lon="9.867682"><ele>250.7</ele></trkpt>
    <trkpt lat="49.843720" lon="9.867503"><ele>252.8</ele></trkpt>
    <trkpt lat="49.844000" lon="9.867333"><ele>255.0</ele></trkpt>
    <trkpt lat="49.844275" lon="9.867170"><ele>257.3</ele></trkpt>
    <trkpt lat="49.844549" lon="9.867006"><ele>259.7</ele></trkpt>
    <trkpt lat="49.844829" lon="9.866837"><ele>262.2</ele></trkpt>
    <trkpt lat="49.845120" lon="9.866658"><ele>264.8</ele></trkpt>
    <trkpt lat="49.845426" lon="9.866463"><ele>267.4</ele></trkpt>
    <trkpt lat="49.845750" lon="9.866250"><ele>270.0</ele></trkpt>
    <trkpt lat="49.846093" lon="9.866018"><ele>272.6</ele></trkpt>
    <trkpt lat="49.846453" lon="9.865769"><ele>275.2</ele></trkpt>
    <trkpt lat="49.846829" lon="9.865504"><ele>277.8</ele></trkpt>
    <trkpt lat="49.847216" lon="9.865229"><ele>280.3</ele></trkpt>
    <trkpt lat="49.847608" lon="9.864948"><ele>282.7</ele></trkpt>
    <trkpt lat="49.848000" lon="9.864667"><ele>285.0</ele></trkpt>
    <trkpt lat="49.848386" lon="9.864391"><ele>287.2</ele></trkpt>
    <trkpt lat="49.848762" lon="9.864126"><ele>289.3</ele></trkpt>
    <trkpt lat="49.849125" lon="9.863875"><ele>291.2</ele></trkpt>
    <trkpt lat="49.849473" lon="9.863639"><ele>293.0</ele></trkpt>
    <trkpt lat="49.849805" lon="9.863417"><ele>294.6</ele></trkpt>
    <trkpt lat="49.850125" lon="9.863208"><ele>296.0</ele></trkpt>
    <trkpt lat="49.850435" lon="9.863009"><ele>297.2</ele></trkpt>
    <trkpt lat="49.850741" lon="9.862815"><ele>298.2</ele></trkpt>
    <trkpt lat="49.851046" lon="9.862621"><ele>299.0</ele></trkpt>
    <trkpt lat="49.851355" lon="9.862423"><ele>299.5</ele></trkpt>
    <trkpt lat="49.851672" lon="9.862217"><ele>299.9</ele></trkpt>
    <trkpt lat="49.852000" lon="9.862000"><ele>300.0</ele></trkpt>
    <trkpt lat="49.852349" lon="9.861823"><ele>300.0</ele></trkpt>
    <trkpt lat="49.852709" lon="9.861634"><ele>299.9</ele></trkpt>
    <trkpt lat="49.853077" lon="9.861438"><ele>299.8</ele></trkpt>
    <trkpt lat="49.853449" lon="9.861237"><ele>299.7</ele></trkpt>
    <trkpt lat="49.853820" lon="9.861037"><ele>299.5</ele></trkpt>
    <trkpt lat="49.854185" lon="9.860843"><ele>299.3</ele></trkpt>
    <trkpt lat="49.854540" lon="9.860660"><ele>299.0</ele></trkpt>
    <trkpt lat="49.854880" lon="9.860491"><ele>298.8</ele></trkpt>
    <trkpt lat="49.855205" lon="9.860338"><ele>298.5</ele></trkpt>
    <trkpt lat="49.855513" lon="9.860201"><ele>298.1</ele></trkpt>
    <trkpt lat="49.855809" lon="9.860077"><ele>297.8</ele></trkpt>
    <trkpt lat="49.856095" lon="9.859963"><ele>297.4</ele></trkpt>
    <trkpt lat="49.856376" lon="9.859852"><ele>297.0</ele></trkpt>
    <trkpt lat="49.856660" lon="9.859740"><ele>296.5</ele></trkpt>
    <trkpt lat="49.856952" lon="9.859619"><ele>296.1</ele></trkpt>
    <trkpt lat="49.857258" lon="9.859485"><ele>295.7</ele></trkpt>
    <trkpt lat="49.857581" lon="9.859333"><ele>295.2</ele></trkpt>
    <trkpt lat="49.857924" lon="9.859162"><ele>294.8</ele></trkpt>
    <trkpt lat="49.858286" lon="9.858971"><ele>294.3</ele></trkpt>
    <trkpt lat="49.858667" lon="9.858762"><ele>293.9</ele></trkpt>
    <trkpt lat="49.859060" lon="9.858540"><ele>293.5</ele></trkpt>
    <trkpt lat="49.859462" lon="9.858309"><ele>293.0</ele></trkpt>
    <trkpt lat="49.859866" lon="9.858077"><ele>292.6</ele></trkpt>
    <trkpt lat="49.860266" lon="9.857848"><ele>292.2</ele></trkpt>
    <trkpt lat="49.860656" lon="9.857629"><ele>291.9</ele></trkpt>
    <trkpt lat="49.861033" lon="9.857424"><ele>291.5</ele></trkpt>
    <trkpt lat="49.861394" lon="9.857234"><ele>291.2</ele></trkpt>
    <trkpt lat="49.861740" lon="9.857060"><ele>291.0</ele></trkpt>
    <trkpt lat="49.862071" lon="9.856900"><ele>290.7</ele></trkpt>
    <trkpt lat="49.862391" lon="9.856751"><ele>290.5</ele></trkpt>
    <trkpt lat="49.862706" lon="9.856608"><ele>290.3</ele></trkpt>
    <trkpt lat="49.863020" lon="9.856466"><ele>290.2</ele></trkpt>
    <trkpt lat="49.863337" lon="9.856320"><ele>290.1</ele></trkpt>
    <trkpt lat="49.863663" lon="9.856165"><ele>290.0</ele></trkpt>
    <trkpt lat="49.864000" lon="9.856000"><ele>290.0</ele></trkpt>
    <trkpt lat="49.864340" lon="9.855751"><ele>289.9</ele></trkpt>
    <trkpt lat="49.864692" lon="9.855490"><ele>289.5</ele></trkpt>
    <trkpt lat="49.865053" lon="9.855219"><ele>288.8</ele></trkpt>
    <trkpt lat="49.865418" lon="9.854946"><ele>287.9</ele></trkpt>
    <trkpt lat="49.865780" lon="9.854674"><ele>286.7</ele></trkpt>
    <trkpt lat="49.866134" lon="9.854412"><ele>285.2</ele></trkpt>
    <trkpt lat="49.866474" lon="9.854162"><ele>283.6</ele></trkpt>
    <trkpt lat="49.866797" lon="9.853930"><ele>281.7</ele></trkpt>
    <trkpt lat="49.867102" lon="9.853716"><ele>279.6</ele></trkpt>
    <trkpt lat="49.867391" lon="9.853518"><ele>277.4</ele></trkpt>
    <trkpt lat="49.867667" lon="9.853333"><ele>275.0</ele></trkpt>
    <trkpt lat="49.867936" lon="9.853155"><ele>272.5</ele></trkpt>
    <trkpt lat="49.868206" lon="9.852976"><ele>269.8</ele></trkpt>
    <trkpt lat="49.868483" lon="9.852790"><ele>267.1</ele></trkpt>
    <trkpt lat="49.868775" lon="9.852589"><ele>264.3</ele></trkpt>
    <trkpt lat="49.869086" lon="9.852368"><ele>261.4</ele></trkpt>
    <trkpt lat="49.869419" lon="9.852126"><ele>258.6</ele></trkpt>
    <trkpt lat="49.869775" lon="9.851861"><ele>255.7</ele></trkpt>
    <trkpt lat="49.870150" lon="9.851578"><ele>252.9</ele></trkpt>
    <trkpt lat="49.870539" lon="9.851279"><ele>250.2</ele></trkpt>
    <trkpt lat="49.870936" lon="9.850973"><ele>247.5</ele></trkpt>
    <trkpt lat="49.871333" lon="9.850667"><ele>245.0</ele></trkpt>
    <trkpt lat="49.871724" lon="9.850367"><ele>242.6</ele></trkpt>
    <trkpt lat="49.872102" lon="9.850080"><ele>240.4</ele></trkpt>
    <trkpt lat="49.872464" lon="9.849809"><ele>238.3</ele></trkpt>
    <trkpt lat="49.872807" lon="9.849556"><ele>236.4</ele></trkpt>
    <trkpt lat="49.873134" lon="9.849321"><ele>234.8</ele></trkpt>
    <trkpt lat="49.873447" lon="9.849099"><ele>233.3</ele></trkpt>
    <trkpt lat="49.873751" lon="9.848885"><ele>232.1</ele></trkpt>
    <trkpt lat="49.874053" lon="9.848674"><ele>231.2</ele></trkpt>
    <trkpt lat="49.874359" lon="9.848459"><ele>230.5</ele></trkpt>
    <trkpt lat="49.874673" lon="9.848236"><ele>230.1</ele></trkpt>
    <trkpt lat="49.875000" lon="9.848000"><ele>230.0</ele></trkpt>
    <trkpt lat="49.875346" lon="9.847738"><ele>229.8</ele></trkpt>
    <trkpt lat="49.875712" lon="9.847454"><ele>229.2</ele></trkpt>
    <trkpt lat="49.876088" lon="9.847162"><ele>228.3</ele></trkpt>
    <trkpt lat="49.876458" lon="9.846875"><ele>227.0</ele></trkpt>
    <trkpt lat="49.876807" lon="9.846609"><ele>225.4</ele></trkpt>
    <trkpt lat="49.877125" lon="9.846375"><ele>223.4</ele></trkpt>
    <trkpt lat="49.877409" lon="9.846174"><ele>221.2</ele></trkpt>
    <trkpt lat="49.877667" lon="9.846000"><ele>218.8</ele></trkpt>
    <trkpt lat="49.877912" lon="9.845838"><ele>216.1</ele></trkpt>
    <trkpt lat="49.878163" lon="9.845671"><ele>213.3</ele></trkpt>
    <trkpt lat="49.878438" lon="9.845479"><ele>210.4</ele></trkpt>
    <trkpt lat="49.878750" lon="9.845250"><ele>207.5</ele></trkpt>
    <trkpt lat="49.879104" lon="9.844979"><ele>204.6</ele></trkpt>
    <trkpt lat="49.879496" lon="9.844671"><ele>201.7</ele></trkpt>
    <trkpt lat="49.879912" lon="9.844338"><ele>198.9</ele></trkpt>
    <trkpt lat="49.880333" lon="9.844000"><ele>196.2</ele></trkpt>
    <trkpt lat="49.880743" lon="9.843674"><ele>193.8</ele></trkpt>
    <trkpt lat="49.881125" lon="9.843375"><ele>191.6</ele></trkpt>
    <trkpt lat="49.881474" lon="9.843109"><ele>189.6</ele></trkpt>
    <trkpt lat="49.881792" lon="9.842875"><ele>188.0</ele></trkpt>
    <trkpt lat="49.882088" lon="9.842662"><ele>186.7</ele></trkpt>
    <trkpt lat="49.882379" lon="9.842454"><ele>185.8</ele></trkpt>
    <trkpt lat="49.882679" lon="9.842238"><ele>185.2</ele></trkpt>
    <trkpt lat="49.883000" lon="9.842000"><ele>185.0</ele></trkpt>
  </trkseg></trk>
</gpx>
