<?xml version="1.0" encoding="UTF-8"?>
<gpx version="1.1" creator="tools/make_demo_gpx.py" xmlns="http://www.topografix.com/GPX/1/1">
  <metadata><name>DEMO Große Weinbergrunde</name><desc>DEMO-DATEN – synthetisch, kein echter Wanderweg</desc></metadata>
  <trk><name>DEMO Große Weinbergrunde</name><trkseg>
    <trkpt lat="49.830000" lon="9.882000"><ele>180.0</ele></trkpt>
    <trkpt lat="49.830330" lon="9.881736"><ele>180.1</ele></trkpt>
    <trkpt lat="49.830666" lon="9.881465"><ele>180.2</ele></trkpt>
    <trkpt lat="49.831008" lon="9.881188"><ele>180.5</ele></trkpt>
    <trkpt lat="49.831354" lon="9.880907"><ele>180.9</ele></trkpt>
    <trkpt lat="49.831702" lon="9.880624"><ele>181.4</ele></trkpt>
    <trkpt lat="49.832050" lon="9.880341"><ele>182.1</ele></trkpt>
    <trkpt lat="49.832397" lon="9.880060"><ele>182.8</ele></trkpt>
    <trkpt lat="49.832738" lon="9.879783"><ele>183.6</ele></trkpt>
    <trkpt lat="49.833074" lon="9.879513"><ele>184.6</ele></trkpt>
    <trkpt lat="49.833401" lon="9.879251"><ele>185.6</ele></trkpt>
    <trkpt lat="49.833719" lon="9.878998"><ele>186.7</ele></trkpt>
    <trkpt lat="49.834028" lon="9.878754"><ele>187.9</ele></trkpt>
    <trkpt lat="49.834328" lon="9.878519"><ele>189.2</ele></trkpt>
    <trkpt lat="49.834620" lon="9.878293"><ele>190.6</ele></trkpt>
    <trkpt lat="49.834906" lon="9.878072"><ele>192.0</ele></trkpt>
    <trkpt lat="49.835187" lon="9.877856"><ele>193.5</ele></trkpt>
    <trkpt lat="49.835467" lon="9.877642"><ele>195.0</ele></trkpt>
    <trkpt lat="49.835747" lon="9.877427"><ele>196.6</ele></trkpt>
    <trkpt lat="49.836031" lon="9.877208"><ele>198.3</ele></trkpt>
    <trkpt lat="49.836322" lon="9.876983"><ele>199.9</ele></trkpt>
    <trkpt lat="49.836621" lon="9.876749"><ele>201.6</ele></trkpt>
    <trkpt lat="49.836930" lon="9.876505"><ele>203.3</ele></trkpt>
    <trkpt lat="49.837250" lon="9.876250"><ele>205.0</ele></trkpt>
    <trkpt lat="49.837582" lon="9.875983"><ele>206.7</ele></trkpt>
    <trkpt lat="49.837925" lon="9.875705"><ele>208.4</ele></trkpt>
    <trkpt lat="49.838278" lon="9.875417"><ele>210.1</ele></trkpt>
    <trkpt lat="49.838640" lon="9.875121"><ele>211.7</ele></trkpt>
    <trkpt lat="49.839008" lon="9.874818"><ele>213.4</ele></trkpt>
    <trkpt lat="49.839380" lon="9.874512"><ele>215.0</ele></trkpt>
    <trkpt lat="49.839752" lon="9.874204"><ele>216.5</ele></trkpt>
    <trkpt lat="49.840123" lon="9.873898"><ele>218.0</ele></trkpt>
    <trkpt lat="49.840490" lon="9.873597"><ele>219.4</ele></trkpt>
    <trkpt lat="49.840850" lon="9.873302"><ele>220.8</ele></trkpt>
    <trkpt lat="49.841202" lon="9.873015"><ele>222.1</ele></trkpt>
    <trkpt lat="49.841545" lon="9.872737"><ele>223.3</ele></trkpt>
    <trkpt lat="49.841879" lon="9.872469"><ele>224.4</ele></trkpt>
    <trkpt lat="49.842204" lon="9.872209"><ele>225.4</ele></trkpt>
    <trkpt lat="49.842521" lon="9.871957"><ele>226.4</ele></trkpt>
    <trkpt lat="49.842831" lon="9.871712"><ele>227.2</ele></trkpt>
    <trkpt lat="49.843137" lon="9.871471"><ele>227.9</ele></trkpt>
    <trkpt lat="49.843441" lon="9.871233"><ele>228.6</ele></trkpt>
    <trkpt lat="49.843745" lon="9.870994"><ele>229.1</ele></trkpt>
    <trkpt lat="49.844051" lon="9.870753"><ele>229.5</ele></trkpt>
    <trkpt lat="49.844361" lon="9.870508"><ele>229.8</ele></trkpt>
    <trkpt lat="49.844677" lon="9.870257"><ele>229.9</ele></trkpt>
    <trkpt lat="49.845000" lon="9.870000"><ele>230.0</ele></trkpt>
    <trkpt lat="49.845347" lon="9.869825"><ele>230.0</ele></trkpt>
    <trkpt lat="49.845698" lon="9.869647"><ele>230.1</ele></trkpt>
    <trkpt lat="49.846053" lon="9.869464"><ele>230.2</ele></trkpt>
    <trkpt lat="49.846412" lon="9.869278"><ele>230.4</ele></trkpt>
    <trkpt lat="49.846773" lon="9.869089"><ele>230.5</ele></trkpt>
    <trkpt lat="49.847135" lon="9.868899"><ele>230.8</ele></trkpt>
    <trkpt lat="49.847498" lon="9.868709"><ele>231.1</ele></trkpt>
    <trkpt lat="49.847860" lon="9.868520"><ele>231.4</ele></trkpt>
    <trkpt lat="49.848220" lon="9.868332"><ele>231.7</ele></trkpt>
    <trkpt lat="49.848577" lon="9.868147"><ele>232.1</ele></trkpt>
    <trkpt lat="49.848930" lon="9.867966"><ele>232.6</ele></trkpt>
    <trkpt lat="49.849278" lon="9.867790"><ele>233.1</ele></trkpt>
    <trkpt lat="49.849621" lon="9.867620"><ele>233.6</ele></trkpt>
    <trkpt lat="49.849959" lon="9.867455"><ele>234.1</ele></trkpt>
    <trkpt lat="49.850290" lon="9.867296"><ele>234.7</ele></trkpt>
    <trkpt lat="49.850615" lon="9.867143"><ele>235.3</ele></trkpt>
    <trkpt lat="49.850936" lon="9.866995"><ele>235.9</ele></trkpt>
    <trkpt lat="49.851251" lon="9.866852"><ele>236.6</ele></trkpt>
    <trkpt lat="49.851563" lon="9.866713"><ele>237.3</ele></trkpt>
    <trkpt lat="49.851873" lon="9.866576"><ele>238.0</ele></trkpt>
    <trkpt lat="49.852181" lon="9.866440"><ele>238.7</ele></trkpt>
    <trkpt lat="49.852489" lon="9.866304"><ele>239.4</ele></trkpt>
    <trkpt lat="49.852798" lon="9.866167"><ele>240.2</ele></trkpt>
    <trkpt lat="49.853110" lon="9.866028"><ele>241.0</ele></trkpt>
    <trkpt lat="49.853426" lon="9.865884"><ele>241.8</ele></trkpt>
    <trkpt lat="49.853748" lon="9.865735"><ele>242.6</ele></trkpt>
    <trkpt lat="49.854075" lon="9.865580"><ele>243.4</ele></trkpt>
    <trkpt lat="49.854409" lon="9.865419"><ele>244.2</ele></trkpt>
    <trkpt lat="49.854750" lon="9.865250"><ele>245.0</ele></trkpt>
    <trkpt lat="49.855098" lon="9.865074"><ele>245.8</ele></trkpt>
    <trkpt lat="49.855454" lon="9.864891"><ele>246.6</ele></trkpt>
    <trkpt lat="49.855817" lon="9.864701"><ele>247.4</ele></trkpt>
    <trkpt lat="49.856185" lon="9.864505"><ele>248.2</ele></trkpt>
    <trkpt lat="49.856558" lon="9.864304"><ele>249.0</ele></trkpt>
    <trkpt lat="49.856936" lon="9.864098"><ele>249.8</ele></trkpt>
    <trkpt lat="49.857316" lon="9.863891"><ele>250.6</ele></trkpt>
    <trkpt lat="49.857698" lon="9.863681"><ele>251.3</ele></trkpt>
    <trkpt lat="49.858080" lon="9.863472"><ele>252.0</ele></trkpt>
    <trkpt lat="49.858460" lon="9.863264"><ele>252.7</ele></trkpt>
    <trkpt lat="49.858838" lon="9.863059"><ele>253.4</ele></trkpt>
    <trkpt lat="49.859212" lon="9.862857"><ele>254.1</ele></trkpt>
    <trkpt lat="49.859581" lon="9.862660"><ele>254.7</ele></trkpt>
    <trkpt lat="49.859945" lon="9.862469"><ele>255.3</ele></trkpt>
    <trkpt lat="49.860303" lon="9.862283"><ele>255.9</ele></trkpt>
    <trkpt lat="49.860656" lon="9.862103"><ele>256.4</ele></trkpt>
    <trkpt lat="49.861003" lon="9.861928"><ele>256.9</ele></trkpt>
    <trkpt lat="49.861344" lon="9.861760"><ele>257.4</ele></trkpt>
    <trkpt lat="49.861680" lon="9.861595"><ele>257.9</ele></trkpt>
    <trkpt lat="49.862013" lon="9.861435"><ele>258.3</ele></trkpt>
    <trkpt lat="49.862343" lon="9.861278"><ele>258.6</ele></trkpt>
    <trkpt lat="49.862670" lon="9.861123"><ele>258.9</ele></trkpt>
    <trkpt lat="49.862997" lon="9.860968"><ele>259.2</ele></trkpt>
    <trkpt lat="49.863324" lon="9.860814"><ele>259.5</ele></trkpt>
    <trkpt lat="49.863653" lon="9.860657"><ele>259.6</ele></trkpt>
    <trkpt lat="49.863984" lon="9.860498"><ele>259.8</ele></trkpt>
    <trkpt lat="49.864319" lon="9.860336"><ele>259.9</ele></trkpt>
    <trkpt lat="49.864657" lon="9.860170"><ele>260.0</ele></trkpt>
    <trkpt lat="49.865000" lon="9.860000"><ele>260.0</ele></trkpt>
    <trkpt lat="49.865330" lon="9.859752"><ele>260.0</ele></trkpt>
    <trkpt lat="49.865664" lon="9.859500"><ele>259.9</ele></trkpt>
    <trkpt lat="49.866001" lon="9.859245"><ele>259.9</ele></trkpt>
    <trkpt lat="49.866341" lon="9.858987"><ele>259.8</ele></trkpt>
    <trkpt lat="49.866684" lon="9.858726"><ele>259.7</ele></trkpt>
    <trkpt lat="49.867028" lon="9.858464"><ele>259.5</ele></trkpt>
    <trkpt lat="49.867373" lon="9.858201"><ele>259.4</ele></trkpt>
    <trkpt lat="49.867718" lon="9.857938"><ele>259.2</ele></trkpt>
    <trkpt lat="49.868061" lon="9.857677"><ele>258.9</ele></trkpt>
    <trkpt lat="49.868402" lon="9.857418"><ele>258.7</ele></trkpt>
    <trkpt lat="49.868740" lon="9.857162"><ele>258.4</ele></trkpt>
    <trkpt lat="49.869074" lon="9.856910"><ele>258.2</ele></trkpt>
    <trkpt lat="49.869403" lon="9.856663"><ele>257.8</ele></trkpt>
    <trkpt lat="49.869727" lon="9.856420"><ele>257.5</ele></trkpt>
    <trkpt lat="49.870046" lon="9.856183"><ele>257.2</ele></trkpt>
    <trkpt lat="49.870360" lon="9.855952"><ele>256.8</ele></trkpt>
    <trkpt lat="49.870668" lon="9.855725"><ele>256.4</ele></trkpt>
    <trkpt lat="49.870972" lon="9.855503"><ele>256.0</ele></trkpt>
    <trkpt lat="49.871272" lon="9.855285"><ele>255.6</ele></trkpt>
    <trkpt lat="49.871568" lon="9.855071"><ele>255.1</ele></trkpt>
    <trkpt lat="49.871863" lon="9.854859"><ele>254.7</ele></trkpt>
    <trkpt lat="49.872155" lon="9.854648"><ele>254.2</ele></trkpt>
    <trkpt lat="49.872448" lon="9.854437"><ele>253.8</ele></trkpt>
    <trkpt lat="49.872742" lon="9.854225"><ele>253.3</ele></trkpt>
    <trkpt lat="49.873038" lon="9.854011"><ele>252.8</ele></trkpt>
    <trkpt lat="49.873338" lon="9.853793"><ele>252.3</ele></trkpt>
    <trkpt lat="49.873642" lon="9.853572"><ele>251.8</ele></trkpt>
    <trkpt lat="49.873951" lon="9.853344"><ele>251.3</ele></trkpt>
    <trkpt lat="49.874266" lon="9.853111"><ele>250.8</ele></trkpt>
    <trkpt lat="49.874587" lon="9.852872"><ele>250.3</ele></trkpt>
    <trkpt lat="49.874915" lon="9.852626"><ele>249.7</ele></trkpt>
    <trkpt lat="49.875249" lon="9.852374"><ele>249.2</ele></trkpt>
    <trkpt lat="49.875590" lon="9.852115"><ele>248.7</ele></trkpt>
    <trkpt lat="49.875937" lon="9.851850"><ele>248.2</ele></trkpt>
    <trkpt lat="49.876289" lon="9.851580"><ele>247.7</ele></trkpt>
    <trkpt lat="49.876645" lon="9.851306"><ele>247.2</ele></trkpt>
    <trkpt lat="49.877004" lon="9.851028"><ele>246.7</ele></trkpt>
    <trkpt lat="49.877366" lon="9.850748"><ele>246.2</ele></trkpt>
    <trkpt lat="49.877729" lon="9.850468"><ele>245.8</ele></trkpt>
    <trkpt lat="49.878092" lon="9.850187"><ele>245.3</ele></trkpt>
    <trkpt lat="49.878454" lon="9.849907"><ele>244.9</ele></trkpt>
    <trkpt lat="49.878813" lon="9.849630"><ele>244.4</ele></trkpt>
    <trkpt lat="49.879169" lon="9.849356"><ele>244.0</ele></trkpt>
    <trkpt lat="49.879521" lon="9.849086"><ele>243.6</ele></trkpt>
    <trkpt lat="49.879868" lon="9.848821"><ele>243.2</ele></trkpt>
    <trkpt lat="49.880210" lon="9.848560"><ele>242.8</ele></trkpt>
    <trkpt lat="49.880547" lon="9.848306"><ele>242.5</ele></trkpt>
    <trkpt lat="49.880878" lon="9.848056"><ele>242.2</ele></trkpt>
    <trkpt lat="49.881205" lon="9.847812"><ele>241.8</ele></trkpt>
    <trkpt lat="49.881527" lon="9.847572"><ele>241.6</ele></trkpt>
    <trkpt lat="49.881844" lon="9.847336"><ele>241.3</ele></trkpt>
    <trkpt lat="49.882159" lon="9.847103"><ele>241.1</ele></trkpt>
    <trkpt lat="49.882472" lon="9.846873"><ele>240.8</ele></trkpt>
    <trkpt lat="49.882783" lon="9.846643"><ele>240.6</ele></trkpt>
    <trkpt lat="49.883094" lon="9.846415"><ele>240.5</ele></trkpt>
    <trkpt lat="49.883405" lon="9.846185"><ele>240.3</ele></trkpt>
    <trkpt lat="49.883718" lon="9.845954"><ele>240.2</ele></trkpt>
    <trkpt lat="49.884034" lon="9.845721"><ele>240.1</ele></trkpt>
    <trkpt lat="49.884352" lon="9.845484"><ele>240.1</ele></trkpt>
    <trkpt lat="49.884674" lon="9.845244"><ele>240.0</ele></trkpt>
    <trkpt lat="49.885000" lon="9.845000"><ele>240.0</ele></trkpt>
    <trkpt lat="49.885309" lon="9.844691"><ele>240.0</ele></trkpt>
    <trkpt lat="49.885624" lon="9.844376"><ele>239.9</ele></trkpt>
    <trkpt lat="49.885944" lon="9.844056"><ele>239.8</ele></trkpt>
    <trkpt lat="49.886269" lon="9.843731"><ele>239.7</ele></trkpt>
    <trkpt lat="49.886595" lon="9.843405"><ele>239.5</ele></trkpt>
    <trkpt lat="49.886923" lon="9.843077"><ele>239.3</ele></trkpt>
    <trkpt lat="49.887249" lon="9.842751"><ele>239.0</ele></trkpt>
    <trkpt lat="49.887572" lon="9.842428"><ele>238.7</ele></trkpt>
    <trkpt lat="49.887890" lon="9.842110"><ele>238.4</ele></trkpt>
    <trkpt lat="49.888202" lon="9.841798"><ele>238.0</ele></trkpt>
    <trkpt lat="49.888506" lon="9.841494"><ele>237.6</ele></trkpt>
    <trkpt lat="49.888802" lon="9.841198"><ele>237.2</ele></trkpt>
    <trkpt lat="49.889090" lon="9.840910"><ele>236.7</ele></trkpt>
    <trkpt lat="49.889371" lon="9.840629"><ele>236.2</ele></trkpt>
    <trkpt lat="49.889644" lon="9.840356"><ele>235.7</ele></trkpt>
    <trkpt lat="49.889912" lon="9.840088"><ele>235.2</ele></trkpt>
    <trkpt lat="49.890176" lon="9.839824"><ele>234.6</ele></trkpt>
    <trkpt lat="49.890438" lon="9.839562"><ele>234.0</ele></trkpt>
    <trkpt lat="49.890701" lon="9.839299"><ele>233.5</ele></trkpt>
    <trkpt lat="49.890967" lon="9.839033"><ele>232.8</ele></trkpt>
    <trkpt lat="49.891238" lon="9.838762"><ele>232.2</ele></trkpt>
    <trkpt lat="49.891516" lon="9.838484"><ele>231.6</ele></trkpt>
    <trkpt lat="49.891802" lon="9.838198"><ele>231.0</ele></trkpt>
    <trkpt lat="49.892098" lon="9.837902"><ele>230.3</ele></trkpt>
    <trkpt lat="49.892404" lon="9.837596"><ele>229.7</ele></trkpt>
    <trkpt lat="49.892721" lon="9.837279"><ele>229.0</ele></trkpt>
    <trkpt lat="49.893046" lon="9.836954"><ele>228.4</ele></trkpt>
    <trkpt lat="49.893381" lon="9.836619"><ele>227.8</ele></trkpt>
    <trkpt lat="49.893722" lon="9.836278"><ele>227.2</ele></trkpt>
    <trkpt lat="49.894069" lon="9.835931"><ele>226.5</ele></trkpt>
    <trkpt lat="49.894418" lon="9.835582"><ele>226.0</ele></trkpt>
    <trkpt lat="49.894768" lon="9.835232"><ele>225.4</ele></trkpt>
    <trkpt lat="49.895116" lon="9.834884"><ele>224.8</ele></trkpt>
    <trkpt lat="49.895460" lon="9.834540"><ele>224.3</ele></trkpt>
    <trkpt lat="49.895799" lon="9.834201"><ele>223.8</ele></trkpt>
    <trkpt lat="49.896131" lon="9.833869"><ele>223.3</ele></trkpt>
    <trkpt lat="49.896455" lon="9.833545"><ele>222.8</ele></trkpt>
    <trkpt lat="49.896771" lon="9.833229"><ele>222.4</ele></trkpt>
    <trkpt lat="49.897079" lon="9.832921"><ele>222.0</ele></trkpt>
    <trkpt lat="49.897380" lon="9.832620"><ele>221.6</ele></trkpt>
    <trkpt lat="49.897674" lon="9.832326"><ele>221.3</ele></trkpt>
    <trkpt lat="49.897963" lon="9.832037"><ele>221.0</ele></trkpt>
    <trkpt lat="49.898249" lon="9.831751"><ele>220.7</ele></trkpt>
    <trkpt lat="49.898534" lon="9.831466"><ele>220.5</ele></trkpt>
    <trkpt lat="49.898820" lon="9.831180"><ele>220.3</ele></trkpt>
    <trkpt lat="49.899108" lon="9.830892"><ele>220.2</ele></trkpt>
    <trkpt lat="49.899400" lon="9.830600"><ele>220.1</ele></trkpt>
    <trkpt lat="49.899697" lon="9.830303"><ele>220.0</ele></trkpt>
    <trkpt lat="49.900000" lon="9.830000"><ele>220.0</ele></trkpt>
    <trkpt lat="49.900093" lon="9.830543"><ele>220.0</ele></trkpt>
    <trkpt lat="49.900191" lon="9.831081"><ele>220.1</ele></trkpt>
    <trkpt lat="49.900294" lon="9.831615"><ele>220.2</ele></trkpt>
    <trkpt lat="49.900399" lon="9.832146"><ele>220.4</ele></trkpt>
    <trkpt lat="49.900508" lon="9.832674"><ele>220.6</ele></trkpt>
    <trkpt lat="49.900617" lon="9.833201"><ele>220.9</ele></trkpt>
    <trkpt lat="49.900727" lon="9.833727"><ele>221.2</ele></trkpt>
    <trkpt lat="49.900835" lon="9.834256"><ele>221.5</ele></trkpt>
    <trkpt lat="49.900941" lon="9.834786"><ele>221.9</ele></trkpt>
    <trkpt lat="49.901043" lon="9.835321"><ele>222.4</ele></trkpt>
    <trkpt lat="49.901140" lon="9.835860"><ele>222.9</ele></trkpt>
    <trkpt lat="49.901231" lon="9.836405"><ele>223.4</ele></trkpt>
    <trkpt lat="49.901316" lon="9.836957"><ele>223.9</ele></trkpt>
    <trkpt lat="49.901394" lon="9.837515"><ele>224.5</ele></trkpt>
    <trkpt lat="49.901466" lon="9.838080"><ele>225.2</ele></trkpt>
    <trkpt lat="49.901532" lon="9.838650"><ele>225.8</ele></trkpt>
    <trkpt lat="49.901592" lon="9.839226"><ele>226.5</ele></trkpt>
    <trkpt lat="49.901649" lon="9.839806"><ele>227.3</ele></trkpt>
    <trkpt lat="49.901702" lon="9.840389"><ele>228.0</ele></trkpt>
    <trkpt lat="49.901754" lon="9.840973"><ele>228.8</ele></trkpt>
    <trkpt lat="49.901806" lon="9.841557"><ele>229.6</ele></trkpt>
    <trkpt lat="49.901860" lon="9.842140"><ele>230.4</ele></trkpt>
    <trkpt lat="49.901918" lon="9.842719"><ele>231.2</ele></trkpt>
    <trkpt lat="49.901980" lon="9.843293"><ele>232.0</ele></trkpt>
    <trkpt lat="49.902048" lon="9.843861"><ele>232.9</ele></trkpt>
    <trkpt lat="49.902123" lon="9.844423"><ele>233.7</ele></trkpt>
    <trkpt lat="49.902206" lon="9.844976"><ele>234.6</ele></trkpt>
    <trkpt lat="49.902296" lon="9.845522"><ele>235.4</ele></trkpt>
    <trkpt lat="49.902395" lon="9.846059"><ele>236.3</ele></trkpt>
    <trkpt lat="49.902502" lon="9.846589"><ele>237.1</ele></trkpt>
    <trkpt lat="49.902616" lon="9.847111"><ele>238.0</ele></trkpt>
    <trkpt lat="49.902736" lon="9.847628"><ele>238.8</ele></trkpt>
    <trkpt lat="49.902860" lon="9.848140"><ele>239.6</ele></trkpt>
    <trkpt lat="49.902988" lon="9.848648"><ele>240.4</ele></trkpt>
    <trkpt lat="49.903118" lon="9.849155"><ele>241.2</ele></trkpt>
    <trkpt lat="49.903248" lon="9.849662"><ele>242.0</ele></trkpt>
    <trkpt lat="49.903376" lon="9.850170"><ele>242.7</ele></trkpt>
    <trkpt lat="49.903501" lon="9.850681"><ele>243.5</ele></trkpt>
    <trkpt lat="49.903623" lon="9.851196"><ele>244.2</ele></trkpt>
    <trkpt lat="49.903739" lon="9.851716"><ele>244.8</ele></trkpt>
    <trkpt lat="49.903848" lon="9.852242"><ele>245.5</ele></trkpt>
    <trkpt lat="49.903952" lon="9.852775"><ele>246.1</ele></trkpt>
    <trkpt lat="49.904049" lon="9.853315"><ele>246.6</ele></trkpt>
    <trkpt lat="49.904140" lon="9.853860"><ele>247.1</ele></trkpt>
    <trkpt lat="49.904225" lon="9.854412"><ele>247.6</ele></trkpt>
    <trkpt lat="49.904305" lon="9.854968"><ele>248.1</ele></trkpt>
    <trkpt lat="49.904381" lon="9.855528"><ele>248.5</ele></trkpt>
    <trkpt lat="49.904454" lon="9.856091"><ele>248.8</ele></trkpt>
    <trkpt lat="49.904526" lon="9.856655"><ele>249.1</ele></trkpt>
    <trkpt lat="49.904599" lon="9.857219"><ele>249.4</ele></trkpt>
    <trkpt lat="49.904672" lon="9.857782"><ele>249.6</ele></trkpt>
    <trkpt lat="49.904748" lon="9.858343"><ele>249.8</ele></trkpt>
    <trkpt lat="49.904828" lon="9.858900"><ele>249.9</ele></trkpt>
    <trkpt lat="49.904912" lon="9.859452"><ele>250.0</ele></trkpt>
    <trkpt lat="49.905000" lon="9.860000"><ele>250.0</ele></trkpt>
    <trkpt lat="49.904781" lon="9.860440"><ele>250.0</ele></trkpt>
    <trkpt lat="49.904565" lon="9.860876"><ele>250.0</ele></trkpt>
    <trkpt lat="49.904352" lon="9.861310"><ele>250.1</ele></trkpt>
    <trkpt lat="49.904142" lon="9.861741"><ele>250.2</ele></trkpt>
    <trkpt lat="49.903934" lon="9.862169"><ele>250.3</ele></trkpt>
    <trkpt lat="49.903727" lon="9.862596"><ele>250.4</ele></trkpt>
    <trkpt lat="49.903521" lon="9.863023"><ele>250.5</ele></trkpt>
    <trkpt lat="49.903316" lon="9.863449"><ele>250.7</ele></trkpt>
    <trkpt lat="49.903110" lon="9.863875"><ele>250.9</ele></trkpt>
    <trkpt lat="49.902904" lon="9.864302"><ele>251.0</ele></trkpt>
    <trkpt lat="49.902695" lon="9.864731"><ele>251.3</ele></trkpt>
    <trkpt lat="49.902484" lon="9.865163"><ele>251.5</ele></trkpt>
    <trkpt lat="49.902270" lon="9.865598"><ele>251.8</ele></trkpt>
    <trkpt lat="49.902052" lon="9.866036"><ele>252.0</ele></trkpt>
    <trkpt lat="49.901831" lon="9.866478"><ele>252.3</ele></trkpt>
    <trkpt lat="49.901605" lon="9.866924"><ele>252.6</ele></trkpt>
    <trkpt lat="49.901375" lon="9.867375"><ele>252.9</ele></trkpt>
    <trkpt lat="49.901141" lon="9.867830"><ele>253.3</ele></trkpt>
    <trkpt lat="49.900902" lon="9.868289"><ele>253.6</ele></trkpt>
    <trkpt lat="49.900660" lon="9.868751"><ele>254.0</ele></trkpt>
    <trkpt lat="49.900415" lon="9.869217"><ele>254.3</ele></trkpt>
    <trkpt lat="49.900167" lon="9.869686"><ele>254.7</ele></trkpt>
    <trkpt lat="49.899916" lon="9.870157"><ele>255.1</ele></trkpt>
    <trkpt lat="49.899665" lon="9.870629"><ele>255.5</ele></trkpt>
    <trkpt lat="49.899413" lon="9.871102"><ele>256.0</ele></trkpt>
    <trkpt lat="49.899161" lon="9.871574"><ele>256.4</ele></trkpt>
    <trkpt lat="49.898910" lon="9.872046"><ele>256.8</ele></trkpt>
    <trkpt lat="49.898662" lon="9.872515"><ele>257.3</ele></trkpt>
    <trkpt lat="49.898416" lon="9.872981"><ele>257.7</ele></trkpt>
    <trkpt lat="49.898173" lon="9.873444"><ele>258.2</ele></trkpt>
    <trkpt lat="49.897935" lon="9.873903"><ele>258.6</ele></trkpt>
    <trkpt lat="49.897702" lon="9.874357"><ele>259.1</ele></trkpt>
    <trkpt lat="49.897473" lon="9.874806"><ele>259.5</ele></trkpt>
    <trkpt lat="49.897250" lon="9.875250"><ele>260.0</ele></trkpt>
    <trkpt lat="49.897032" lon="9.875689"><ele>260.5</ele></trkpt>
    <trkpt lat="49.896819" lon="9.876122"><ele>260.9</ele></trkpt>
    <trkpt lat="49.896612" lon="9.876550"><ele>261.4</ele></trkpt>
    <trkpt lat="49.896409" lon="9.876974"><ele>261.8</ele></trkpt>
    <trkpt lat="49.896210" lon="9.877393"><ele>262.3</ele></trkpt>
    <trkpt lat="49.896014" lon="9.877809"><ele>262.7</ele></trkpt>
    <trkpt lat="49.895822" lon="9.878222"><ele>263.2</ele></trkpt>
    <trkpt lat="49.895631" lon="9.878633"><ele>263.6</ele></trkpt>
    <trkpt lat="49.895442" lon="9.879043"><ele>264.0</ele></trkpt>
    <trkpt lat="49.895253" lon="9.879453"><ele>264.5</ele></trkpt>
    <trkpt lat="49.895063" lon="9.879863"><ele>264.9</ele></trkpt>
    <trkpt lat="49.894873" lon="9.880275"><ele>265.3</ele></trkpt>
    <trkpt lat="49.894680" lon="9.880688"><ele>265.7</ele></trkpt>
    <trkpt lat="49.894484" lon="9.881104"><ele>266.0</ele></trkpt>
    <trkpt lat="49.894285" lon="9.881524"><ele>266.4</ele></trkpt>
    <trkpt lat="49.894082" lon="9.881947"><ele>266.7</ele></trkpt>
    <trkpt lat="49.893875" lon="9.882375"><ele>267.1</ele></trkpt>
    <trkpt lat="49.893664" lon="9.882807"><ele>267.4</ele></trkpt>
    <trkpt lat="49.893448" lon="9.883243"><ele>267.7</ele></trkpt>
    <trkpt lat="49.893229" lon="9.883683"><ele>268.0</ele></trkpt>
    <trkpt lat="49.893005" lon="9.884127"><ele>268.2</ele></trkpt>
    <trkpt lat="49.892778" lon="9.884575"><ele>268.5</ele></trkpt>
    <trkpt lat="49.892548" lon="9.885026"><ele>268.7</ele></trkpt>
    <trkpt lat="49.892315" lon="9.885479"><ele>269.0</ele></trkpt>
    <trkpt lat="49.892081" lon="9.885934"><ele>269.1</ele></trkpt>
    <trkpt lat="49.891846" lon="9.886390"><ele>269.3</ele></trkpt>
    <trkpt lat="49.891610" lon="9.886846"><ele>269.5</ele></trkpt>
    <trkpt lat="49.891374" lon="9.887302"><ele>269.6</ele></trkpt>
    <trkpt lat="49.891140" lon="9.887758"><ele>269.7</ele></trkpt>
    <trkpt lat="49.890907" lon="9.888211"><ele>269.8</ele></trkpt>
    <trkpt lat="49.890676" lon="9.888663"><ele>269.9</ele></trkpt>
    <trkpt lat="49.890447" lon="9.889111"><ele>270.0</ele></trkpt>
    <trkpt lat="49.890222" lon="9.889557"><ele>270.0</ele></trkpt>
    <trkpt lat="49.890000" lon="9.890000"><ele>270.0</ele></trkpt>
    <trkpt lat="49.889674" lon="9.890244"><ele>270.0</ele></trkpt>
    <trkpt lat="49.889352" lon="9.890484"><ele>269.9</ele></trkpt>
    <trkpt lat="49.889034" lon="9.890721"><ele>269.8</ele></trkpt>
    <trkpt lat="49.888718" lon="9.890954"><ele>269.7</ele></trkpt>
    <trkpt lat="49.888405" lon="9.891185"><ele>269.5</ele></trkpt>
    <trkpt lat="49.888094" lon="9.891415"><ele>269.3</ele></trkpt>
    <trkpt lat="49.887783" lon="9.891643"><ele>269.0</ele></trkpt>
    <trkpt lat="49.887472" lon="9.891873"><ele>268.7</ele></trkpt>
    <trkpt lat="49.887159" lon="9.892103"><ele>268.4</ele></trkpt>
    <trkpt lat="49.886844" lon="9.892336"><ele>268.1</ele></trkpt>
    <trkpt lat="49.886527" lon="9.892572"><ele>267.7</ele></trkpt>
    <trkpt lat="49.886205" lon="9.892812"><ele>267.2</ele></trkpt>
    <trkpt lat="49.885878" lon="9.893056"><ele>266.8</ele></trkpt>
    <trkpt lat="49.885547" lon="9.893306"><ele>266.3</ele></trkpt>
    <trkpt lat="49.885210" lon="9.893560"><ele>265.7</ele></trkpt>
    <trkpt lat="49.884868" lon="9.893821"><ele>265.2</ele></trkpt>
    <trkpt lat="49.884521" lon="9.894086"><ele>264.6</ele></trkpt>
    <trkpt lat="49.884169" lon="9.894356"><ele>264.0</ele></trkpt>
    <trkpt lat="49.883813" lon="9.894630"><ele>263.4</ele></trkpt>
    <trkpt lat="49.883454" lon="9.894907"><ele>262.7</ele></trkpt>
    <trkpt lat="49.883092" lon="9.895187"><ele>262.0</ele></trkpt>
    <trkpt lat="49.882729" lon="9.895468"><ele>261.4</ele></trkpt>
    <trkpt lat="49.882366" lon="9.895748"><ele>260.7</ele></trkpt>
    <trkpt lat="49.882004" lon="9.896028"><ele>259.9</ele></trkpt>
    <trkpt lat="49.881645" lon="9.896306"><ele>259.2</ele></trkpt>
    <trkpt lat="49.881289" lon="9.896580"><ele>258.4</ele></trkpt>
    <trkpt lat="49.880937" lon="9.896850"><ele>257.7</ele></trkpt>
    <trkpt lat="49.880590" lon="9.897115"><ele>256.9</ele></trkpt>
    <trkpt lat="49.880249" lon="9.897374"><ele>256.2</ele></trkpt>
    <trkpt lat="49.879915" lon="9.897626"><ele>255.4</ele></trkpt>
    <trkpt lat="49.879587" lon="9.897872"><ele>254.6</ele></trkpt>
    <trkpt lat="49.879266" lon="9.898111"><ele>253.8</ele></trkpt>
    <trkpt lat="49.878951" lon="9.898344"><ele>253.1</ele></trkpt>
    <trkpt lat="49.878642" lon="9.898572"><ele>252.3</ele></trkpt>
    <trkpt lat="49.878338" lon="9.898793"><ele>251.6</ele></trkpt>
    <trkpt lat="49.878038" lon="9.899011"><ele>250.8</ele></trkpt>
    <trkpt lat="49.877742" lon="9.899225"><ele>250.1</ele></trkpt>
    <trkpt lat="49.877448" lon="9.899437"><ele>249.3</ele></trkpt>
    <trkpt lat="49.877155" lon="9.899648"><ele>248.6</ele></trkpt>
    <trkpt lat="49.876863" lon="9.899859"><ele>248.0</ele></trkpt>
    <trkpt lat="49.876568" lon="9.900071"><ele>247.3</ele></trkpt>
    <trkpt lat="49.876272" lon="9.900285"><ele>246.6</ele></trkpt>
    <trkpt lat="49.875972" lon="9.900503"><ele>246.0</ele></trkpt>
    <trkpt lat="49.875668" lon="9.900725"><ele>245.4</ele></trkpt>
    <trkpt lat="49.875360" lon="9.900952"><ele>244.8</ele></trkpt>
    <trkpt lat="49.875046" lon="9.901183"><ele>244.3</ele></trkpt>
    <trkpt lat="49.874727" lon="9.901420"><ele>243.7</ele></trkpt>
    <trkpt lat="49.874403" lon="9.901663"><ele>243.2</ele></trkpt>
    <trkpt lat="49.874074" lon="9.901910"><ele>242.8</ele></trkpt>
    <trkpt lat="49.873740" lon="9.902162"><ele>242.3</ele></trkpt>
    <trkpt lat="49.873402" lon="9.902418"><ele>241.9</ele></trkpt>
    <trkpt lat="49.873061" lon="9.902677"><ele>241.6</ele></trkpt>
    <trkpt lat="49.872718" lon="9.902938"><ele>241.3</ele></trkpt>
    <trkpt lat="49.872373" lon="9.903201"><ele>241.0</ele></trkpt>
    <trkpt lat="49.872028" lon="9.903464"><ele>240.7</ele></trkpt>
    <trkpt lat="49.871684" lon="9.903726"><ele>240.5</ele></trkpt>
    <trkpt lat="49.871341" lon="9.903987"><ele>240.3</ele></trkpt>
    <trkpt lat="49.871001" lon="9.904245"><ele>240.2</ele></trkpt>
    <trkpt lat="49.870664" lon="9.904500"><ele>240.1</ele></trkpt>
    <trkpt lat="49.870330" lon="9.904752"><ele>240.0</ele></trkpt>
    <trkpt lat="49.870000" lon="9.905000"><ele>240.0</ele></trkpt>
    <trkpt lat="49.869645" lon="9.905087"><ele>240.0</ele></trkpt>
    <trkpt lat="49.869295" lon="9.905169"><ele>239.9</ele></trkpt>
    <trkpt lat="49.868949" lon="9.905248"><ele>239.9</ele></trkpt>
    <trkpt lat="49.868606" lon="9.905322"><ele>239.7</ele></trkpt>
    <trkpt lat="49.868266" lon="9.905395"><ele>239.6</ele></trkpt>
    <trkpt lat="49.867927" lon="9.905466"><ele>239.4</ele></trkpt>
    <trkpt lat="49.867588" lon="9.905537"><ele>239.2</ele></trkpt>
    <trkpt lat="49.867249" lon="9.905609"><ele>239.0</ele></trkpt>
    <trkpt lat="49.866906" lon="9.905683"><ele>238.8</ele></trkpt>
    <trkpt lat="49.866561" lon="9.905761"><ele>238.5</ele></trkpt>
    <trkpt lat="49.866210" lon="9.905843"><ele>238.2</ele></trkpt>
    <trkpt lat="49.865855" lon="9.905931"><ele>237.8</ele></trkpt>
    <trkpt lat="49.865493" lon="9.906025"><ele>237.5</ele></trkpt>
    <trkpt lat="49.865125" lon="9.906125"><ele>237.1</ele></trkpt>
    <trkpt lat="49.864751" lon="9.906231"><ele>236.7</ele></trkpt>
    <trkpt lat="49.864371" lon="9.906344"><ele>236.2</ele></trkpt>
    <trkpt lat="49.863985" lon="9.906461"><ele>235.8</ele></trkpt>
    <trkpt lat="49.863595" lon="9.906583"><ele>235.3</ele></trkpt>
    <trkpt lat="49.863202" lon="9.906709"><ele>234.8</ele></trkpt>
    <trkpt lat="49.862807" lon="9.906836"><ele>234.3</ele></trkpt>
    <trkpt lat="49.862412" lon="9.906963"><ele>233.8</ele></trkpt>
    <trkpt lat="49.862017" lon="9.907090"><ele>233.3</ele></trkpt>
    <trkpt lat="49.861626" lon="9.907214"><ele>232.8</ele></trkpt>
    <trkpt lat="49.861238" lon="9.907333"><ele>232.2</ele></trkpt>
    <trkpt lat="49.860856" lon="9.907448"><ele>231.7</ele></trkpt>
    <trkpt lat="49.860480" lon="9.907556"><ele>231.1</ele></trkpt>
    <trkpt lat="49.860111" lon="9.907657"><ele>230.6</ele></trkpt>
    <trkpt lat="49.859750" lon="9.907750"><ele>230.0</ele></trkpt>
    <trkpt lat="49.859397" lon="9.907835"><ele>229.4</ele></trkpt>
    <trkpt lat="49.859051" lon="9.907913"><ele>228.9</ele></trkpt>
    <trkpt lat="49.858713" lon="9.907984"><ele>228.3</ele></trkpt>
    <trkpt lat="49.858381" lon="9.908048"><ele>227.8</ele></trkpt>
    <trkpt lat="49.858054" lon="9.908107"><ele>227.2</ele></trkpt>
    <trkpt lat="49.857732" lon="9.908161"><ele>226.7</ele></trkpt>
    <trkpt lat="49.857412" lon="9.908213"><ele>226.2</ele></trkpt>
    <trkpt lat="49.857093" lon="9.908264"><ele>225.7</ele></trkpt>
    <trkpt lat="49.856773" lon="9.908316"><ele>225.2</ele></trkpt>
    <trkpt lat="49.856452" lon="9.908369"><ele>224.7</ele></trkpt>
    <trkpt lat="49.856128" lon="9.908426"><ele>224.2</ele></trkpt>
    <trkpt lat="49.855799" lon="9.908487"><ele>223.8</ele></trkpt>
    <trkpt lat="49.855465" lon="9.908553"><ele>223.3</ele></trkpt>
    <trkpt lat="49.855125" lon="9.908625"><ele>222.9</ele></trkpt>
    <trkpt lat="49.854779" lon="9.908703"><ele>222.5</ele></trkpt>
    <trkpt lat="49.854426" lon="9.908788"><ele>222.2</ele></trkpt>
    <trkpt lat="49.854068" lon="9.908879"><ele>221.8</ele></trkpt>
    <trkpt lat="49.853704" lon="9.908975"><ele>221.5</ele></trkpt>
    <trkpt lat="49.853335" lon="9.909076"><ele>221.2</ele></trkpt>
    <trkpt lat="49.852963" lon="9.909180"><ele>221.0</ele></trkpt>
    <trkpt lat="49.852588" lon="9.909287"><ele>220.8</ele></trkpt>
    <trkpt lat="49.852213" lon="9.909394"><ele>220.6</ele></trkpt>
    <trkpt lat="49.851837" lon="9.909502"><ele>220.4</ele></trkpt>
    <trkpt lat="49.851463" lon="9.909608"><ele>220.3</ele></trkpt>
    <trkpt lat="49.851092" lon="9.909712"><ele>220.1</ele></trkpt>
    <trkpt lat="49.850724" lon="9.909812"><ele>220.1</ele></trkpt>
    <trkpt lat="49.850359" lon="9.909908"><ele>220.0</ele></trkpt>
    <trkpt lat="49.850000" lon="9.910000"><ele>220.0</ele></trkpt>
    <trkpt lat="49.849681" lon="9.909724"><ele>220.0</ele></trkpt>
    <trkpt lat="49.849372" lon="9.909439"><ele>219.9</ele></trkpt>
    <trkpt lat="49.849071" lon="9.909146"><ele>219.7</ele></trkpt>
    <trkpt lat="49.848774" lon="9.908848"><ele>219.4</ele></trkpt>
    <trkpt lat="49.848477" lon="9.908550"><ele>219.1</ele></trkpt>
    <trkpt lat="49.848176" lon="9.908257"><ele>218.7</ele></trkpt>
    <trkpt lat="49.847867" lon="9.907971"><ele>218.3</ele></trkpt>
    <trkpt lat="49.847546" lon="9.907698"><ele>217.8</ele></trkpt>
    <trkpt lat="49.847211" lon="9.907438"><ele>217.2</ele></trkpt>
    <trkpt lat="49.846862" lon="9.907192"><ele>216.6</ele></trkpt>
    <trkpt lat="49.846499" lon="9.906960"><ele>215.9</ele></trkpt>
    <trkpt lat="49.846126" lon="9.906739"><ele>215.2</ele></trkpt>
    <trkpt lat="49.845746" lon="9.906524"><ele>214.5</ele></trkpt>
    <trkpt lat="49.845364" lon="9.906312"><ele>213.7</ele></trkpt>
    <trkpt lat="49.844985" lon="9.906096"><ele>212.9</ele></trkpt>
    <trkpt lat="49.844614" lon="9.905872"><ele>212.1</ele></trkpt>
    <trkpt lat="49.844256" lon="9.905635"><ele>211.3</ele></trkpt>
    <trkpt lat="49.843914" lon="9.905383"><ele>210.4</ele></trkpt>
    <trkpt lat="49.843590" lon="9.905113"><ele>209.6</ele></trkpt>
    <trkpt lat="49.843283" lon="9.904825"><ele>208.7</ele></trkpt>
    <trkpt lat="49.842993" lon="9.904521"><ele>207.9</ele></trkpt>
    <trkpt lat="49.842715" lon="9.904204"><ele>207.1</ele></trkpt>
    <trkpt lat="49.842445" lon="9.903879"><ele>206.3</ele></trkpt>
    <trkpt lat="49.842178" lon="9.903551"><ele>205.5</ele></trkpt>
    <trkpt lat="49.841910" lon="9.903225"><ele>204.8</ele></trkpt>
    <trkpt lat="49.841635" lon="9.902906"><ele>204.1</ele></trkpt>
    <trkpt lat="49.841348" lon="9.902598"><ele>203.4</ele></trkpt>
    <trkpt lat="49.841049" lon="9.902303"><ele>202.8</ele></trkpt>
    <trkpt lat="49.840735" lon="9.902022"><ele>202.2</ele></trkpt>
    <trkpt lat="49.840407" lon="9.901755"><ele>201.7</ele></trkpt>
    <trkpt lat="49.840068" lon="9.901500"><ele>201.3</ele></trkpt>
    <trkpt lat="49.839720" lon="9.901253"><ele>200.9</ele></trkpt>
    <trkpt lat="49.839368" lon="9.901010"><ele>200.6</ele></trkpt>
    <trkpt lat="49.839017" lon="9.900767"><ele>200.3</ele></trkpt>
    <trkpt lat="49.838669" lon="9.900520"><ele>200.1</ele></trkpt>
    <trkpt lat="49.838330" lon="9.900265"><ele>200.0</ele></trkpt>
    <trkpt lat="49.838000" lon="9.900000"><ele>200.0</ele></trkpt>
    <trkpt lat="49.837800" lon="9.899534"><ele>200.0</ele></trkpt>
    <trkpt lat="49.837608" lon="9.899058"><ele>199.9</ele></trkpt>
    <trkpt lat="49.837424" lon="9.898576"><ele>199.7</ele></trkpt>
    <trkpt lat="49.837245" lon="9.898089"><ele>199.5</ele></trkpt>
    <trkpt lat="49.837066" lon="9.897601"><ele>199.2</ele></trkpt>
    <trkpt lat="49.836885" lon="9.897115"><ele>198.9</ele></trkpt>
    <trkpt lat="49.836697" lon="9.896637"><ele>198.5</ele></trkpt>
    <trkpt lat="49.836499" lon="9.896167"><ele>198.0</ele></trkpt>
    <trkpt lat="49.836290" lon="9.895710"><ele>197.5</ele></trkpt>
    <trkpt lat="49.836068" lon="9.895265"><ele>196.9</ele></trkpt>
    <trkpt lat="49.835834" lon="9.894833"><ele>196.3</ele></trkpt>
    <trkpt lat="49.835588" lon="9.894412"><ele>195.7</ele></trkpt>
    <trkpt lat="49.835333" lon="9.894000"><ele>195.0</ele></trkpt>
    <trkpt lat="49.835074" lon="9.893593"><ele>194.3</ele></trkpt>
    <trkpt lat="49.834814" lon="9.893186"><ele>193.5</ele></trkpt>
    <trkpt lat="49.834559" lon="9.892775"><ele>192.8</ele></trkpt>
    <trkpt lat="49.834311" lon="9.892355"><ele>192.0</ele></trkpt>
    <trkpt lat="49.834076" lon="9.891924"><ele>191.2</ele></trkpt>
    <trkpt lat="49.833855" lon="9.891479"><ele>190.4</ele></trkpt>
    <trkpt lat="49.833649" lon="9.891017"><ele>189.6</ele></trkpt>
    <trkpt lat="49.833460" lon="9.890540"><ele>188.8</ele></trkpt>
    <trkpt lat="49.833286" lon="9.890048"><ele>188.0</ele></trkpt>
    <trkpt lat="49.833123" lon="9.889544"><ele>187.2</ele></trkpt>
    <trkpt lat="49.832968" lon="9.889032"><ele>186.5</ele></trkpt>
    <trkpt lat="49.832818" lon="9.888516"><ele>185.7</ele></trkpt>
    <trkpt lat="49.832667" lon="9.888000"><ele>185.0</ele></trkpt>
    <trkpt lat="49.832511" lon="9.887489"><ele>184.3</ele></trkpt>
    <trkpt lat="49.832346" lon="9.886987"><ele>183.7</ele></trkpt>
    <trkpt lat="49.832171" lon="9.886496"><ele>183.1</ele></trkpt>
    <trkpt lat="49.831983" lon="9.886017"><ele>182.5</ele></trkpt>
    <trkpt lat="49.831781" lon="9.885552"><ele>182.0</ele></trkpt>
    <trkpt lat="49.831569" lon="9.885098"><ele>181.5</ele></trkpt>
    <trkpt lat="49.831346" lon="9.884654"><ele>181.1</ele></trkpt>
    <trkpt lat="49.831117" lon="9.884216"><ele>180.8</ele></trkpt>
    <trkpt lat="49.830886" lon="9.883781"><ele>180.5</ele></trkpt>
    <trkpt lat="49.830655" lon="9.883345"><ele>180.3</ele></trkpt>
    <trkpt lat="49.830429" lon="9.882904"><ele>180.1</ele></trkpt>
    <trkpt lat="49.830210" lon="9.882457"><ele>180.0</ele></trkpt>
    <trkpt lat="49.830000" lon="9.882000"><ele>180.0</ele></trkpt>
  </trkseg></trk>
</gpx>
