<?xml version="1.0" encoding="UTF-8"?>
<gpx version="1.1" creator="tools/make_demo_gpx.py" xmlns="http://www.topografix.com/GPX/1/1">
  <metadata><name>DEMO Retzbach – Thüngersheim</name><desc>DEMO-DATEN – synthetisch, kein echter Wanderweg</desc></metadata>
  <trk><name>DEMO Retzbach – Thüngersheim</name><trkseg>
    <trkpt lat="49.906000" lon="9.817000"><ele>175.0</ele></trkpt>
    <trkpt lat="49.906201" lon="9.816509"><ele>175.2</ele></trkpt>
    <trkpt lat="49.906416" lon="9.816004"><ele>175.8</ele></trkpt>
    <trkpt lat="49.906640" lon="9.815489"><ele>176.7</ele></trkpt>
    <trkpt lat="49.906867" lon="9.814972"><ele>178.0</ele></trkpt>
    <trkpt lat="49.907089" lon="9.814459"><ele>179.7</ele></trkpt>
    <trkpt lat="49.907300" lon="9.813959"><ele>181.7</ele></trkpt>
    <trkpt lat="49.907493" lon="9.813475"><ele>184.0</ele></trkpt>
    <trkpt lat="49.907666" lon="9.813011"><ele>186.7</ele></trkpt>
    <trkpt lat="49.907820" lon="9.812567"><ele>189.5</ele></trkpt>
    <trkpt lat="49.907957" lon="9.812140"><ele>192.7</ele></trkpt>
    <trkpt lat="49.908084" lon="9.811723"><ele>196.0</ele></trkpt>
    <trkpt lat="49.908209" lon="9.811307"><ele>199.5</ele></trkpt>
    <trkpt lat="49.908341" lon="9.810885"><ele>203.1</ele></trkpt>
    <trkpt lat="49.908488" lon="9.810448"><ele>206.8</ele></trkpt>
    <trkpt lat="49.908656" lon="9.809989"><ele>210.6</ele></trkpt>
    <trkpt lat="49.908850" lon="9.809505"><ele>214.4</ele></trkpt>
    <trkpt lat="49.909068" lon="9.808996"><ele>218.2</ele></trkpt>
    <trkpt lat="49.909308" lon="9.808466"><ele>221.9</ele></trkpt>
    <trkpt lat="49.909564" lon="9.807920"><ele>225.5</ele></trkpt>
    <trkpt lat="49.909826" lon="9.807368"><ele>229.0</ele></trkpt>
    <trkpt lat="49.910086" lon="9.806817"><ele>232.3</ele></trkpt>
    <trkpt lat="49.910336" lon="9.806277"><ele>235.5</ele></trkpt>
    <trkpt lat="49.910570" lon="9.805753"><ele>238.3</ele></trkpt>
    <trkpt lat="49.910783" lon="9.805249"><ele>241.0</ele></trkpt>
    <trkpt lat="49.910977" lon="9.804765"><ele>243.3</ele></trkpt>
    <trkpt lat="49.911153" lon="9.804298"><ele>245.3</ele></trkpt>
    <trkpt lat="49.911318" lon="9.803843"><ele>247.0</ele></trkpt>
    <trkpt lat="49.911479" lon="9.803392"><ele>248.3</ele></trkpt>
    <trkpt lat="49.911642" lon="9.802939"><ele>249.2</ele></trkpt>
    <trkpt lat="49.911814" lon="9.802476"><ele>249.8</ele></trkpt>
    <trkpt lat="49.912000" lon="9.802000"><ele>250.0</ele></trkpt>
    <trkpt lat="49.911759" lon="9.801562"><ele>250.2</ele></trkpt>
    <trkpt lat="49.911535" lon="9.801108"><ele>250.9</ele></trkpt>
    <trkpt lat="49.911320" lon="9.800644"><ele>252.0</ele></trkpt>
    <trkpt lat="49.911106" lon="9.800180"><ele>253.5</ele></trkpt>
    <trkpt lat="49.910882" lon="9.799725"><ele>255.4</ele></trkpt>
    <trkpt lat="49.910640" lon="9.799288"><ele>257.6</ele></trkpt>
    <trkpt lat="49.910375" lon="9.798875"><ele>260.3</ele></trkpt>
    <trkpt lat="49.910085" lon="9.798487"><ele>263.2</ele></trkpt>
    <trkpt lat="49.909774" lon="9.798119"><ele>266.4</ele></trkpt>
    <trkpt lat="49.909450" lon="9.797764"><ele>269.8</ele></trkpt>
    <trkpt lat="49.909124" lon="9.797411"><ele>273.4</ele></trkpt>
    <trkpt lat="49.908809" lon="9.797048"><ele>277.2</ele></trkpt>
    <trkpt lat="49.908516" lon="9.796663"><ele>281.1</ele></trkpt>
    <trkpt lat="49.908250" lon="9.796250"><ele>285.0</ele></trkpt>
    <trkpt lat="49.908016" lon="9.795806"><ele>288.9</ele></trkpt>
    <trkpt lat="49.907809" lon="9.795333"><ele>292.8</ele></trkpt>
    <trkpt lat="49.907624" lon="9.794840"><ele>296.6</ele></trkpt>
    <trkpt lat="49.907450" lon="9.794336"><ele>300.2</ele></trkpt>
    <trkpt lat="49.907274" lon="9.793833"><ele>303.6</ele></trkpt>
    <trkpt lat="49.907085" lon="9.793344"><ele>306.8</ele></trkpt>
    <trkpt lat="49.906875" lon="9.792875"><ele>309.7</ele></trkpt>
    <trkpt lat="49.906640" lon="9.792431"><ele>312.4</ele></trkpt>
    <trkpt lat="49.906382" lon="9.792011"><ele>314.6</ele></trkpt>
    <trkpt lat="49.906106" lon="9.791609"><ele>316.5</ele></trkpt>
    <trkpt lat="49.905820" lon="9.791216"><ele>318.0</ele></trkpt>
    <trkpt lat="49.905535" lon="9.790822"><ele>319.1</ele></trkpt>
    <trkpt lat="49.905259" lon="9.790419"><ele>319.8</ele></trkpt>
    <trkpt lat="49.905000" lon="9.790000"><ele>320.0</ele></trkpt>
    <trkpt lat="49.904726" lon="9.790368"><ele>320.0</ele></trkpt>
    <trkpt lat="49.904465" lon="9.790723"><ele>320.1</ele></trkpt>
    <trkpt lat="49.904212" lon="9.791069"><ele>320.3</ele></trkpt>
    <trkpt lat="49.903963" lon="9.791412"><ele>320.6</ele></trkpt>
    <trkpt lat="49.903711" lon="9.791758"><ele>320.9</ele></trkpt>
    <trkpt lat="49.903449" lon="9.792114"><ele>321.3</ele></trkpt>
    <trkpt lat="49.903171" lon="9.792485"><ele>321.7</ele></trkpt>
    <trkpt lat="49.902875" lon="9.792875"><ele>322.2</ele></trkpt>
    <trkpt lat="49.902560" lon="9.793284"><ele>322.7</ele></trkpt>
    <trkpt lat="49.902228" lon="9.793709"><ele>323.3</ele></trkpt>
    <trkpt lat="49.901885" lon="9.794147"><ele>324.0</ele></trkpt>
    <trkpt lat="49.901537" lon="9.794588"><ele>324.6</ele></trkpt>
    <trkpt lat="49.901192" lon="9.795027"><ele>325.3</ele></trkpt>
    <trkpt lat="49.900859" lon="9.795454"><ele>326.0</ele></trkpt>
    <trkpt lat="49.900543" lon="9.795863"><ele>326.8</ele></trkpt>
    <trkpt lat="49.900250" lon="9.796250"><ele>327.5</ele></trkpt>
    <trkpt lat="49.899981" lon="9.796613"><ele>328.2</ele></trkpt>
    <trkpt lat="49.899734" lon="9.796954"><ele>329.0</ele></trkpt>
    <trkpt lat="49.899504" lon="9.797277"><ele>329.7</ele></trkpt>
    <trkpt lat="49.899287" lon="9.797588"><ele>330.4</ele></trkpt>
    <trkpt lat="49.899072" lon="9.797897"><ele>331.0</ele></trkpt>
    <trkpt lat="49.898853" lon="9.798209"><ele>331.7</ele></trkpt>
    <trkpt lat="49.898622" lon="9.798534"><ele>332.3</ele></trkpt>
    <trkpt lat="49.898375" lon="9.798875"><ele>332.8</ele></trkpt>
    <trkpt lat="49.898109" lon="9.799235"><ele>333.3</ele></trkpt>
    <trkpt lat="49.897824" lon="9.799614"><ele>333.7</ele></trkpt>
    <trkpt lat="49.897524" lon="9.800008"><ele>334.1</ele></trkpt>
    <trkpt lat="49.897213" lon="9.800412"><ele>334.4</ele></trkpt>
    <trkpt lat="49.896900" lon="9.800819"><ele>334.7</ele></trkpt>
    <trkpt lat="49.896590" lon="9.801223"><ele>334.9</ele></trkpt>
    <trkpt lat="49.896288" lon="9.801618"><ele>335.0</ele></trkpt>
    <trkpt lat="49.896000" lon="9.802000"><ele>335.0</ele></trkpt>
    <trkpt lat="49.895933" lon="9.802543"><ele>335.0</ele></trkpt>
    <trkpt lat="49.895873" lon="9.803079"><ele>335.0</ele></trkpt>
    <trkpt lat="49.895820" lon="9.803608"><ele>334.9</ele></trkpt>
    <trkpt lat="49.895772" lon="9.804133"><ele>334.9</ele></trkpt>
    <trkpt lat="49.895725" lon="9.804656"><ele>334.8</ele></trkpt>
    <trkpt lat="49.895677" lon="9.805180"><ele>334.8</ele></trkpt>
    <trkpt lat="49.895625" lon="9.805708"><ele>334.7</ele></trkpt>
    <trkpt lat="49.895566" lon="9.806244"><ele>334.6</ele></trkpt>
    <trkpt lat="49.895498" lon="9.806788"><ele>334.5</ele></trkpt>
    <trkpt lat="49.895419" lon="9.807343"><ele>334.3</ele></trkpt>
    <trkpt lat="49.895329" lon="9.807910"><ele>334.2</ele></trkpt>
    <trkpt lat="49.895228" lon="9.808487"><ele>334.1</ele></trkpt>
    <trkpt lat="49.895117" lon="9.809073"><ele>333.9</ele></trkpt>
    <trkpt lat="49.895000" lon="9.809667"><ele>333.8</ele></trkpt>
    <trkpt lat="49.894878" lon="9.810264"><ele>333.6</ele></trkpt>
    <trkpt lat="49.894756" lon="9.810863"><ele>333.4</ele></trkpt>
    <trkpt lat="49.894637" lon="9.811458"><ele>333.2</ele></trkpt>
    <trkpt lat="49.894524" lon="9.812048"><ele>333.1</ele></trkpt>
    <trkpt lat="49.894420" lon="9.812627"><ele>332.9</ele></trkpt>
    <trkpt lat="49.894328" lon="9.813195"><ele>332.7</ele></trkpt>
    <trkpt lat="49.894250" lon="9.813750"><ele>332.5</ele></trkpt>
    <trkpt lat="49.894186" lon="9.814291"><ele>332.3</ele></trkpt>
    <trkpt lat="49.894134" lon="9.814818"><ele>332.1</ele></trkpt>
    <trkpt lat="49.894095" lon="9.815333"><ele>331.9</ele></trkpt>
    <trkpt lat="49.894065" lon="9.815839"><ele>331.8</ele></trkpt>
    <trkpt lat="49.894042" lon="9.816339"><ele>331.6</ele></trkpt>
    <trkpt lat="49.894021" lon="9.816836"><ele>331.4</ele></trkpt>
    <trkpt lat="49.894000" lon="9.817333"><ele>331.2</ele></trkpt>
    <trkpt lat="49.893975" lon="9.817835"><ele>331.1</ele></trkpt>
    <trkpt lat="49.893942" lon="9.818344"><ele>330.9</ele></trkpt>
    <trkpt lat="49.893900" lon="9.818862"><ele>330.8</ele></trkpt>
    <trkpt lat="49.893847" lon="9.819391"><ele>330.7</ele></trkpt>
    <trkpt lat="49.893783" lon="9.819931"><ele>330.5</ele></trkpt>
    <trkpt lat="49.893709" lon="9.820482"><ele>330.4</ele></trkpt>
    <trkpt lat="49.893625" lon="9.821042"><ele>330.3</ele></trkpt>
    <trkpt lat="49.893534" lon="9.821609"><ele>330.2</ele></trkpt>
    <trkpt lat="49.893439" lon="9.822180"><ele>330.2</ele></trkpt>
    <trkpt lat="49.893343" lon="9.822752"><ele>330.1</ele></trkpt>
    <trkpt lat="49.893249" lon="9.823322"><ele>330.1</ele></trkpt>
    <trkpt lat="49.893159" lon="9.823889"><ele>330.0</ele></trkpt>
    <trkpt lat="49.893076" lon="9.824448"><ele>330.0</ele></trkpt>
    <trkpt lat="49.893000" lon="9.825000"><ele>330.0</ele></trkpt>
    <trkpt lat="49.892831" lon="9.825491"><ele>329.9</ele></trkpt>
    <trkpt lat="49.892678" lon="9.825965"><ele>329.6</ele></trkpt>
    <trkpt lat="49.892534" lon="9.826430"><ele>329.2</ele></trkpt>
    <trkpt lat="49.892391" lon="9.826894"><ele>328.5</ele></trkpt>
    <trkpt lat="49.892239" lon="9.827368"><ele>327.7</ele></trkpt>
    <trkpt lat="49.892069" lon="9.827860"><ele>326.7</ele></trkpt>
    <trkpt lat="49.891875" lon="9.828375"><ele>325.6</ele></trkpt>
    <trkpt lat="49.891656" lon="9.828915"><ele>324.4</ele></trkpt>
    <trkpt lat="49.891417" lon="9.829476"><ele>323.0</ele></trkpt>
    <trkpt lat="49.891164" lon="9.830050"><ele>321.5</ele></trkpt>
    <trkpt lat="49.890910" lon="9.830626"><ele>320.0</ele></trkpt>
    <trkpt lat="49.890667" lon="9.831191"><ele>318.3</ele></trkpt>
    <trkpt lat="49.890444" lon="9.831734"><ele>316.7</ele></trkpt>
    <trkpt lat="49.890250" lon="9.832250"><ele>315.0</ele></trkpt>
    <trkpt lat="49.890087" lon="9.832734"><ele>313.3</ele></trkpt>
    <trkpt lat="49.889952" lon="9.833191"><ele>311.7</ele></trkpt>
    <trkpt lat="49.889839" lon="9.833626"><ele>310.0</ele></trkpt>
    <trkpt lat="49.889736" lon="9.834050"><ele>308.5</ele></trkpt>
    <trkpt lat="49.889631" lon="9.834476"><ele>307.0</ele></trkpt>
    <trkpt lat="49.889513" lon="9.834915"><ele>305.6</ele></trkpt>
    <trkpt lat="49.889375" lon="9.835375"><ele>304.4</ele></trkpt>
    <trkpt lat="49.889212" lon="9.835860"><ele>303.3</ele></trkpt>
    <trkpt lat="49.889025" lon="9.836368"><ele>302.3</ele></trkpt>
    <trkpt lat="49.888820" lon="9.836894"><ele>301.5</ele></trkpt>
    <trkpt lat="49.888606" lon="9.837430"><ele>300.8</ele></trkpt>
    <trkpt lat="49.888392" lon="9.837965"><ele>300.4</ele></trkpt>
    <trkpt lat="49.888188" lon="9.838491"><ele>300.1</ele></trkpt>
    <trkpt lat="49.888000" lon="9.839000"><ele>300.0</ele></trkpt>
    <trkpt lat="49.887678" lon="9.839180"><ele>298.6</ele></trkpt>
    <trkpt lat="49.887391" lon="9.839323"><ele>294.3</ele></trkpt>
    <trkpt lat="49.887069" lon="9.839502"><ele>287.5</ele></trkpt>
    <trkpt lat="49.886656" lon="9.839772"><ele>278.4</ele></trkpt>
    <trkpt lat="49.886164" lon="9.840122"><ele>267.4</ele></trkpt>
    <trkpt lat="49.885667" lon="9.840476"><ele>255.3</ele></trkpt>
    <trkpt lat="49.885250" lon="9.840750"><ele>242.5</ele></trkpt>
    <trkpt lat="49.884952" lon="9.840905"><ele>229.7</ele></trkpt>
    <trkpt lat="49.884736" lon="9.840979"><ele>217.6</ele></trkpt>
    <trkpt lat="49.884513" lon="9.841058"><ele>206.6</ele></trkpt>
    <trkpt lat="49.884212" lon="9.841217"><ele>197.5</ele></trkpt>
    <trkpt lat="49.883820" lon="9.841466"><ele>190.7</ele></trkpt>
    <trkpt lat="49.883392" lon="9.841751"><ele>186.4</ele></trkpt>
    <trkpt lat="49.883000" lon="9.842000"><ele>185.0</ele></trkpt>
  </trkseg></trk>
</gpx>
