<?xml version="1.0" encoding="UTF-8"?>
<gpx version="1.1" creator="tools/make_demo_gpx.py" xmlns="http://www.topografix.com/GPX/1/1">
  <metadata><name>DEMO Rundweg Veitshöchheim</name><desc>DEMO-DATEN – synthetisch, kein echter Wanderweg</desc></metadata>
  <trk><name>DEMO Rundweg Veitshöchheim</name><trkseg>
    <trkpt lat="49.830000" lon="9.882000"><ele>180.0</ele></trkpt>
    <trkpt lat="49.830335" lon="9.881665"><ele>180.3</ele></trkpt>
    <trkpt lat="49.830700" lon="9.881300"><ele>181.4</ele></trkpt>
    <trkpt lat="49.831066" lon="9.880934"><ele>183.0</ele></trkpt>
    <trkpt lat="49.831404" lon="9.880596"><ele>185.3</ele></trkpt>
    <trkpt lat="49.831692" lon="9.880308"><ele>188.1</ele></trkpt>
    <trkpt lat="49.831929" lon="9.880071"><ele>191.3</ele></trkpt>
    <trkpt lat="49.832136" lon="9.879864"><ele>195.0</ele></trkpt>
    <trkpt lat="49.832348" lon="9.879652"><ele>198.9</ele></trkpt>
    <trkpt lat="49.832601" lon="9.879399"><ele>202.9</ele></trkpt>
    <trkpt lat="49.832916" lon="9.879084"><ele>207.1</ele></trkpt>
    <trkpt lat="49.833295" lon="9.878705"><ele>211.1</ele></trkpt>
    <trkpt lat="49.833715" lon="9.878285"><ele>215.0</ele></trkpt>
    <trkpt lat="49.834140" lon="9.877860"><ele>218.7</ele></trkpt>
    <trkpt lat="49.834534" lon="9.877466"><ele>221.9</ele></trkpt>
    <trkpt lat="49.834877" lon="9.877123"><ele>224.7</ele></trkpt>
    <trkpt lat="49.835171" lon="9.876829"><ele>227.0</ele></trkpt>
    <trkpt lat="49.835436" lon="9.876564"><ele>228.6</ele></trkpt>
    <trkpt lat="49.835704" lon="9.876296"><ele>229.7</ele></trkpt>
    <trkpt lat="49.836000" lon="9.876000"><ele>230.0</ele></trkpt>
    <trkpt lat="49.836388" lon="9.876086"><ele>230.4</ele></trkpt>
    <trkpt lat="49.836805" lon="9.876143"><ele>231.6</ele></trkpt>
    <trkpt lat="49.837224" lon="9.876197"><ele>233.6</ele></trkpt>
    <trkpt lat="49.837614" lon="9.876280"><ele>236.3</ele></trkpt>
    <trkpt lat="49.837955" lon="9.876413"><ele>239.7</ele></trkpt>
    <trkpt lat="49.838245" lon="9.876597"><ele>243.6</ele></trkpt>
    <trkpt lat="49.838505" lon="9.876811"><ele>247.9</ele></trkpt>
    <trkpt lat="49.838769" lon="9.877020"><ele>252.6</ele></trkpt>
    <trkpt lat="49.839074" lon="9.877189"><ele>257.5</ele></trkpt>
    <trkpt lat="49.839443" lon="9.877294"><ele>262.5</ele></trkpt>
    <trkpt lat="49.839874" lon="9.877336"><ele>267.4</ele></trkpt>
    <trkpt lat="49.840347" lon="9.877337"><ele>272.1</ele></trkpt>
    <trkpt lat="49.840824" lon="9.877334"><ele>276.4</ele></trkpt>
    <trkpt lat="49.841271" lon="9.877361"><ele>280.3</ele></trkpt>
    <trkpt lat="49.841667" lon="9.877438"><ele>283.7</ele></trkpt>
    <trkpt lat="49.842013" lon="9.877566"><ele>286.4</ele></trkpt>
    <trkpt lat="49.842331" lon="9.877722"><ele>288.4</ele></trkpt>
    <trkpt lat="49.842651" lon="9.877875"><ele>289.6</ele></trkpt>
    <trkpt lat="49.843000" lon="9.878000"><ele>290.0</ele></trkpt>
    <trkpt lat="49.843197" lon="9.878485"><ele>290.1</ele></trkpt>
    <trkpt lat="49.843417" lon="9.878947"><ele>290.2</ele></trkpt>
    <trkpt lat="49.843645" lon="9.879400"><ele>290.5</ele></trkpt>
    <trkpt lat="49.843861" lon="9.879866"><ele>290.8</ele></trkpt>
    <trkpt lat="49.844047" lon="9.880362"><ele>291.2</ele></trkpt>
    <trkpt lat="49.844193" lon="9.880898"><ele>291.7</ele></trkpt>
    <trkpt lat="49.844303" lon="9.881470"><ele>292.3</ele></trkpt>
    <trkpt lat="49.844390" lon="9.882064"><ele>292.9</ele></trkpt>
    <trkpt lat="49.844479" lon="9.882657"><ele>293.6</ele></trkpt>
    <trkpt lat="49.844593" lon="9.883225"><ele>294.3</ele></trkpt>
    <trkpt lat="49.844750" lon="9.883750"><ele>295.0</ele></trkpt>
    <trkpt lat="49.844957" lon="9.884225"><ele>295.7</ele></trkpt>
    <trkpt lat="49.845207" lon="9.884657"><ele>296.4</ele></trkpt>
    <trkpt lat="49.845481" lon="9.885064"><ele>297.1</ele></trkpt>
    <trkpt lat="49.845757" lon="9.885470"><ele>297.7</ele></trkpt>
    <trkpt lat="49.846011" lon="9.885898"><ele>298.3</ele></trkpt>
    <trkpt lat="49.846229" lon="9.886362"><ele>298.8</ele></trkpt>
    <trkpt lat="49.846407" lon="9.886866"><ele>299.2</ele></trkpt>
    <trkpt lat="49.846554" lon="9.887400"><ele>299.5</ele></trkpt>
    <trkpt lat="49.846690" lon="9.887947"><ele>299.8</ele></trkpt>
    <trkpt lat="49.846833" lon="9.888485"><ele>299.9</ele></trkpt>
    <trkpt lat="49.847000" lon="9.889000"><ele>300.0</ele></trkpt>
    <trkpt lat="49.846788" lon="9.889440"><ele>299.8</ele></trkpt>
    <trkpt lat="49.846599" lon="9.889856"><ele>299.4</ele></trkpt>
    <trkpt lat="49.846418" lon="9.890264"><ele>298.6</ele></trkpt>
    <trkpt lat="49.846225" lon="9.890684"><ele>297.6</ele></trkpt>
    <trkpt lat="49.846001" lon="9.891135"><ele>296.3</ele></trkpt>
    <trkpt lat="49.845739" lon="9.891625"><ele>294.8</ele></trkpt>
    <trkpt lat="49.845439" lon="9.892152"><ele>293.1</ele></trkpt>
    <trkpt lat="49.845118" lon="9.892700"><ele>291.2</ele></trkpt>
    <trkpt lat="49.844797" lon="9.893248"><ele>289.2</ele></trkpt>
    <trkpt lat="49.844502" lon="9.893771"><ele>287.1</ele></trkpt>
    <trkpt lat="49.844250" lon="9.894250"><ele>285.0</ele></trkpt>
    <trkpt lat="49.844048" lon="9.894680"><ele>282.9</ele></trkpt>
    <trkpt lat="49.843888" lon="9.895066"><ele>280.8</ele></trkpt>
    <trkpt lat="49.843754" lon="9.895428"><ele>278.8</ele></trkpt>
    <trkpt lat="49.843621" lon="9.895788"><ele>276.9</ele></trkpt>
    <trkpt lat="49.843466" lon="9.896171"><ele>275.2</ele></trkpt>
    <trkpt lat="49.843274" lon="9.896590"><ele>273.7</ele></trkpt>
    <trkpt lat="49.843043" lon="9.897048"><ele>272.4</ele></trkpt>
    <trkpt lat="49.842781" lon="9.897537"><ele>271.4</ele></trkpt>
    <trkpt lat="49.842508" lon="9.898038"><ele>270.6</ele></trkpt>
    <trkpt lat="49.842242" lon="9.898531"><ele>270.2</ele></trkpt>
    <trkpt lat="49.842000" lon="9.899000"><ele>270.0</ele></trkpt>
    <trkpt lat="49.841668" lon="9.898782"><ele>269.6</ele></trkpt>
    <trkpt lat="49.841362" lon="9.898537"><ele>268.5</ele></trkpt>
    <trkpt lat="49.841062" lon="9.898288"><ele>266.7</ele></trkpt>
    <trkpt lat="49.840740" lon="9.898060"><ele>264.3</ele></trkpt>
    <trkpt lat="49.840375" lon="9.897875"><ele>261.2</ele></trkpt>
    <trkpt lat="49.839962" lon="9.897737"><ele>257.6</ele></trkpt>
    <trkpt lat="49.839515" lon="9.897635"><ele>253.6</ele></trkpt>
    <trkpt lat="49.839060" lon="9.897540"><ele>249.3</ele></trkpt>
    <trkpt lat="49.838630" lon="9.897420"><ele>244.7</ele></trkpt>
    <trkpt lat="49.838250" lon="9.897250"><ele>240.0</ele></trkpt>
    <trkpt lat="49.837930" lon="9.897020"><ele>235.3</ele></trkpt>
    <trkpt lat="49.837660" lon="9.896740"><ele>230.7</ele></trkpt>
    <trkpt lat="49.837415" lon="9.896435"><ele>226.4</ele></trkpt>
    <trkpt lat="49.837162" lon="9.896138"><ele>222.4</ele></trkpt>
    <trkpt lat="49.836875" lon="9.895875"><ele>218.8</ele></trkpt>
    <trkpt lat="49.836540" lon="9.895660"><ele>215.7</ele></trkpt>
    <trkpt lat="49.836162" lon="9.895488"><ele>213.3</ele></trkpt>
    <trkpt lat="49.835763" lon="9.895337"><ele>211.5</ele></trkpt>
    <trkpt lat="49.835368" lon="9.895182"><ele>210.4</ele></trkpt>
    <trkpt lat="49.835000" lon="9.895000"><ele>210.0</ele></trkpt>
    <trkpt lat="49.834825" lon="9.894509"><ele>209.9</ele></trkpt>
    <trkpt lat="49.834667" lon="9.894000"><ele>209.6</ele></trkpt>
    <trkpt lat="49.834518" lon="9.893482"><ele>209.1</ele></trkpt>
    <trkpt lat="49.834370" lon="9.892964"><ele>208.4</ele></trkpt>
    <trkpt lat="49.834209" lon="9.892457"><ele>207.5</ele></trkpt>
    <trkpt lat="49.834028" lon="9.891972"><ele>206.5</ele></trkpt>
    <trkpt lat="49.833821" lon="9.891513"><ele>205.3</ele></trkpt>
    <trkpt lat="49.833587" lon="9.891080"><ele>204.0</ele></trkpt>
    <trkpt lat="49.833333" lon="9.890667"><ele>202.5</ele></trkpt>
    <trkpt lat="49.833070" lon="9.890264"><ele>200.9</ele></trkpt>
    <trkpt lat="49.832809" lon="9.889858"><ele>199.3</ele></trkpt>
    <trkpt lat="49.832565" lon="9.889435"><ele>197.6</ele></trkpt>
    <trkpt lat="49.832347" lon="9.888987"><ele>195.9</ele></trkpt>
    <trkpt lat="49.832162" lon="9.888505"><ele>194.1</ele></trkpt>
    <trkpt lat="49.832009" lon="9.887991"><ele>192.4</ele></trkpt>
    <trkpt lat="49.831883" lon="9.887450"><ele>190.7</ele></trkpt>
    <trkpt lat="49.831773" lon="9.886893"><ele>189.1</ele></trkpt>
    <trkpt lat="49.831667" lon="9.886333"><ele>187.5</ele></trkpt>
    <trkpt lat="49.831550" lon="9.885783"><ele>186.0</ele></trkpt>
    <trkpt lat="49.831413" lon="9.885253"><ele>184.7</ele></trkpt>
    <trkpt lat="49.831250" lon="9.884750"><ele>183.5</ele></trkpt>
    <trkpt lat="49.831061" lon="9.884272"><ele>182.5</ele></trkpt>
    <trkpt lat="49.830851" lon="9.883815"><ele>181.6</ele></trkpt>
    <trkpt lat="49.830630" lon="9.883370"><ele>180.9</ele></trkpt>
    <trkpt lat="49.830407" lon="9.882926"><ele>180.4</ele></trkpt>
    <trkpt lat="49.830195" lon="9.882472"><ele>180.1</ele></trkpt>
    <trkpt lat="49.830000" lon="9.882000"><ele>180.0</ele></trkpt>
  </trkseg></trk>
</gpx>
