<?xml version="1.0" encoding="UTF-8"?>
<gpx version="1.1" creator="tools/make_demo_gpx.py" xmlns="http://www.topografix.com/GPX/1/1">
  <metadata><name>DEMO Spessart-Rundblick</name><desc>DEMO-DATEN – synthetisch, kein echter Wanderweg</desc></metadata>
  <trk><name>DEMO Spessart-Rundblick</name><trkseg>
    <trkpt lat="50.050000" lon="9.700000"><ele>160.0</ele></trkpt>
    <trkpt lat="50.050201" lon="9.700476"><ele>160.3</ele></trkpt>
    <trkpt lat="50.050416" lon="9.700939"><ele>161.2</ele></trkpt>
    <trkpt lat="50.050640" lon="9.701392"><ele>162.8</ele></trkpt>
    <trkpt lat="50.050867" lon="9.701843"><ele>164.9</ele></trkpt>
    <trkpt lat="50.051089" lon="9.702298"><ele>167.5</ele></trkpt>
    <trkpt lat="50.051300" lon="9.702765"><ele>170.8</ele></trkpt>
    <trkpt lat="50.051493" lon="9.703249"><ele>174.5</ele></trkpt>
    <trkpt lat="50.051666" lon="9.703753"><ele>178.7</ele></trkpt>
    <trkpt lat="50.051820" lon="9.704277"><ele>183.3</ele></trkpt>
    <trkpt lat="50.051957" lon="9.704817"><ele>188.3</ele></trkpt>
    <trkpt lat="50.052084" lon="9.705368"><ele>193.6</ele></trkpt>
    <trkpt lat="50.052209" lon="9.705920"><ele>199.2</ele></trkpt>
    <trkpt lat="50.052341" lon="9.706466"><ele>205.0</ele></trkpt>
    <trkpt lat="50.052488" lon="9.706996"><ele>210.9</ele></trkpt>
    <trkpt lat="50.052656" lon="9.707505"><ele>217.0</ele></trkpt>
    <trkpt lat="50.052850" lon="9.707989"><ele>223.0</ele></trkpt>
    <trkpt lat="50.053068" lon="9.708448"><ele>229.1</ele></trkpt>
    <trkpt lat="50.053308" lon="9.708885"><ele>235.0</ele></trkpt>
    <trkpt lat="50.053564" lon="9.709307"><ele>240.8</ele></trkpt>
    <trkpt lat="50.053826" lon="9.709723"><ele>246.4</ele></trkpt>
    <trkpt lat="50.054086" lon="9.710140"><ele>251.7</ele></trkpt>
    <trkpt lat="50.054336" lon="9.710567"><ele>256.7</ele></trkpt>
    <trkpt lat="50.054570" lon="9.711011"><ele>261.3</ele></trkpt>
    <trkpt lat="50.054783" lon="9.711475"><ele>265.5</ele></trkpt>
    <trkpt lat="50.054977" lon="9.711959"><ele>269.2</ele></trkpt>
    <trkpt lat="50.055153" lon="9.712459"><ele>272.5</ele></trkpt>
    <trkpt lat="50.055318" lon="9.712972"><ele>275.1</ele></trkpt>
    <trkpt lat="50.055479" lon="9.713489"><ele>277.2</ele></trkpt>
    <trkpt lat="50.055642" lon="9.714004"><ele>278.8</ele></trkpt>
    <trkpt lat="50.055814" lon="9.714509"><ele>279.7</ele></trkpt>
    <trkpt lat="50.056000" lon="9.715000"><ele>280.0</ele></trkpt>
    <trkpt lat="50.056357" lon="9.715182"><ele>280.4</ele></trkpt>
    <trkpt lat="50.056732" lon="9.715345"><ele>281.5</ele></trkpt>
    <trkpt lat="50.057117" lon="9.715498"><ele>283.2</ele></trkpt>
    <trkpt lat="50.057500" lon="9.715654"><ele>285.7</ele></trkpt>
    <trkpt lat="50.057869" lon="9.715824"><ele>288.9</ele></trkpt>
    <trkpt lat="50.058213" lon="9.716017"><ele>292.6</ele></trkpt>
    <trkpt lat="50.058529" lon="9.716240"><ele>296.8</ele></trkpt>
    <trkpt lat="50.058818" lon="9.716489"><ele>301.6</ele></trkpt>
    <trkpt lat="50.059089" lon="9.716757"><ele>306.8</ele></trkpt>
    <trkpt lat="50.059353" lon="9.717032"><ele>312.3</ele></trkpt>
    <trkpt lat="50.059626" lon="9.717297"><ele>318.0</ele></trkpt>
    <trkpt lat="50.059922" lon="9.717540"><ele>324.0</ele></trkpt>
    <trkpt lat="50.060250" lon="9.717750"><ele>330.0</ele></trkpt>
    <trkpt lat="50.060614" lon="9.717924"><ele>336.0</ele></trkpt>
    <trkpt lat="50.061011" lon="9.718066"><ele>342.0</ele></trkpt>
    <trkpt lat="50.061430" lon="9.718186"><ele>347.7</ele></trkpt>
    <trkpt lat="50.061858" lon="9.718296"><ele>353.2</ele></trkpt>
    <trkpt lat="50.062280" lon="9.718412"><ele>358.4</ele></trkpt>
    <trkpt lat="50.062683" lon="9.718548"><ele>363.2</ele></trkpt>
    <trkpt lat="50.063060" lon="9.718710"><ele>367.4</ele></trkpt>
    <trkpt lat="50.063407" lon="9.718901"><ele>371.1</ele></trkpt>
    <trkpt lat="50.063731" lon="9.719115"><ele>374.3</ele></trkpt>
    <trkpt lat="50.064040" lon="9.719345"><ele>376.8</ele></trkpt>
    <trkpt lat="50.064347" lon="9.719576"><ele>378.5</ele></trkpt>
    <trkpt lat="50.064665" lon="9.719797"><ele>379.6</ele></trkpt>
    <trkpt lat="50.065000" lon="9.720000"><ele>380.0</ele></trkpt>
    <trkpt lat="50.065308" lon="9.719659"><ele>380.1</ele></trkpt>
    <trkpt lat="50.065631" lon="9.719303"><ele>380.2</ele></trkpt>
    <trkpt lat="50.065962" lon="9.718938"><ele>380.5</ele></trkpt>
    <trkpt lat="50.066297" lon="9.718570"><ele>380.9</ele></trkpt>
    <trkpt lat="50.066625" lon="9.718208"><ele>381.3</ele></trkpt>
    <trkpt lat="50.066940" lon="9.717860"><ele>381.9</ele></trkpt>
    <trkpt lat="50.067235" lon="9.717531"><ele>382.6</ele></trkpt>
    <trkpt lat="50.067509" lon="9.717224"><ele>383.3</ele></trkpt>
    <trkpt lat="50.067762" lon="9.716938"><ele>384.1</ele></trkpt>
    <trkpt lat="50.068000" lon="9.716667"><ele>385.0</ele></trkpt>
    <trkpt lat="50.068229" lon="9.716404"><ele>385.9</ele></trkpt>
    <trkpt lat="50.068460" lon="9.716140"><ele>386.9</ele></trkpt>
    <trkpt lat="50.068702" lon="9.715865"><ele>387.9</ele></trkpt>
    <trkpt lat="50.068964" lon="9.715570"><ele>389.0</ele></trkpt>
    <trkpt lat="50.069250" lon="9.715250"><ele>390.0</ele></trkpt>
    <trkpt lat="50.069564" lon="9.714903"><ele>391.0</ele></trkpt>
    <trkpt lat="50.069902" lon="9.714531"><ele>392.1</ele></trkpt>
    <trkpt lat="50.070260" lon="9.714140"><ele>393.1</ele></trkpt>
    <trkpt lat="50.070629" lon="9.713737"><ele>394.1</ele></trkpt>
    <trkpt lat="50.071000" lon="9.713333"><ele>395.0</ele></trkpt>
    <trkpt lat="50.071362" lon="9.712938"><ele>395.9</ele></trkpt>
    <trkpt lat="50.071709" lon="9.712557"><ele>396.7</ele></trkpt>
    <trkpt lat="50.072035" lon="9.712198"><ele>397.4</ele></trkpt>
    <trkpt lat="50.072340" lon="9.711860"><ele>398.1</ele></trkpt>
    <trkpt lat="50.072625" lon="9.711542"><ele>398.7</ele></trkpt>
    <trkpt lat="50.072897" lon="9.711237"><ele>399.1</ele></trkpt>
    <trkpt lat="50.073162" lon="9.710938"><ele>399.5</ele></trkpt>
    <trkpt lat="50.073431" lon="9.710636"><ele>399.8</ele></trkpt>
    <trkpt lat="50.073708" lon="9.710325"><ele>399.9</ele></trkpt>
    <trkpt lat="50.074000" lon="9.710000"><ele>400.0</ele></trkpt>
    <trkpt lat="50.074061" lon="9.709439"><ele>399.9</ele></trkpt>
    <trkpt lat="50.074133" lon="9.708867"><ele>399.7</ele></trkpt>
    <trkpt lat="50.074212" lon="9.708288"><ele>399.3</ele></trkpt>
    <trkpt lat="50.074296" lon="9.707704"><ele>398.8</ele></trkpt>
    <trkpt lat="50.074380" lon="9.707120"><ele>398.1</ele></trkpt>
    <trkpt lat="50.074458" lon="9.706542"><ele>397.3</ele></trkpt>
    <trkpt lat="50.074527" lon="9.705973"><ele>396.4</ele></trkpt>
    <trkpt lat="50.074584" lon="9.705416"><ele>395.3</ele></trkpt>
    <trkpt lat="50.074625" lon="9.704875"><ele>394.1</ele></trkpt>
    <trkpt lat="50.074651" lon="9.704349"><ele>392.9</ele></trkpt>
    <trkpt lat="50.074664" lon="9.703836"><ele>391.5</ele></trkpt>
    <trkpt lat="50.074667" lon="9.703333"><ele>390.0</ele></trkpt>
    <trkpt lat="50.074664" lon="9.702836"><ele>388.5</ele></trkpt>
    <trkpt lat="50.074660" lon="9.702340"><ele>386.8</ele></trkpt>
    <trkpt lat="50.074663" lon="9.701837"><ele>385.2</ele></trkpt>
    <trkpt lat="50.074676" lon="9.701324"><ele>383.5</ele></trkpt>
    <trkpt lat="50.074704" lon="9.700796"><ele>381.7</ele></trkpt>
    <trkpt lat="50.074750" lon="9.700250"><ele>380.0</ele></trkpt>
    <trkpt lat="50.074815" lon="9.699685"><ele>378.3</ele></trkpt>
    <trkpt lat="50.074898" lon="9.699102"><ele>376.5</ele></trkpt>
    <trkpt lat="50.074996" lon="9.698504"><ele>374.8</ele></trkpt>
    <trkpt lat="50.075105" lon="9.697895"><ele>373.2</ele></trkpt>
    <trkpt lat="50.075219" lon="9.697281"><ele>371.5</ele></trkpt>
    <trkpt lat="50.075333" lon="9.696667"><ele>370.0</ele></trkpt>
    <trkpt lat="50.075442" lon="9.696058"><ele>368.5</ele></trkpt>
    <trkpt lat="50.075540" lon="9.695460"><ele>367.1</ele></trkpt>
    <trkpt lat="50.075625" lon="9.694875"><ele>365.9</ele></trkpt>
    <trkpt lat="50.075695" lon="9.694305"><ele>364.7</ele></trkpt>
    <trkpt lat="50.075750" lon="9.693750"><ele>363.6</ele></trkpt>
    <trkpt lat="50.075792" lon="9.693208"><ele>362.7</ele></trkpt>
    <trkpt lat="50.075824" lon="9.692676"><ele>361.9</ele></trkpt>
    <trkpt lat="50.075852" lon="9.692148"><ele>361.2</ele></trkpt>
    <trkpt lat="50.075879" lon="9.691621"><ele>360.7</ele></trkpt>
    <trkpt lat="50.075911" lon="9.691089"><ele>360.3</ele></trkpt>
    <trkpt lat="50.075950" lon="9.690550"><ele>360.1</ele></trkpt>
    <trkpt lat="50.076000" lon="9.690000"><ele>360.0</ele></trkpt>
    <trkpt lat="50.075771" lon="9.689553"><ele>359.9</ele></trkpt>
    <trkpt lat="50.075554" lon="9.689093"><ele>359.5</ele></trkpt>
    <trkpt lat="50.075345" lon="9.688626"><ele>358.9</ele></trkpt>
    <trkpt lat="50.075140" lon="9.688154"><ele>358.0</ele></trkpt>
    <trkpt lat="50.074933" lon="9.687685"><ele>356.9</ele></trkpt>
    <trkpt lat="50.074719" lon="9.687222"><ele>355.5</ele></trkpt>
    <trkpt lat="50.074493" lon="9.686771"><ele>353.9</ele></trkpt>
    <trkpt lat="50.074252" lon="9.686336"><ele>352.2</ele></trkpt>
    <trkpt lat="50.073994" lon="9.685918"><ele>350.2</ele></trkpt>
    <trkpt lat="50.073719" lon="9.685516"><ele>348.1</ele></trkpt>
    <trkpt lat="50.073431" lon="9.685127"><ele>345.8</ele></trkpt>
    <trkpt lat="50.073135" lon="9.684747"><ele>343.4</ele></trkpt>
    <trkpt lat="50.072837" lon="9.684369"><ele>340.8</ele></trkpt>
    <trkpt lat="50.072544" lon="9.683986"><ele>338.2</ele></trkpt>
    <trkpt lat="50.072262" lon="9.683591"><ele>335.5</ele></trkpt>
    <trkpt lat="50.071996" lon="9.683181"><ele>332.8</ele></trkpt>
    <trkpt lat="50.071750" lon="9.682750"><ele>330.0</ele></trkpt>
    <trkpt lat="50.071525" lon="9.682298"><ele>327.2</ele></trkpt>
    <trkpt lat="50.071320" lon="9.681827"><ele>324.5</ele></trkpt>
    <trkpt lat="50.071132" lon="9.681338"><ele>321.8</ele></trkpt>
    <trkpt lat="50.070955" lon="9.680839"><ele>319.2</ele></trkpt>
    <trkpt lat="50.070782" lon="9.680335"><ele>316.6</ele></trkpt>
    <trkpt lat="50.070608" lon="9.679833"><ele>314.2</ele></trkpt>
    <trkpt lat="50.070425" lon="9.679340"><ele>311.9</ele></trkpt>
    <trkpt lat="50.070229" lon="9.678859"><ele>309.8</ele></trkpt>
    <trkpt lat="50.070017" lon="9.678395"><ele>307.8</ele></trkpt>
    <trkpt lat="50.069788" lon="9.677948"><ele>306.1</ele></trkpt>
    <trkpt lat="50.069543" lon="9.677516"><ele>304.5</ele></trkpt>
    <trkpt lat="50.069286" lon="9.677096"><ele>303.1</ele></trkpt>
    <trkpt lat="50.069022" lon="9.676684"><ele>302.0</ele></trkpt>
    <trkpt lat="50.068756" lon="9.676273"><ele>301.1</ele></trkpt>
    <trkpt lat="50.068495" lon="9.675858"><ele>300.5</ele></trkpt>
    <trkpt lat="50.068242" lon="9.675435"><ele>300.1</ele></trkpt>
    <trkpt lat="50.068000" lon="9.675000"><ele>300.0</ele></trkpt>
    <trkpt lat="50.067664" lon="9.675164"><ele>299.8</ele></trkpt>
    <trkpt lat="50.067343" lon="9.675312"><ele>299.1</ele></trkpt>
    <trkpt lat="50.067032" lon="9.675451"><ele>297.9</ele></trkpt>
    <trkpt lat="50.066722" lon="9.675589"><ele>296.3</ele></trkpt>
    <trkpt lat="50.066405" lon="9.675733"><ele>294.3</ele></trkpt>
    <trkpt lat="50.066072" lon="9.675894"><ele>291.8</ele></trkpt>
    <trkpt lat="50.065717" lon="9.676076"><ele>289.0</ele></trkpt>
    <trkpt lat="50.065340" lon="9.676281"><ele>285.9</ele></trkpt>
    <trkpt lat="50.064941" lon="9.676507"><ele>282.4</ele></trkpt>
    <trkpt lat="50.064528" lon="9.676748"><ele>278.7</ele></trkpt>
    <trkpt lat="50.064109" lon="9.676994"><ele>274.8</ele></trkpt>
    <trkpt lat="50.063696" lon="9.677235"><ele>270.7</ele></trkpt>
    <trkpt lat="50.063299" lon="9.677459"><ele>266.5</ele></trkpt>
    <trkpt lat="50.062926" lon="9.677660"><ele>262.2</ele></trkpt>
    <trkpt lat="50.062581" lon="9.677833"><ele>257.8</ele></trkpt>
    <trkpt lat="50.062265" lon="9.677977"><ele>253.5</ele></trkpt>
    <trkpt lat="50.061972" lon="9.678097"><ele>249.3</ele></trkpt>
    <trkpt lat="50.061696" lon="9.678201"><ele>245.2</ele></trkpt>
    <trkpt lat="50.061424" lon="9.678300"><ele>241.3</ele></trkpt>
    <trkpt lat="50.061148" lon="9.678404"><ele>237.6</ele></trkpt>
    <trkpt lat="50.060857" lon="9.678522"><ele>234.1</ele></trkpt>
    <trkpt lat="50.060545" lon="9.678662"><ele>231.0</ele></trkpt>
    <trkpt lat="50.060210" lon="9.678825"><ele>228.2</ele></trkpt>
    <trkpt lat="50.059853" lon="9.679009"><ele>225.7</ele></trkpt>
    <trkpt lat="50.059480" lon="9.679209"><ele>223.7</ele></trkpt>
    <trkpt lat="50.059101" lon="9.679417"><ele>222.1</ele></trkpt>
    <trkpt lat="50.058722" lon="9.679623"><ele>220.9</ele></trkpt>
    <trkpt lat="50.058353" lon="9.679819"><ele>220.2</ele></trkpt>
    <trkpt lat="50.058000" lon="9.680000"><ele>220.0</ele></trkpt>
    <trkpt lat="50.057814" lon="9.680476"><ele>219.9</ele></trkpt>
    <trkpt lat="50.057642" lon="9.680939"><ele>219.4</ele></trkpt>
    <trkpt lat="50.057479" lon="9.681392"><ele>218.7</ele></trkpt>
    <trkpt lat="50.057318" lon="9.681843"><ele>217.8</ele></trkpt>
    <trkpt lat="50.057153" lon="9.682298"><ele>216.5</ele></trkpt>
    <trkpt lat="50.056977" lon="9.682765"><ele>215.1</ele></trkpt>
    <trkpt lat="50.056783" lon="9.683249"><ele>213.4</ele></trkpt>
    <trkpt lat="50.056570" lon="9.683753"><ele>211.4</ele></trkpt>
    <trkpt lat="50.056336" lon="9.684277"><ele>209.3</ele></trkpt>
    <trkpt lat="50.056086" lon="9.684817"><ele>207.0</ele></trkpt>
    <trkpt lat="50.055826" lon="9.685368"><ele>204.6</ele></trkpt>
    <trkpt lat="50.055564" lon="9.685920"><ele>202.1</ele></trkpt>
    <trkpt lat="50.055308" lon="9.686466"><ele>199.4</ele></trkpt>
    <trkpt lat="50.055068" lon="9.686996"><ele>196.7</ele></trkpt>
    <trkpt lat="50.054850" lon="9.687505"><ele>193.9</ele></trkpt>
    <trkpt lat="50.054656" lon="9.687989"><ele>191.1</ele></trkpt>
    <trkpt lat="50.054488" lon="9.688448"><ele>188.3</ele></trkpt>
    <trkpt lat="50.054341" lon="9.688885"><ele>185.6</ele></trkpt>
    <trkpt lat="50.054209" lon="9.689307"><ele>182.9</ele></trkpt>
    <trkpt lat="50.054084" lon="9.689723"><ele>180.4</ele></trkpt>
    <trkpt lat="50.053957" lon="9.690140"><ele>178.0</ele></trkpt>
    <trkpt lat="50.053820" lon="9.690567"><ele>175.7</ele></trkpt>
    <trkpt lat="50.053666" lon="9.691011"><ele>173.6</ele></trkpt>
    <trkpt lat="50.053493" lon="9.691475"><ele>171.6</ele></trkpt>
    <trkpt lat="50.053300" lon="9.691959"><ele>169.9</ele></trkpt>
    <trkpt lat="50.053089" lon="9.692459"><ele>168.5</ele></trkpt>
    <trkpt lat="50.052867" lon="9.692972"><ele>167.2</ele></trkpt>
    <trkpt lat="50.052640" lon="9.693489"><ele>166.3</ele></trkpt>
    <trkpt lat="50.052416" lon="9.694004"><ele>165.6</ele></trkpt>
    <trkpt lat="50.052201" lon="9.694509"><ele>165.1</ele></trkpt>
    <trkpt lat="50.052000" lon="9.695000"><ele>165.0</ele></trkpt>
  </trkseg></trk>
</gpx>
